,place_name,place_address,lat,lon,category
0,FR푸드시스템,서울특별시 강서구 공항대로  318,37.5578004,126.8429146,korean_food
1,OK목장,서울특별시 송파구 백제고분로 547,,,korean_food
2,The만나,서울특별시 노원구 석계로 103,37.6228422,127.0607257,korean_food
3,㈜이리오어라(한정식),서울특별시 강남구 언주로153길  12,37.5229563,127.0322076,korean_food
4,가야옥,서울특별시 도봉구 도당로   2,37.6584051,127.0353288,korean_food
5,가족천하,서울특별시 영등포구 가마산로 330,37.4988134,126.8963458,korean_food
6,갈비둥지,서울특별시 노원구 덕릉로 692,37.6594099,127.0756895,korean_food
7,갈비사랑,서울특별시 서초구 강남대로  204,37.4824877,127.0367359,korean_food
8,갈비세상,서울특별시 구로구 경인로 281,37.4985185,126.8518305,korean_food
9,갈비예찬,서울특별시 도봉구 노해로 259,37.6516806,127.0369924,korean_food
10,감자바우,서울특별시 강남구 언주로 855,37.5268281,127.0330002,korean_food
11,강강술래,서울특별시 노원구 동일로 1628,37.6738467,127.0560364,korean_food
12,강강술래,서울특별시 강남구 논현로  325,37.4941596,127.0395037,korean_food
13,개성면옥,서울특별시 성북구 정릉로  263,37.6041112,127.0129438,korean_food
14,개성면옥(함흥냉면),서울특별시 강서구 양천로 660,37.5521232,126.8701058,korean_food
15,거북이집,서울특별시 서대문구 연희로  12-1,37.559869,126.9268685,korean_food
16,경복궁,서울특별시 송파구 올림픽로  348,37.5159388,127.1090497,korean_food
17,경복궁(불고기브라더스),서울특별시 강서구 공항대로  280,37.5580246,126.8384644,korean_food
18,경인빌딩(엉터리생고기),서울특별시 관악구 봉천로 385,37.4833907,126.9427876,korean_food
19,고기굼터,서울특별시 강서구 양천로 376,37.5668587,126.8437349,korean_food
20,골방집,서울특별시 강북구 한천로 926,37.6344328,127.0369615,korean_food
21,공룡고기,서울특별시 금천구 시흥대로  185,37.4503787,126.9018373,korean_food
22,공룡고기,서울특별시 도봉구 마들로 542,37.6600937,127.0505195,korean_food
23,광양림,서울특별시 영등포구 선유로9가길  16,37.5186215,126.8883051,korean_food
24,교촌1991,서울특별시 서초구 강남대로69길  8,37.5018431,127.0246486,korean_food
25,궁안뜰,서울특별시 노원구 공릉로51길 7,37.6287838,127.0767277,korean_food
26,근린생활시설(고갯마루한정식),서울특별시 노원구 수락산로 56,37.667333,127.0707848,korean_food
27,근린생활시설(대게나라),서울특별시 노원구 상계로 122,37.6578035,127.0684749,korean_food
28,근린생활시설(못된송아지),서울특별시 노원구 상계로5길 26,37.6571312,127.0632555,korean_food
29,근린생활시설(배밭고을),서울특별시 노원구 동일로 1611,37.6722543,127.0554497,korean_food
30,근린생활시설(벽창우생고기전문점),서울특별시 노원구 동일로242길 54,37.6746089,127.0581706,korean_food
31,근린생활시설(봉평산골메밀촌),서울특별시 노원구 동일로242길 54,37.6746089,127.0581706,korean_food
32,근린생활시설(생고기전문점취어당),서울특별시 노원구 노원로 447,37.6564111,127.0665028,korean_food
33,근린생활시설(엉터리생고기),서울특별시 노원구 상계로7길 39,37.658368,127.0642819,korean_food
34,근린생활시설(진할매칼국수보쌈),서울특별시 노원구 동일로242길 109,37.6747426,127.0612541,korean_food
35,근린생활시설(착한고기),서울특별시 노원구 수락산로 232,37.67104,127.052987,korean_food
36,근린생활시설(천하뼈다귀감자탕),서울특별시 노원구 동일로 1595,37.6708655,127.0557297,korean_food
37,근린생활시설(친구네숯불닭갈비),서울특별시 노원구 동일로242길 123,37.6748449,127.0615007,korean_food
38,근린생활시설(풍천민물장어),서울특별시 노원구 노해로81길 12-26,37.6556176,127.0642259,korean_food
39,근린생활시설(화통구이),서울특별시 노원구 덕릉로 754,37.6645344,127.0771559,korean_food
40,근린생활시설(황금오리농원),서울특별시 노원구 동일로231길 17,37.6720446,127.0547256,korean_food
41,금수복국,서울특별시 강남구 언주로  821,37.5235379,127.0327801,korean_food
42,금수복국,서울특별시 강남구 삼성로  338,37.5018542,127.0597723,korean_food
43,나주곰탕,서울특별시 관악구 신림로64길  9,37.4851772,126.9302453,korean_food
44,남원추어탕,서울특별시 노원구 한글비석로1길 69,37.640721,127.0702199,korean_food
45,논골집,서울특별시 강남구 압구정로79길 55,37.5256847,127.0516626,korean_food
46,놀부 유황오리 진흙구이 청담점(청담솔 빌딩),서울특별시 강남구 삼성로148길 10,37.5237188,127.0486403,korean_food
47,놀부부대찌게&철판구이,서울특별시 도봉구 노해로69길  15-9,37.6529202,127.0503776,korean_food
48,달인갈매기(광명빌딩),서울특별시 강남구 강남대로114길 13,37.5060416,127.0253752,korean_food
49,대가순대국,서울특별시 노원구 한글비석로 452,37.6640301,127.0678805,korean_food
50,대문한정식,서울특별시 도봉구 시루봉로  139-6,37.6637126,127.0275639,korean_food
51,대박고기집(등마루오리한마당),서울특별시 강서구 공항대로36길 9,37.5581307,126.8374673,korean_food
52,대원,서울특별시 강남구 강남대로114길 8,37.5056933,127.0250529,korean_food
53,대원정,서울특별시 서초구 동산로 6,37.468978,127.0406963,korean_food
54,대창타운빌,서울특별시 구로구 개봉로23가길 70,37.4948615,126.8598277,korean_food
55,도봉산갈비,서울특별시 도봉구 도봉로  915,37.6860199,127.0456825,korean_food
56,돈촌삼겹살,서울특별시 중랑구 사가정로51길 21,37.5819419,127.0879091,korean_food
57,동구밖 장작구이(단군의땅),서울특별시 강동구 진황도로 227,37.5263454,127.1450306,korean_food
58,동굴과 화로구이(뉴명성),서울특별시 은평구 은평로  185,37.6021869,126.9282846,korean_food
59,둘레길주막미담,서울특별시 은평구 대서문길  43-7,37.6555173,126.9495152,korean_food
60,뚝심,서울특별시 관악구 남부순환로  1852,37.4799003,126.9555934,korean_food
61,마루갈비,서울특별시 강동구 양재대로 1642,37.5519693,127.1442708,korean_food
62,만가화로구이,서울특별시 강서구 양천로18길 9,37.5729584,126.8129901,korean_food
63,만석장,서울특별시 은평구 대서문길  43-10,37.6558778,126.9495666,korean_food
64,맛있는고기구워먹는곳,서울특별시 동작구 상도로37길 62,37.4987422,126.9521067,korean_food
65,"명가낙지마당(지하1,지상1층)",서울특별시 양천구 목동로 614-9,,,korean_food
66,명가설렁탕,서울특별시 서초구 서초대로  23,37.4860585,126.9849914,korean_food
67,명문의집,서울특별시 성동구 마장로 360,37.5691564,127.0484733,korean_food
68,몽골찬한우,서울특별시 성북구 동소문로  212-66,37.6014402,127.0232932,korean_food
69,무봉리토종순대국,서울특별시 도봉구 노해로67길 2,37.6524415,127.0500717,korean_food
70,미가할매,서울특별시 관악구 신림로 374,37.4877179,126.9290109,korean_food
71,미담,서울특별시 양천구 목동서로 133-4,37.5318241,126.8760756,korean_food
72,미락(신성빌딩),서울특별시 강서구 공항대로  519,37.5517744,126.8641275,korean_food
73,민속촌(용강빌딩),서울특별시 강남구 도산대로 535,37.5251882,127.0521921,korean_food
74,바달비,서울특별시 관악구 봉천로12길  17,37.4879703,126.9294935,korean_food
75,박미선 별난갈비,서울특별시 관악구 봉천로  535,37.4788989,126.9574855,korean_food
76,벽제갈비,서울특별시 서대문구 연세로 14,37.5567681,126.9370897,korean_food
77,별당보리밥,서울특별시 강북구 4.19로 51,37.6465671,127.0088563,korean_food
78,보름달,서울특별시 강남구 테헤란로37길 22,37.5036944,127.0405346,korean_food
79,보성식당,서울특별시 노원구 덕릉로 849,37.6720992,127.0825759,korean_food
80,본가,서울특별시 노원구 노해로83길 10-4,37.6557096,127.0646019,korean_food
81,본돈,서울특별시 강남구 테헤란로1길 29-9,,,korean_food
82,봉산집,서울특별시 강남구 삼성로 564,37.5119457,127.0543454,korean_food
83,봉우리,서울특별시 강남구 논현로94길  25-3,37.5030374,127.0381676,korean_food
84,봉추찜닭(신사빌딩),서울특별시 강남구 도산대로13길 14-4,37.5188769,127.0236186,korean_food
85,봉피양마포점(오늘도안동한우),서울특별시 마포구 토정로  308,37.5401064,126.9429259,korean_food
86,불고기 브라더스 서교점,서울특별시 마포구 양화로 107,37.5535958,126.918773,korean_food
87,빵경이네 도야지,서울특별시 강남구 테헤란로39길 40,37.5051419,127.0408191,korean_food
88,산봉냉면,서울특별시 강남구 선릉로62길  13,37.4975281,127.0535717,korean_food
89,산화로구이,서울특별시 강서구 강서로  374,37.559045,126.838781,korean_food
90,삼수갑산,서울특별시 관악구 남현1길  38-9,37.4755848,126.9797123,korean_food
91,삼호가든,서울특별시 양천구 신월로 210,37.5207749,126.8456437,korean_food
92,삼호복집,서울특별시 서대문구 연세로5다길 10,37.5565304,126.9350031,korean_food
93,상도갈비,서울특별시 동작구 매봉로 13,37.5058906,126.9501708,korean_food
94,새마을식당,서울특별시 노원구 노해로81길 12-20,37.65559,127.06398,korean_food
95,새마을식당(덕당빌딩),서울특별시 강남구 논현로150길  33,37.5199562,127.0311624,korean_food
96,서귀포뚝배기,서울특별시 서초구 반포대로30길 32,37.4918407,127.0103547,korean_food
97,서울인삼토계촌(일반음식점),서울특별시 마포구 모래내로 89,37.566766,126.9127337,korean_food
98,서울집,서울특별시 서초구 반포대로 46,37.4845914,127.0115615,korean_food
99,서초동이남장,서울특별시 서초구 서초대로49길 4,37.4937958,127.0123877,korean_food
100,세종대왕숯불갈비,서울특별시 동작구 여의대방로 136,37.4992251,126.920702,korean_food
101,소담설농탕,서울특별시 구로구 경인로 385,37.4969724,126.8629357,korean_food
102,손문 대구막창 갈매기살,서울특별시 강남구 삼성로64길 49,37.5010802,127.0642783,korean_food
103,손수헌(한식레스토랑),서울특별시 강남구 선릉로145길  11,37.5212354,127.0387388,korean_food
104,송가네(일반음식점),서울특별시 마포구 동교로  247,37.5620475,126.924185,korean_food
105,송림가든,서울특별시 구로구 경인로 398,37.4970088,126.8644227,korean_food
106,수라간,서울특별시 강서구 양천로  364,37.5673188,126.8426474,korean_food
107,수원갈비,서울특별시 노원구 동일로 1612,37.6724331,127.0561803,korean_food
108,수원왕갈비,서울특별시 성동구 마장로   317,37.5674448,127.0441876,korean_food
109,수정궁(갈비탕 전문점),서울특별시 강남구 도곡로63길  20,37.4984286,127.0541646,korean_food
110,순흥골돼지갈비전문점,서울특별시 강서구 양천로 608,37.5550175,126.8654169,korean_food
111,쉐프케이엔알(송은아트 스페이스),서울특별시 강남구 압구정로75길  6,37.5261619,127.0470228,korean_food
112,시화담,서울특별시 용산구 회나무로  75,37.5406722,126.9948575,korean_food
113,"신라비빔밥,샤브칼국수",서울특별시 강동구 양재대로85길 16,37.5246359,127.1337882,korean_food
114,신사면옥,서울특별시 강남구 도산대로 311,37.5224824,127.0353325,korean_food
115,신의주 찰쌀 순대(호텔 칸),서울특별시 강남구 영동대로 725,37.5224788,127.0551812,korean_food
116,신토오리,서울특별시 송파구 문정로4길  14-38,,,korean_food
117,아미소,서울특별시 중구 동호로14길 18,37.5563942,127.0108435,korean_food
118,안동찜닭,서울특별시 중구 명동4길 25,37.562483,126.9841063,korean_food
119,안창골오리농원신내점,서울특별시 중랑구 용마산로 623,37.6067233,127.1004799,korean_food
120,양대박,서울특별시 송파구 백제고분로46길 44,37.5068354,127.1156441,korean_food
121,양주골오리마을,서울특별시 도봉구 도봉로150다길 64,37.6689327,127.0445591,korean_food
122,양지촌,서울특별시 중랑구 망우로 184,37.5928712,127.0732928,korean_food
123,양촌리,서울특별시 강동구 양재대로 1444,37.5347248,127.139246,korean_food
124,양촌리,서울특별시 은평구 은평로 141,37.6008905,126.9232823,korean_food
125,양촌리 화로 숯불구이,서울특별시 강남구 남부순환로  2720,37.4855196,127.0436049,korean_food
126,역삼버드나무 집,서울특별시 강남구 언주로 522,37.5053198,127.0419863,korean_food
127,연신내부대찌개,서울특별시 은평구 연서로  187,37.6155678,126.9179267,korean_food
128,연안본가,서울특별시 송파구 새말로  14,,,korean_food
129,연일선지해장국,서울특별시 서대문구 수색로  127,37.5740461,126.9058649,korean_food
130,영천 영화 고기집(상민빌딩),서울특별시 강남구 도산대로90길 3,37.5239572,127.0495908,korean_food
131,예소원,서울특별시 서대문구 성산로 535,37.5643928,126.9447962,korean_food
132,예향,서울특별시 강남구 언주로107길  7,37.507401,127.0382279,korean_food
133,옛골토성,서울특별시 은평구 대서문길  45-7,37.6552608,126.9500745,korean_food
134,옛골토성,서울특별시 강서구 공항대로  353,37.557997,126.8470604,korean_food
135,옛골토성,서울특별시 강서구 공항대로  353,37.557997,126.8470604,korean_food
136,옛골토성상봉점,서울특별시 중랑구 면목로 494,37.5960594,127.0859129,korean_food
137,오리킹,서울특별시 중랑구 용마산로129길 10,37.6076373,127.1002565,korean_food
138,오발탄,서울특별시 서초구 반포대로 154,37.4936352,127.0072166,korean_food
139,오발탄,서울특별시 강남구 논현로86길  12,37.4995053,127.0388305,korean_food
140,오발탄,서울특별시 강남구 논현로86길  12,37.4995053,127.0388305,korean_food
141,오삼 부대찌개(상류사회빌딩),서울특별시 강남구 논현로131길  14,37.51444,127.0291083,korean_food
142,옥토빌딩<일반음식점>-다미식당,서울특별시 도봉구 방학로 214,37.662116,127.028279,korean_food
143,온누림,서울특별시 노원구 덕릉로60길 293,37.6287532,127.0475889,korean_food
144,왕돌구이집,서울특별시 송파구 오금로15길 -12,37.5126664,127.1096863,korean_food
145,왕초한우건물,서울특별시 용산구 대사관로34길 39,37.5315798,127.0059703,korean_food
146,원조 현풍 할매집 곰탕,서울특별시 강남구 언주로87길  6,37.5017749,127.0425739,korean_food
147,육 칠 팔,서울특별시 강남구 논현로 420,37.4978479,127.0388484,korean_food
148,이남장,서울특별시 종로구 새문안로3길 11,37.5713615,126.9723336,korean_food
149,이조화로구이,서울특별시 강서구 양천로  738,37.5486398,126.8774749,korean_food
150,이하정 간장게장 서울본점,서울특별시 송파구 위례성대로18길  4,37.5118003,127.1261204,korean_food
151,일반음식점(나주곰탕),서울특별시 마포구 도화길 12,37.5397992,126.9477728,korean_food
152,일킬로칼국수,서울특별시 서초구 강남대로37길 59,37.4845647,127.0303314,korean_food
153,일품신토오리,서울특별시 중랑구 봉화산로 231,37.6083139,127.0983139,korean_food
154,일품신토오리,서울특별시 강서구 공항대로  326,37.5577572,126.8437643,korean_food
155,일품신토오리,서울특별시 강서구 공항대로  326,37.5577572,126.8437643,korean_food
156,임고집한우,서울특별시 강남구 테헤란로104길 11,37.5084653,127.0652699,korean_food
157,자연한그릇,서울특별시 노원구 동일로 1602,37.671412,127.0563553,korean_food
158,자하문정식,서울특별시 종로구 진흥로 493-5,37.6049039,126.9618135,korean_food
159,장터순대국,서울특별시 서대문구 홍은중앙로 113,37.6005326,126.9486631,korean_food
160,장풍(성원빌딩),서울특별시 강남구 선릉로  816,37.5245987,127.0399758,korean_food
161,전원일기,서울특별시 중랑구 망우로 438,37.599513,127.1009916,korean_food
162,전원일기(전원도시),서울특별시 강서구 강서로  323,37.5547471,126.836383,korean_food
163,정감어린,서울특별시 용산구 후암로 4,37.5462539,126.9787061,korean_food
164,정선참숯골,서울특별시 용산구 이촌로29길 8-18,37.523708,126.9600334,korean_food
165,정원순두부,서울특별시 중구 무교로  24,37.5681085,126.9794912,korean_food
166,정통복국(청운빌딩),서울특별시 강남구 도산대로 236,37.5208087,127.0331699,korean_food
167,진대감,서울특별시 서초구 반포대로14길 18,37.4852444,127.0122284,korean_food
168,찰진고기(그랑프리 빌딩),서울특별시 강남구 테헤란로10길 9,37.4985419,127.0326439,korean_food
169,참숯과화로구이,서울특별시 강서구 등촌로  57,37.5350083,126.8631369,korean_food
170,천둥소리,서울특별시 도봉구 시루봉로   135,37.662952,127.0274059,korean_food
171,천수만,서울특별시 중랑구 용마산로 628,37.6068786,127.1011767,korean_food
172,천하무적,서울특별시 송파구 송파대로34길 25,37.4991265,127.1150877,korean_food
173,청송면옥,서울특별시 관악구 보라매로3길 16,37.4916471,126.9263076,korean_food
174,초동집,서울특별시 서초구 서운로  135,37.4955119,127.0245196,korean_food
175,최고집칼국수,서울특별시 도봉구 덕릉로    268,37.6410172,127.0408422,korean_food
176,춘천본점닭갈비,서울특별시 노원구 상계로5길 31,37.6568272,127.0630304,korean_food
177,코다리냉면,서울특별시 송파구 문정로 31,37.4864798,127.1262024,korean_food
178,코다리냉면,서울특별시 송파구 문정로  31,37.4864798,127.1262024,korean_food
179,코리아하우스(아름다운빌딩),서울특별시 강남구 압구정로79길 56,37.5253393,127.0518078,korean_food
180,코리안덕,서울특별시 서대문구 세검정로1길 21,37.5925871,126.9428359,korean_food
181,코스모,서울특별시 금천구 시흥대로123길  14,37.4705015,126.8972613,korean_food
182,콩심은데 콩나고,서울특별시 서초구 남부순환로354길  14,37.4842054,127.0369908,korean_food
183,큰대문집,서울특별시 서초구 반포대로28길 77,37.4919399,127.0124058,korean_food
184,태능가든,서울특별시 중랑구 신내로14길 13,37.6058512,127.0960802,korean_food
185,태릉숯불갈비,서울특별시 노원구 한글비석로1길 37,37.6393359,127.0703758,korean_food
186,태평(한식집),서울특별시 강남구 테헤란로6길 14,37.4976616,127.0304525,korean_food
187,통일동산두부마을,서울특별시 강서구 방화대로  375,37.5743789,126.8164648,korean_food
188,퍼쥬망 왕갈비전문점,서울특별시 종로구 삼일대로15길 18,37.5689303,126.9864923,korean_food
189,평양면옥,서울특별시 서초구 강남대로93길 28,37.5129522,127.0189537,korean_food
190,평양초계탕,서울특별시 은평구 대서문길  13-11,37.6580569,126.9472036,korean_food
191,하누소,서울특별시 도봉구 노해로 327,37.6515122,127.0448231,korean_food
192,한국의집,서울특별시 중구 청계천로 8,37.5688383,126.9782419,korean_food
193,한마당 본점,서울특별시 성북구 화랑로 187,37.6079899,127.050927,korean_food
194,한우식당 마블스,서울특별시 영등포구 신풍로  10,37.4999252,126.9069976,korean_food
195,한우정육식당(부경빌딩),서울특별시 강남구 강남대로118길 12,37.5063094,127.0247647,korean_food
196,한우한마리,서울특별시 강서구 강서로5나길 65,37.5282133,126.8445362,korean_food
197,한일관,서울특별시 강남구 압구정로38길 14,37.5277852,127.0325082,korean_food
198,해주곰탕,서울특별시 노원구 공릉로 360,37.6388915,127.0697659,korean_food
199,행복가,서울특별시 중구 퇴계로36길 10,37.5601971,126.9945463,korean_food
200,형제갈비,서울특별시 서대문구 명물1길  2,37.5578432,126.9373587,korean_food
201,호텔 프리마 (주)풍류관,서울특별시 강남구 도산대로102길 10,37.5239467,127.0528394,korean_food
202,홍천한우,서울특별시 서초구 효령로55길 47,37.4869719,127.0140205,korean_food
203,화로 숫불 종로갈비(J빌딩),서울특별시 강남구 테헤란로1길  28-6,37.5002524,127.0280375,korean_food
204,화로구이,서울특별시 서초구 강남대로  267,37.4871587,127.0323185,korean_food
205,화로구이,서울특별시 관악구 남부순환로 1453,37.4817343,126.9121878,korean_food
206,화로구이,서울특별시 강북구 한천로 948,37.6353916,127.0350954,korean_food
207,화로촌,서울특별시 성북구 보국문로  24-2,37.6068608,127.0111207,korean_food
208,화사랑화로구이,서울특별시 송파구 오금로 162,37.5098088,127.1124789,korean_food
209,활화산조개구이,서울특별시 광진구 아차산로33길  49,37.5425099,127.0707359,korean_food
210,황실떡,서울특별시 서초구 서초대로25길 37,37.4894384,126.9933187,korean_food
211,황토궁,서울특별시 강남구 테헤란로83길 47,37.5103636,127.0564333,korean_food
212,회령쌈밥,서울특별시 노원구 한글비석로1길 33,37.6391602,127.0703956,korean_food
213,휘모리,서울특별시 강남구 도곡로93길  7,37.5006714,127.0644403,korean_food
214,흑다돈,서울특별시 서초구 강남대로65길 10,37.5005199,127.0249307,korean_food
215,흑돈가,서울특별시 서초구 서운로  133,37.4953731,127.0246984,korean_food
216,흑돈가,서울특별시 강남구 봉은사로86길 14,37.5125247,127.0563303,korean_food
217,흥부골 님원 추어탕(레보빌),서울특별시 강남구 언주로113길  14,37.5093982,127.0362394,korean_food
0,ZINO,서울특별시 서대문구 연대동문길 45,37.5644289,126.9444184,western_food
1,고릴라 인더 키친(연우빌딩),서울특별시 강남구 도산대로45길 18,37.5235814,127.0355114,western_food
2,그라노 더 그릴(히든하우스),서울특별시 강남구 언주로168길  16,37.5261638,127.0349468,western_food
3,돈까스클럽,서울특별시 도봉구 시루봉로 68,37.6568338,127.028262,western_food
4,뚜레쥬르 <제과점>,서울특별시 도봉구 도봉로180길 6,37.6831151,127.046685,western_food
5,롯데리아,서울특별시 은평구 응암로 229,37.592426,126.9175157,western_food
6,롯데리아,서울특별시 강동구 양재대로 1651,37.5529747,127.1438239,western_food
7,미스터피자,서울특별시 서대문구 연세로 10,37.5563755,126.9370971,western_food
8,미스터피자,서울특별시 도봉구 노해로  285,37.6518548,127.039997,western_food
9,미스터피자 양재점(크리스탈빌딩),서울특별시 강남구 강남대로  242,37.4853783,127.0340964,western_food
10,베누스타-뷔페,서울특별시 성북구 도봉로 1,37.6091509,127.0297812,western_food
11,베니건스,서울특별시 강남구 도산대로  334,37.5225903,127.0385574,western_food
12,보나세라,서울특별시 강남구 도산대로45길 18-2,37.5236877,127.0356678,western_food
13,부처스컷,서울특별시 용산구 이태원로 243,37.536813,127.0000363,western_food
14,붓처스컷(SG다이힐빌딩),서울특별시 강남구 압구정로60길 18,37.5261876,127.0417141,western_food
15,브리꼴라쥬카페,서울특별시 은평구 진흥로 87,37.6047591,126.9217413,western_food
16,블랙스미스,서울특별시 강남구 도산대로 115,37.5171442,127.0211143,western_food
17,빕스 대방점,서울특별시 동작구 노량진로 2,37.5122258,126.9257777,western_food
18,빕스 등촌점,서울특별시 강서구 공항대로  311,37.558551,126.8421874,western_food
19,빕스 문정점,서울특별시 송파구 새말로5길 31,37.4851981,127.1234743,western_food
20,빕스 봉천역점,서울특별시 관악구 남부순환로 1712,37.4826819,126.9401241,western_food
21,빕스 상봉역점,서울특별시 중랑구 망우로  263,37.5957453,127.0818617,western_food
22,빕스 창동점,서울특별시 도봉구 도봉로  526,37.6520244,127.0371602,western_food
23,빕스 청담점,서울특별시 강남구 학동로  519,37.520196,127.0554756,western_food
24,샤델리(한수빌딩),서울특별시 강남구 언주로172길  62,37.5267428,127.0387615,western_food
25,서강8경 제2근생(일반음식점),서울특별시 마포구 토정로 128,37.5449461,126.9253513,western_food
26,아실라,서울특별시 강남구 강남대로98길 16,37.5007468,127.0280011,western_food
27,아웃백스테이크하우스 봉천점,서울특별시 관악구 남부순환로 1840,37.480363,126.9543178,western_food
28,아웃백스테이크하우스 삼봉점,서울특별시 중랑구 망우로 293,37.5965533,127.0852169,western_food
29,아웃백스테이크하우스 신대방점,서울특별시 동작구 여의대방로 122,37.4977858,126.9203521,western_food
30,아웃백스테이크하우스 신촌점,서울특별시 서대문구 연세로12길 33,37.5591277,126.9388549,western_food
31,아웃백스테이크하우스 잠실점,서울특별시 송파구 송파대로  466,37.5079028,127.1052374,western_food
32,올리아,서울특별시 용산구 회나무로42길 4,37.5407238,126.9958737,western_food
33,와인 바꼬뜨도르(페리빌딩),서울특별시 강남구 강남대로94길 27-15,37.5006987,127.0291244,western_food
34,이태원동 근린생활시설(휴게음식점),서울특별시 용산구 이태원로  192,37.5343571,126.9953968,western_food
35,일파르코,서울특별시 노원구 노원로 240,37.6393837,127.0745494,western_food
36,잇플레이스,서울특별시 서초구 사평대로6길 102,37.4942137,126.993283,western_food
37,장L카페레스토랑,서울특별시 종로구 대학로10길 15-11,37.5822677,127.0027635,western_food
38,초원웨딩홀뷔페,서울특별시 도봉구 도봉산길 10,37.6876153,127.0448614,western_food
39,쿼터백,서울특별시 강남구 테헤란로1길  29,37.5001118,127.0273124,western_food
40,크리스피크림 도넛츠,서울특별시 서대문구 명물길 6,37.5573153,126.9374105,western_food
41,투쉐 카페&레스토랑(미산빌딩),서울특별시 강남구 압구정로71길 4,37.5269183,127.045728,western_food
42,파리바게트,서울특별시 서대문구 홍은중앙로 29,37.5941616,126.9460779,western_food
43,파리크라상,서울특별시 중구 덕수궁길 7,37.5647358,126.9763528,western_food
44,파리크라샹,서울특별시 용산구 독서당로  78,37.5339582,127.0092847,western_food
45,프로방스,서울특별시 서대문구 연대동문길 26,37.5635869,126.9438036,western_food
46,피자스토리,서울특별시 도봉구 도봉로114길  21,37.6475655,127.035556,western_food
47,피자헛,서울특별시 노원구 동일로 1333,37.6478357,127.0623277,western_food
48,피자헛,서울특별시 송파구 송파대로  421,37.5043665,127.1075223,western_food
49,한국 피자헛 한티역점,서울특별시 강남구 도곡로  407,37.4973672,127.054962,western_food
50,한국맥도날드,서울특별시 성동구 왕십리로 321,37.5621814,127.0336221,western_food
51,한국맥도날드송정역,서울특별시 강서구 공항대로 21,37.5617466,126.8097048,western_food
52,한국피자헛,서울특별시 종로구 종로  61,37.5704447,126.9842934,western_food
53,한국피자헛등촌점(샷뽀르),서울특별시 강서구 공항대로  347,37.5580543,126.8465798,western_food
54,화수목레스토랑,서울특별시 용산구 소월로 268,37.5426518,126.9911398,western_food
0,근린생활시설(팬다),서울특별시 노원구 동일로246길 39,37.6774692,127.0568025,chinese_food
1,만리장성,서울특별시 노원구 석계로13길 23,37.6202229,127.0615768,chinese_food
2,상하이짬뽕건물,서울특별시 서대문구 명물길  76-5,37.5587911,126.9405664,chinese_food
3,실크로드,서울특별시 구로구 경인로 398,37.4970088,126.8644227,chinese_food
4,왕짜장,서울특별시 도봉구 도봉로109길  16,37.6469387,127.0324205,chinese_food
5,원챠우,서울특별시 강남구 언주로173길  8,37.5284445,127.0327988,chinese_food
6,이화원,서울특별시 서대문구 연희맛로 13,37.56657,126.9290312,chinese_food
7,철판해물손짜장,서울특별시 은평구 은평로 205-7,37.6015888,126.9313084,chinese_food
8,타워차이,서울특별시 서초구 법원로1길 7,37.493036,127.0098829,chinese_food
9,하림각,서울특별시 종로구 자하문로  255,37.597291,126.9621881,chinese_food
10,희래등,서울특별시 동작구 등용로 123,37.5121038,126.9317355,chinese_food
0,(주)에도긴,서울특별시 강남구 테헤란로8길  30,37.4968957,127.0318327,japanese_food
1,강서수산,서울특별시 강서구 공항대로  301,37.5585467,126.8411925,japanese_food
2,경복궁삿뽀로,서울특별시 도봉구 도봉로   610,37.6589206,127.0412452,japanese_food
3,그물에걸린바다,서울특별시 중랑구 봉화산로 240,37.6079533,127.0994618,japanese_food
4,금강수산,서울특별시 광진구 아차산로 230,37.5402611,127.068751,japanese_food
5,마리온 크레페 Lozy,서울특별시 강남구 강남대로162길 41-20,37.5219292,127.0211868,japanese_food
6,맑은바닷가의나루터,서울특별시 강서구 강서로54길 73,37.5590271,126.8427402,japanese_food
7,미송샤브샤브,서울특별시 노원구 노원로 412,37.6534131,127.068119,japanese_food
8,바다회공원,서울특별시 동대문구 장한로 109,37.5704448,127.0701971,japanese_food
9,바다회공원음식점(청림빌딩)(제시카키친),서울특별시 강서구 공항대로  345,37.5580811,126.8461087,japanese_food
10,별난횟집,서울특별시 서초구 마방로2길 26,37.4725086,127.0391583,japanese_food
11,삼경바다,서울특별시 강남구 언주로93길 14-7,37.5042127,127.0407496,japanese_food
12,샤르르 샤브샤브,서울특별시 강남구 역삼로17길  53,37.4982665,127.0362225,japanese_food
13,샤브궁샤브가,서울특별시 중구 남대문로9길 12,37.5668689,126.9817524,japanese_food
14,씨푸드 대림점,서울특별시 영등포구 대림로  70,37.4889989,126.9059201,japanese_food
15,아사달횟집,서울특별시 동대문구 천호대로 301,37.5661882,127.0542807,japanese_food
16,아지코우보,서울특별시 강남구 선릉로162길  49,37.5262051,127.0446032,japanese_food
17,어부박씨,서울특별시 노원구 노원로 238,37.6392467,127.0748151,japanese_food
18,이춘복참치,서울특별시 노원구 노해로85길 10-7,37.6561738,127.0655334,japanese_food
19,일반음식점(삿뽀로),서울특별시 마포구 월드컵북로 14,37.556411,126.9205114,japanese_food
20,일식미진(일반음식점),서울특별시 마포구 월드컵북로2길 37,37.5569001,126.9226343,japanese_food
21,정동진회집 하계점,서울특별시 노원구 한글비석로1길 61,37.6403966,127.0704358,japanese_food
22,참치박사,서울특별시 노원구 노해로81길 12-33,37.6557815,127.0636511,japanese_food
23,청량리쇠고기샤브샤브,서울특별시 성북구 보문로34길  15,37.5903548,127.0162009,japanese_food
24,청해수산회천하통일,서울특별시 중랑구 면목로 490,37.5953959,127.0860403,japanese_food
25,킹스(북해도),서울특별시 강서구 공항대로  341,37.5581205,126.8455551,japanese_food
26,해성회수산,서울특별시 서대문구 명물길 49,37.5589362,126.9388637,japanese_food
27,호면당(조은빌딩),서울특별시 강남구 도산대로81길 25,37.5260253,127.0470966,japanese_food
28,희전샤브샤브,서울특별시 관악구 남부순환로180길 6,37.4840354,126.9305604,japanese_food
0,(주) 씨머스,서울특별시 강남구 학동로2길  56,37.507921,127.0236476,other_food
1,2층에오렌지룸(일반음식점)-호프&요리주점,서울특별시 마포구 어울마당로  86,37.5526725,126.9218445,other_food
2,AB엔터테인먼트-연예기획사,서울특별시 강남구 도산대로90길 16,37.523558,127.0489416,other_food
3,Amazing B/D,서울특별시 강남구 도산대로 306,37.5214488,127.0348954,other_food
4,CULISSU GAIA,서울특별시 강남구 도산대로53길 15,37.5241946,127.0382605,other_food
5,GASTRO PUB-주점,서울특별시 서초구 동광로  78,37.4928137,126.991097,other_food
6,Love Affair,서울특별시 강남구 언주로150길  32,37.5214944,127.0369735,other_food
7,MUG FOR RABBIT-카페,서울특별시 강남구 논현로159길  65,37.5214299,127.0231752,other_food
8,SK허브진,서울특별시 강동구 천호대로 142,,,other_food
9,Table 2425,서울특별시 강남구 도산대로59길 16,37.5247851,127.0424156,other_food
10,WA BAR,서울특별시 강동구 양재대로111길 18,37.5374045,127.1385453,other_food
11,coffeesmith(휴게음식점),서울특별시 마포구 와우산로  82,37.5517483,126.9237028,other_food
12,enjoy taste & service,서울특별시 서초구 서초중앙로 195,37.4991899,127.0120243,other_food
13,gs25-편의점,서울특별시 서초구 서초대로50길 62-4,37.4906138,127.0134107,other_food
14,wellz-가구판매,서울특별시 강남구 삼성로 729,37.5206216,127.048843,other_food
15,㈜젠 하이더 웨이-동남아음식,서울특별시 강남구 언주로168길  24,37.5259305,127.0355581,other_food
16,㈜청담안,서울특별시 강남구 도산대로81길 13,37.5252712,127.0475848,other_food
17,갤러리 시간,서울특별시 종로구 삼청로 109,37.5851366,126.9817755,other_food
18,골든너겟,서울특별시 용산구 이태원로55가길  3,37.5380319,127.0007565,other_food
19,곰씨네(씨크랩건물),서울특별시 강동구 강동대로 17,,,other_food
20,나무그늘-카페,서울특별시 동대문구 천장산로7길  32-9,37.5987592,127.0558862,other_food
21,넘버원-호프&요리주점,서울특별시 서대문구 연세로5가길 8-3,37.5574822,126.9361537,other_food
22,농부의아들,서울특별시 서초구 서초중앙로33길 8,37.5013081,127.0111034,other_food
23,대원,서울특별시 성동구 고산자로26길 12,37.5703898,127.0390705,other_food
24,대학로바탕골,서울특별시 종로구 대학로10길 5,37.5818573,127.0025831,other_food
25,더캣츠,서울특별시 강서구 공항대로46길  90,37.5523777,126.8506924,other_food
26,동원F&B,서울특별시 은평구 연서로  165,37.6136387,126.9173409,other_food
27,동원빌딩(근린생활시설),서울특별시 마포구 어울마당로 147-1,37.5567186,126.9262728,other_food
28,두울빌딩,서울특별시 강동구 강동대로53길 22,37.5237614,127.1320198,other_food
29,둠벙(현:수리수리)-요리&주점,서울특별시 강북구 도봉로10가길 12,37.6130286,127.0310904,other_food
30,라부미텔,서울특별시 금천구 범안로  1203,37.4666848,126.8955497,other_food
31,라운드-칵테일바,서울특별시 강남구 선릉로158길 13-16,37.5265045,127.0416307,other_food
32,렉스모터스-자동차판매점,서울특별시 강남구 도산대로  426,37.5231876,127.0425147,other_food
33,로얄더비랜드,서울특별시 서대문구 응암로  103,37.5820906,126.9127232,other_food
34,뢰벤호프,서울특별시 서초구 방배천로  21,37.4784776,126.9822779,other_food
35,마법의 성(일반음식점),서울특별시 마포구 어울마당로  94-13,37.5531401,126.9224934,other_food
36,멀티하우스리빙텔-고시원,서울특별시 서대문구 명물1길 16,37.5582238,126.9373469,other_food
37,메종르베이지-카페,서울특별시 용산구 이태원로  267,37.5385136,127.0011731,other_food
38,무스쿠스(도화타워),서울특별시 강남구 삼성로 438,37.5061252,127.0575562,other_food
39,민들레영토,서울특별시 서대문구 명물길 40,37.5583501,126.9388938,other_food
40,"밀러타임(지하1,지상2,3,4층)-호프",서울특별시 양천구 신월로 356,37.5217821,126.860585,other_food
41,베아따빌딩신관,서울특별시 서초구 서초대로53길 8,37.4951239,127.0153689,other_food
42,보보-카페,서울특별시 서대문구 성산로 573,37.5671772,126.9469462,other_food
43,보보리스-미용실,서울특별시 강남구 언주로154길  14,37.5232107,127.0345517,other_food
44,볼트82,서울특별시 용산구 대사관로12길 3,37.533417,127.0017037,other_food
45,사이공 스픈 32-동남아음식,서울특별시 강남구 언주로93길 32-8,37.5037734,127.0392762,other_food
46,샬롬빌,서울특별시 강남구 강남대로154길  35,37.5184863,127.0218127,other_food
47,서광폴리머,서울특별시 영등포구 국회대로37길 5,37.5277915,126.8996008,other_food
48,석천(근린생활시설),서울특별시 마포구 어울마당로   134,37.5559029,126.9248902,other_food
49,세븐몽키스(금원빌딩),서울특별시 강남구 선릉로  425,37.5029713,127.0494413,other_food
50,수상한포차,서울특별시 강북구 도봉로87길 46,37.639234,127.0234675,other_food
51,수상한포차,서울특별시 광진구 아차산로33길 33,37.5417783,127.0704152,other_food
52,순봉상가(불토불가마사우나),서울특별시 강서구 공항대로  290,37.5581221,126.8397799,other_food
53,스타벅스 신촌점,서울특별시 서대문구 연세로  10-1,37.5564978,126.9371296,other_food
54,스타벅스 커피 스토리,서울특별시 종로구 대명길 5,37.5835364,127.0011642,other_food
55,스타벅스(보라빌딩),서울특별시 강남구 학동로 506,37.5187057,127.0514887,other_food
56,신동희,서울특별시 송파구 석촌호수로 174,37.5065087,127.0963108,other_food
57,쌍쌍포차,서울특별시 광진구 동일로22길 49,37.5419017,127.0671184,other_food
58,씨제이푸드,서울특별시 은평구 서오릉로  4,37.6020276,126.9275458,other_food
59,아워홈역삼빌딩,서울특별시 강남구 역삼로 115,37.4938298,127.031925,other_food
60,알비훠스트,서울특별시 중구 명동4길 31,37.5622408,126.9840798,other_food
61,언더브릿지(일반음식점),서울특별시 마포구 토정로  174,37.5453741,126.9301243,other_food
62,엔씨레이디스-백화점,서울특별시 영등포구 양평로 47,37.5338755,126.90099,other_food
63,엔젤리너스카페,서울특별시 중구 명동7길 8,37.564227,126.9846809,other_food
64,오렌지팩토리-의류판매,서울특별시 서대문구 증가로 141,37.5773836,126.9219338,other_food
65,와라와라(혜진빌딩),서울특별시 강남구 강남대로96길 20,37.4999091,127.0286406,other_food
66,원투쓰리,서울특별시 강남구 강남대로94길 9,37.49949,127.028096,other_food
67,일반음식점(에덴),서울특별시 노원구 중계로18길 9,37.6511487,127.0778273,other_food
68,정우씨티,서울특별시 강남구 테헤란로4길  29,37.4965632,127.0305368,other_food
69,제2근린생활(수한의원부동산),서울특별시 강서구 초원로 85,37.5676755,126.8149877,other_food
70,주노도시-카페,서울특별시 서초구 마방로2길  94,37.4694897,127.0398253,other_food
71,주런,서울특별시 강서구 공항대로46길  89,37.5521878,126.851122,other_food
72,중림동 325-1 제2종근린생활시설(우진제임스전),서울특별시 중구 세종대로11길 30,37.5623647,126.9742051,other_food
73,지오브레스빌딩,서울특별시 용산구 대사관로34길 22,37.5323739,127.0057852,other_food
74,지태하,서울특별시 강남구 언주로148길 14,37.5206333,127.0361834,other_food
75,진미파라곤,서울특별시 영등포구 국회대로 800,37.530902,126.9211215,other_food
76,청산유통,서울특별시 중랑구 동일로  937,37.6140084,127.0764979,other_food
77,카페 무이무이,서울특별시 강남구 도산대로51길 19,37.5244282,127.037653,other_food
78,카페뎀셀브쥬,서울특별시 종로구 삼일대로 388,37.5692051,126.988013,other_food
79,카페프렌즈,서울특별시 서초구 반포대로16길 30,37.4863569,127.012385,other_food
80,커피빈,서울특별시 중구 명동8길  9,37.5633494,126.9847083,other_food
81,커피빈 압구정점(스마트 익스체인지 빌딩),서울특별시 강남구 도산대로49길 13,37.5237497,127.0370036,other_food
82,커피빈 코리아 삼성점(우창빌딩),서울특별시 강남구 삼성로  646,37.5177013,127.0511927,other_food
83,커피스미스,서울특별시 강남구 도산대로13길 13,37.5187333,127.0229969,other_food
84,코나커피숍,서울특별시 송파구 백제고분로44길 34,37.5059733,127.1123972,other_food
85,타운플라자,서울특별시 서초구 신반포로47길 9-6,37.5112609,127.0193364,other_food
86,트라이랜드,서울특별시 서초구 서초대로77길  58,37.5025807,127.0244068,other_food
87,티에스아이디-인테리어,서울특별시 은평구 대서문길  43-14,37.6560371,126.9493988,other_food
88,파스꾸찌신촌연대점,서울특별시 서대문구 연세로 22,37.5575893,126.9370936,other_food
89,프로포즈야채과일<간이장터>,서울특별시 도봉구 노해로63다길 25,37.6540212,127.0460936,other_food
90,프리미어플레이스,서울특별시 중구 중림로 40,37.5576938,126.9673999,other_food
91,피티 앤 브이-직업소개,서울특별시 영등포구 신길로 220,37.5117225,126.9103063,other_food
92,한국경제신문사옥,서울특별시 중구 청계천로 14,37.5688028,126.9788381,other_food
93,할리스커피점,서울특별시 서대문구 거북골로 31-1,37.579555,126.9241915,other_food
94,해동수산광장점,서울특별시 광진구 광나루로 619,37.54102,127.0966376,other_food
95,해물퓨전주점,서울특별시 광진구 아차산로31길 29,37.5423636,127.0697018,other_food
96,헐리스커피연희점,서울특별시 서대문구 연희맛로 32,37.5675634,126.9308056,other_food
97,헤라로사커피(JS빌딩),서울특별시 강남구 도산대로  427,37.5239616,127.0425868,other_food
98,헤븐,서울특별시 강남구 봉은사로82길 29,37.5113518,127.0555726,other_food
99,호야,서울특별시 강남구 강남대로78길  22,37.49517,127.0311849,other_food
100,효천공영-음악감상실,서울특별시 종로구 성균관로 87,37.5899737,126.9982934,other_food
