,Unnamed: 0,category,place_name,place_address,lat,lon,place_id
0,0,daycare,영락,중구 수표로 33 (저동2가 69),37.5632016,126.989182,40000
1,1,daycare,역삼주간보호센터,강남구 테헤란로8길 36 (역삼동 827-61) 강남문화원 2층,37.4965073,127.0320483,40001
2,2,wellfare,성민장애인복지관,노원구 노원로32길 30-3 (상계동 321-9),37.65562429999999,127.06934040000002,40002
3,3,wellfare,강서뇌성마비복지관,강서구 방화대로45길 69 (방화동 452-5),37.574197999999996,126.81258490000002,40003
4,4,daycare,모랫말꿈터,영등포구 도영로 37 (도림2동 205-24),37.510186,126.8974881,40004
5,5,daycare,서울남부주간보호센터,동작구 여의대방로 20길 33 (신대방2동 395번지),37.494895899999996,126.91945190000001,40005
6,7,daycare,까리따스장애인주간보호,서초구 남부순환로 2124 (방배2동 3274),37.4750144,126.98439840000002,40007
7,8,daycare,하상,강남구 개포로 613 (개포동 12-5),37.4925325,127.0751283,40008
8,9,daycare,성모자애제1주간보호,강남구 헌릉로757길 35 (율현동 110번지),37.4705425,127.1194354,40009
9,10,daycare,무지개주간보호,송파구 거마로10길 13 (거여2동 187-9),37.4949164,127.14687859999998,40010
10,11,sports/rehab,SRC재활체육관,경기 광주시 초월읍 경수길 25 (지월리729-6),37.42004179999999,127.28714280000001,40011
11,12,daycare,위드주간보호센터,은평구 갈현로15길 11-13 (구산동 177-134),37.6067721,126.90936289999999,40012
12,13,signinterpret,성북수화통역센터,서울특별시 성북구 동소문로 185 2층,37.5986327,127.02152949999999,40013
13,14,daycare,마라주간보호,송파구 송이로34길 43-1 (문정동 93-4),37.4845267,127.1288722,40014
14,15,wellfare,강북장애인종합복지관,강북구 오현로 189 (번2동 306-12),37.6287771,127.03909399999999,40015
15,16,wellfare,서울시립북부장애인종합복지관,노원구 덕릉로70가길 92 (상계동 771),37.6425386,127.0569904,40016
16,17,daycare,사랑의 집,은평구 진흥로1길 8-6 (역촌동 42-3),37.6011586,126.91914809999999,40017
17,18,daycare,하나인주간보호센터,광진구 능동로59길 14 (중곡동 169-119),37.5689839,127.0849395,40018
18,19,signinterpret,마포구수화통역센터,"마포구 월드컵북로15안길 26 2층 (성산동, 성서제1경로당 2층)",37.5627521,126.9109429,40019
19,20,signinterpret,서대문구 수화통역센터,서대문구 홍제동 453-1 무악청구아파트상가B-101호(통일로 344),37.5813057,126.9515426,40020
20,21,daycare,성민,노원구 노원로32길 30 (상계2동 321-9) 순복음비전센터 내 5층,37.6556625,127.06935619999999,40021
21,22,daycare,장애우 가족지원센터,노원구 상계로23길 4 (상계동 389-583) 2층,37.6585674,127.06928880000001,40022
22,23,daycare,하나렘넌트,마포구 월드컵로13길 19-13 (망원동 379-37호) 1층,37.555263700000005,126.9094496,40023
23,24,wellfare,마포장애인종합복지관,마포구 월드컵로 213 (성산2동 595-1),37.5653964,126.90082759999999,40024
24,25,daycare,바우뫼,서초구 바우뫼로 43 (우면동 68-1),37.4717617,127.0269015,40025
25,26,daycare,메타아카데미 주간보호,강동구 양재대로121길 25 (천호동 52-5) 202호,37.5425561,127.1400594,40026
26,27,daycare,북부장애인,노원구 동일로245길 56 (상계1동 1257) 북부종합사회복지관 내,37.679664,127.0526341,40027
27,28,wellfare,서초구립 한우리정보문화센터,서초구 서초동 380(남부순환로 340길 15),37.4820863,127.02490359999999,40028
28,29,signinterpret,강동구수화통역센터,서울특별시 강동구 성내로 22 청해빌딩302호,37.529605,127.12283359999999,40029
29,30,signinterpret,광진구수화통역센터,서울특별시 광진구 긴고랑로 72 3층,37.5613787,127.08366720000001,40030
30,31,daycare,렘넌트,송파구 충민로2길 5 (장지동 214-2),37.479374,127.12723100000001,40031
31,32,wellfare,서울시각장애인복지관,송파구 삼학사로19길 27 (삼전동),37.5061289,127.09408400000001,40032
32,33,daycare,성동장애인종합복지관,성동구 청계천로 516 (마장동 527-2),37.570741299999995,127.03418710000001,40033
33,35,signinterpret,노원수화통역센터,노원구 한글비석로 383 (중계4동 584-1) 삼창타워프라자 2층,37.6589524,127.0725471,40035
34,36,daycare,다운,노원구 화랑로 478 (공릉동 656-3) 다운복지관 내,37.6189464,127.08032879999999,40036
36,38,wellfare,서울시립상이군경복지관,노원구 덕릉로70가길 73 (상계동 771),37.6428232,127.05767479999999,40038
37,39,daycare,베데스다 주간보호소,노원구 공릉로58마길 27 (하계동 65-37) 나눔아트센터 2층,37.6364292,127.0776453,40039
38,40,daycare,가브리엘 주간보호센터,서울특별시 노원구 한글비석로24라길 94-13 가브리엘주간보호센터,37.6664592,127.0697787,40040
39,41,wellfare,시립노원시각장애인복지관,노원구 덕릉로70가길 98 (상계동 771),37.642072600000006,127.05651359999999,40041
40,42,daycare,오뚜기뇌성마비,노원구 덕릉로70가길 96 (상계동 771) 뇌성마비복지관 내,37.6424451,127.05660379999999,40042
41,43,daycare,중계주간,노원구 덕릉로 662 (중계4동 당고개길 228),37.656936,127.07620929999999,40043
42,44,wellfare,삼성소리샘복지관,동작구 양녕로30길 19-4 (상도동 212-128),37.499243799999995,126.94601399999999,40044
43,45,signinterpret,영등포수화통역센터,서울특별시 영등포구 당산로 67 재원빌딩5층,37.5209146,126.89520470000001,40045
44,46,daycare,평화장애인,노원구 노원로 331 (중계3동 514-3) 평화종합사회복지관 내,37.6462647,127.06902690000001,40046
45,47,daycare,노원1장애인,노원구 월계로 372 (월계4동 321) 노원1종합사회복지관 내,37.6299237,127.0604,40047
46,48,daycare,동천,노원구 노원로18길 41 (하계1동 288-1),37.644578100000004,127.07287290000001,40048
47,49,daycare,서부장애인종합복지관,은평구 갈현로11길 30 (구산동 191-1),37.605172700000004,126.9075445,40049
48,50,daycare,기쁜우리,강서구 허준로 65 (가양동 1466),37.5693631,126.8487793,40050
50,52,daycare,청락원,금천구 금하로29길 36 (시흥2동 241-7),37.4512664,126.91405590000001,40052
51,53,daycare,영등포주간보호센터,영등포구 신길로 55 (신길5동 440-57) 장애인사랑나눔의 집 3층,37.497556,126.907995,40053
52,54,daycare,우리마포장애인주간이용(보호)센터,마포구 신촌로 26길 10 (노고산동 1-50) 우리마포복지관,37.555848600000004,126.94235359999999,40054
53,55,daycare,송파주간보호,송파구 중대로 245 (오금동 49-4) 2층,37.5033935,127.12911299999999,40055
54,56,daycare,맑은샘 주간보호,양천구 신월동 601-5 201호,37.5195908,126.844256,40056
55,57,daycare,새생명장애인,영등포구 가마산로 440 (신길3동 349-2),37.5049403,126.90953490000001,40057
56,58,wellfare,한국시각장애인복지관,강동구 구천면로 645 (상일동 126-0),37.551046500000005,127.16934690000001,40058
57,59,daycare,파랑새교육원,강서구 까치산로 134 (화곡6동 958-12) 화곡빌딩2층,37.54927429999999,126.8514328,40059
58,60,wellfare,서울특별시중구장애인복지관,중구 퇴계로 460 (신당동),37.5650845,127.022802,40060
59,61,daycare,참사랑,서울특별시 송파구 마천로 89 .,37.506907299999995,127.13046920000001,40061
60,62,daycare,피어라희망센터,서울특별시 도봉구 도봉로120길 16 창동염광교회 피어라희망센터,37.650389000000004,127.0374472,40062
61,63,daycare,참사랑너나울,서울특별시 강북구 한천로143길 39 1층,37.640482299999995,127.0231588,40063
62,64,daycare,하누리,서울특별시 금천구 시흥대로2길 57 .,37.4352855,126.90643270000001,40064
63,65,daycare,하은,서울특별시 양천구 신목로 20 3층,37.5181901,126.87509820000001,40065
64,66,wellfare,성분도복지관,경기 광주시 도척면 국사봉로 159-10,37.3167174,127.3506713,40066
66,68,wellfare,시립서울장애인종합복지관,강동구 고덕로 201 (고덕동 317-24),37.555856299999995,127.14828020000002,40068
67,69,wellfare,청음회관,강남구 봉은사로50길 6 (역삼동 681-50),37.509373,127.04238529999999,40069
68,70,hospital/rehab,성동재활의원,성동구 성수1가1동 656-323,37.5454304,127.04698490000001,40070
70,72,daycare,해찬나래(상계),노원구 덕릉로115나길 25 (상계동 101-135) 상계종합사회복지관 내,37.66796,127.0783213,40072
71,73,daycare,희망하우스,서울특별시 광진구 능동로34길 102-5 2층,37.5534274,127.0845626,40073
72,74,daycare,행복한사랑,서울특별시 송파구 오금로 548 1층,37.492663,127.1497186,40074
73,75,daycare,기원,서울특별시 은평구 통일로87길 6-19 .,37.623894,126.91884509999998,40075
74,76,hospital/rehab,주몽재활의원,강동구 상암로 369 (상일동 179),37.546099600000005,127.163854,40076
75,77,hospital/rehab,SRC부설의원,관악구 보라매로 44 (봉천동 722-19),37.49316470000001,126.9273467,40077
76,78,wellfare,늘푸른나무복지관,강서구 가양동 1470-2 (허준로5길 37),37.568587799999996,126.85114180000001,40078
77,79,daycare,희망의 학교,광진구 천호대로 622 (능동 247-5)  서울시민교회 5층,37.5540874,127.0864492,40079
79,81,wellfare,정립회관,광진구 워커힐로 93 (구의동 16-3),37.5510878,127.0976313,40081
80,82,daycare,예은,서울특별시 구로구 부일로15길 25-5 4층,37.493930999999996,126.8331598,40082
81,83,daycare,바오로 주간보호,서울특별시 은평구 증산로5길 7 .,37.5826256,126.9071351,40083
82,84,daycare,실로암,서울특별시 관악구 조원로 127-2 301호,37.4855431,126.91647150000001,40084
83,85,daycare,꿈터2,서울특별시 관악구 쑥고개로13길 22 .,37.480544,126.9440956,40085
84,86,daycare,비둘기 주간보호,서울특별시 종로구 동숭4길 28 2층,37.5836606,127.00505079999999,40086
85,87,daycare,여성시각장애인 주간보호,서울특별시 중구 퇴계로30길 15-3 4층,37.560396600000004,126.9922777,40087
86,88,daycare,남산골쉼터 주간보호,서울특별시 중구 퇴계로20길 41-11 남산쉼터 2층,37.5587824,126.9867645,40088
87,89,daycare,주바라기해피홈 주간보호,서울특별시 도봉구 도봉로169가길 45 ,37.681942,127.0432301,40089
88,90,daycare,꿈친,서울특별시 은평구 통일로 934 1층,37.6262994,126.9204209,40090
89,91,daycare,별바라기 주간보호,서울특별시 금천구 금하로18길 8-1 .,37.452274100000004,126.9050378,40091
90,92,daycare,하늘아래,서울특별시 구로구 경인로23길 8 301-1호,37.4968112,126.844057,40092
91,93,daycare,밀알 주간보호,서울특별시 강남구 밤고개로1길 38 B동 101호,37.4888999,127.1039991,40093
92,94,daycare,서울영동 주간보호,서울특별시 강남구 논현로132길 20 서울영동교회 교육관 2층,37.5150375,127.0322439,40094
94,96,wellfare,종로장애인복지관,서울특별시 종로구 자하문로 89 종로장애인복지관,37.5840865,126.96998090000001,40096
95,97,wellfare,동대문장애인 복지관,서울특별시 동대문구 청계천로 521 동대문 장애인복지관,37.57182529999999,127.03404540000001,40097
96,98,wellfare,서대문장애인복지관,서울특별시 서대문구 북아현로 24 서대문장애인복지관,37.5594749,126.95704620000001,40098
97,99,daycare,다니엘주간보호센터,서초구 헌릉로468길 21-16 (내곡동 1-1328번지),37.46071,127.0920009,40099
98,100,daycare,늘푸른마을,강서구 까치산로22길 38 (화곡6동 960-22),37.5480187,126.8523092,40100
99,101,daycare,시각장애인 주간보호,중구 퇴계로16길 35-21 (남산동1가 16-27),37.558898,126.98412979999999,40101
100,102,daycare,한우리,강남구 광평로60길 22 (수서동 721),37.486981,127.1069631,40102
101,103,daycare,농아노인지원센터,용산구 원효로 261 (원효로1가 39-1) 3층,37.540820200000006,126.9694335,40103
102,104,signinterpret,강남구 수화통역센터,"강남구 개포로82길 13-17, 대화빌딩 402호 (개포동 186-7)",37.488909299999996,127.06859709999999,40104
103,105,daycare,성모주간보호센터,성동구 독서당로44길 25 (금호동4가 28-1),37.545491299999995,127.0204183,40105
104,106,daycare,지앤지,도봉구 삼양로 574-44 (쌍문동 505-11)  2층,37.654364799999996,127.0139811,40106
105,107,wellfare,강남장애인복지관,강남구 개포로 605 (개포동12-10),37.4919994,127.07347890000001,40107
106,108,daycare,아이비주간보호,강동구 천중로 87 (천호동 300-7) 4층,37.544787899999996,127.1317169,40108
108,110,signinterpret,도봉구수화통역센터,"서울특별시 도봉구 마들로13길 153 창동,옥산빌딩",37.6570577,127.04624409999998,40110
109,112,signinterpret,서초수화통역센터,서초구 서운로23길 17 (서초4동 1313-17) 명달공원 노인정내,37.499044299999994,127.0211616,40112
110,113,daycare,주간보호시설 인강원,도봉구 평화로15번길 9-25 (도봉동 381-1),37.6947974,127.042399,40113
112,115,daycare,우리집주간보호시설,강서구 양천로47길 70-6 (마곡동 7-8호) 4층,37.573335,126.8375259,40115
113,116,signinterpret,금천구수화통역센터,서울특별시 금천구 시흥대로147길 30-15 2층,37.4747907,126.8961838,40116
114,117,signinterpret,양천구수화통역센터,서울특별시 양천구 신정중앙로 86 대영빌딩 4층,37.5264291,126.86109590000001,40117
115,118,daycare,서리풀,서초구 남부순환로340길 15 (서초동 380) (한우리정보문화센터내),37.4820619,127.0250115,40118
116,119,daycare,민들레쉼터장애인주간보호시설,서울특별시 구로구 가마산로 231 5동 101호,37.4958769,126.8857722,40119
117,120,wellfare,에덴장애인종합복지관,구로구 고척로21가길 84-35 (개봉1동 50-8),37.5011929,126.84124409999998,40120
119,122,signinterpret,강북구 수화통역센터,강북구 한천로131길 7 (번1동 417-24) 경일빌딩 3층 301호,37.6387,127.0279155,40122
120,123,signinterpret,은평구수화통역센터,은평구 증산서길 82 (증산동 186-11) 1층,37.583607,126.90685069999999,40123
121,124,wellfare,금천장애인종합복지관,서울특별시 금천구 시흥대로101길 17 (독산동 1011-1),37.4639847,126.8963228,40124
122,125,wellfare,서울시립영등포장애인복지관,영등포구 버드나루로 22 (영등포동2가 94-379),37.5208661,126.91291499999998,40125
124,127,wellfare,성동장애인종합복지관,성동구 청계천로 506 (마장동 527-2),37.5702032,127.03344140000002,40127
125,128,daycare,성산푸른초장주간보호시설,"서울시 강서구 양천로 30길 14  3층 (마곡동,벧엘빌딩)",37.572548100000006,126.82261670000001,40128
126,129,daycare,서초여성회관주간보호센터,서초구 방배로 40 (방배3동 1023-3),37.478440899999995,126.9999918,40129
127,130,daycare,해마을 주간보호,강남구 개포로 617-8 (개포동 14-2),37.4940531,127.0777925,40130
129,132,wellfare,성북시각장애인복지관,성북구 동소문로25가길 20 (동선동4가 279-1),37.5954013,127.01924640000001,40132
130,133,daycare,한벗,용산구 효창원로69길 42-3 (효창동 5-134),37.542842,126.9601817,40133
131,134,wellfare,도봉장애인종합복지관,서울특별시 도봉구 마들로 664 -23,37.6693393,127.0477251,40134
133,136,daycare,헬렌켈러의집,서울특별시 강북구 삼양로80길 7 3층,37.6309477,127.0183098,40136
134,137,signinterpret,용산구 수화통역센터,서울특별시 용산구 이태원로27가길 42 3층,37.5350455,126.9928477,40137
135,138,daycare,예수와주간&#48399;,서울특별시 강남구 압구정로22길 21 웨슬리관 1층,37.5242737,127.0265933,40138
136,139,wellfare,홀트강동복지관,서울특별시 강동구 아리수로93길 41 홀트강동복지관,37.5662223,127.17325990000002,40139
137,141,daycare,라파엘의 집,종로구 자하문로7길 68-4 (누하동  1-10) 라파엘의 집 주간보호센터,37.5803259,126.96925049999999,40141
140,144,daycare,다니엘방배 주간보호센터,서초구 서초대로12길 8 (방배동 945-9번지),37.485662,126.9884189,40144
141,145,signinterpret,서울시수화통역센터 지원본부,서대문구 경기대로 15 (충정로3가 32-11) 엘림넷빌딩 3층,37.5608423,126.96165359999999,40145
142,146,signinterpret,강서구수화통역센터,강서구 공항대로41길 51 (등촌3동 696) 세신그린코아빌딩 815호,37.560247600000004,126.84577949999999,40146
143,147,signinterpret,관악구수화통역센터,서울특별시 관악구 쑥고개로 128 1층,37.478707799999995,126.95069380000001,40147
146,151,daycare,아름드리,서울특별시 동대문구 한천로58길 107 1층,37.6012805,127.07019939999999,40151
147,152,wellfare,용산장애인복지관,용산구 효창원로93길 49 (효창동 3-268),37.547331400000004,126.96157679999999,40152
148,153,daycare,사랑나눔,서울특별시 송파구 마천로51길 28 .,37.496925700000006,127.15260690000001,40153
149,154,daycare,서대문 주간보호,서울특별시 서대문구 북아현로4차길 4 .,37.5608516,126.9603379,40154
150,155,daycare,디딤돌,동작구 성대로 37길 46(상도동) 1층 (상도2동 201-22번지 1층),37.5009169,126.93891640000001,40155
151,156,signinterpret,구로구수화통역센터,구로구 가마산로 272 강서수도사업소 민원센터 4층,37.4957503,126.89068020000002,40156
152,157,daycare,다솜,서울특별시 서대문구 증가로4길 53 1층,37.5779284,126.92786399999999,40157
153,158,daycare,삼전 주간보호,서울특별시 송파구 백제고분로32길 35 .,37.49921079999999,127.0949624,40158
155,160,daycare,꿈자람터,"서울특별시 강서구 공항대로43길 104 ,",37.5605474,126.85171299999999,40160
157,162,daycare,꿈터,서울특별시 관악구 쑥고개로13길 24 .,37.4806373,126.94410520000001,40162
158,163,signinterpret,동작구수화통역센터,서울특별시 동작구 만양로3길 14 3층,37.5080526,126.94698629999999,40163
159,164,signinterpret,종로구수화통역센터,서울특별시 종로구 종로5길 31 2층,37.5716925,126.98039909999999,40164
160,165,daycare,신목,서울특별시 양천구 신목로 5 .,37.5169813,126.8761637,40165
161,166,daycare,베다니,서울특별시 양천구 남부순환로65길 12-2 .,37.527620299999995,126.8355736,40166
162,167,daycare,용산구립 장애인주간보호,서울특별시 용산구 한강대로 331 3층,37.5479137,126.9715145,40167
164,169,daycare,한마음주간보호시설(강북),강북구 삼양로119길 12 (인수동 313-43) 401호,37.6442782,127.01539270000002,40169
165,170,sports/rehab,서울곰두리체육센터,서울특별시 송파구 동남로 271 서울곰두리체육센터,37.5005011,127.13546950000001,40170
166,171,hospital/rehab,푸르메재단넥슨어린이재활병원,서울특별시 마포구 월드컵북로 494 푸르메재단넥슨어린이재활병원,37.5846474,126.8805203,40171
168,173,daycare,햇볕교실,서울특별시 강서구 개화동로21길 4 sh공사 아파트 11단지 내,37.5703575,126.8054814,40173
169,174,signinterpret,중랑구수화통역센터,서울특별시 중랑구 면목로 357 중랑구수화통역센터,37.58399620000001,127.08815030000001,40174
170,175,daycare,좋은친구,서울특별시 구로구 경인로25길 56 좋은친구 주간보호시설,37.498506799999994,126.84320009999999,40175
171,176,daycare,한빛,서울특별시 양천구 신월로11길 16 .,37.5190803,126.840248,40176
172,177,daycare,하늘동산,"서초구 서초대로73길 54 (서초4동 1309-1) 디오빌강남 321, 322, 324호",37.5020158,127.02407269999999,40177
173,178,daycare,한마음 주간보호(은평),서울특별시 은평구 연서로17길 47 3층,37.6139986,126.912351,40178
174,179,daycare,해피죤,서울특별시 강동구 상암로 195 5층,37.546631500000004,127.14419579999999,40179
175,180,daycare,도봉주간보호센터,도봉구 도당로 53 (방학동  665-31) 2층,37.6629794,127.0345483,40180
176,181,daycare,햇빛자리,서울특별시 용산구 백범로47길 24 101호,37.5410145,126.9595696,40181
177,182,daycare,햇살터,서울특별시 구로구 남부순환로105라길 25-10 3층,37.481318,126.89048799999999,40182
179,184,wellfare,성북장애인복지관,성북구 화랑로 130 (하월곡동 11-11),37.604634600000004,127.0457682,40184
180,185,education/job,더해봄 (종로구립근로작업장),종로구 대학로3길 14 (효재동) 더해봄 (종로구립근로작업장),37.5741691,127.0014513,40185
181,186,education/job,나누리장애인 보호작업장,중구 서애로 5길 12-17 나누리장애인 보호작업장,37.55913220000001,126.9969764,40186
182,187,daycare,성락,영등포구 도림로 304 (신길3동 355-74) 2층,37.5048725,126.9030456,40187
184,189,education/job,문혜장애인 보호작업장,강원도 철원군 갈말읍 텃골1길13 문혜장애인 보호작업장,38.1913924,127.36805490000002,40189
187,192,education/job,성모보호작업장,성동구 금호산9가길 57-10 성모보호작업장,37.552977500000004,127.0185627,40192
188,193,education/job,공감보호작업장,성동구 아차산로144 B101-1 공감보호작업장,37.543128700000004,127.0596182,40193
191,196,education/job,광진장애인 보호작업장,광진구 동일로80길 20 광진장애인 보호작업장,37.570091399999995,127.0809451,40196
193,198,education/job,데일리스 보호작업장,동대문구 천호대로83길14 데일리스 보호작업장,37.5628162,127.06476129999999,40198
194,200,education/job,꿈드래보호작업장,"동대문구 무학로28길 17-2, 1층(용두동) 꿈드래보호작업장",37.5748101,127.03182720000001,40200
195,201,education/job,원광보호작업장,중랑구 신내로56 원광보호작업장,37.604428999999996,127.09596409999999,40201
196,202,education/job,중랑구립 직업재활센터,중랑구 숙선옹주로9길 55 중랑구립 직업재활센터,37.6174814,127.0836472,40202
197,203,education/job,참좋은센터,중랑구 봉화산로56길 99-15 (신내동) 참좋은센터,37.6043455,127.09827959999998,40203
198,204,education/job,노원구립 장애인보호작업시설,노원구 노원로 311 중계제1공단 301호 노원구립 장애인보호작업시설,37.6450354,127.0704844,40204
199,205,education/job,조은세상,중랑구 동일로 140길 31-21 조은세상,37.6046383,127.0807737,40205
200,206,education/job,아름다운,중랑구 망우로 55길 32 103 아름다운,37.5988976,127.093897,40206
202,208,education/job,해피워크,성북구 오패산로 21 해피워크,37.6041316,127.03708059999998,40208
203,209,education/job,행복플러스작업장,성북구 화랑로134 행복플러스작업장,37.604974600000006,127.04636869999999,40209
204,210,education/job,번동코이노니아 장애인보호작업시설,"강북구 한천로 115길 20, 501동 (번동, 주공) 번동코이노니아 장애인보호작업시설",37.6333214,127.03574420000001,40210
206,213,education/job,효정 근로사업장,강북구 삼양로77길 38 효정 근로사업장,37.6295055,127.0161919,40213
207,214,education/job,도봉장애인 보호작업시설,도봉구 마들로 664-17 2층 도봉장애인 보호작업시설,37.669555700000004,127.04747759999998,40214
211,218,education/job,보담터(천애보호),노원구 중계로 163 지하1층 보담터(천애보호),37.6497867,127.0800592,40218
212,219,education/job,해맑음보호작업시설,노원구 동일로 1097(공릉동) 해맑음보호작업시설,37.6278281,127.0712554,40219
214,221,education/job,대린직업훈련원,노원구 동일로248길 30 대린직업훈련원,37.6804458,127.05663559999999,40221
215,222,education/job,아람마을 보호작업장,노원구월계로 338-16(월계동) 아람마을 보호작업장,37.6287552,127.0581756,40222
217,224,education/job,은평구립 직업재활센터,은평구 녹번로1길 13 은평구립 직업재활센터,37.604796,126.9262685,40224
218,225,wellfare,동문장애인복지관,동대문구 장안벚꽃로7길 5 (휘경동 49-39),37.5831618,127.0732199,40225
219,226,education/job,샘,양천구 목동로1길 24 샘,37.5085745,126.871071,40226
220,227,education/job,희망일굼터,양천구 신정로 267  양천벤처타운 804호 희망일굼터,37.512213700000004,126.8506887,40227
222,229,education/job,그라나다 보호작업센터,강서구 허준로5길 37 그라나다 보호작업센터,37.5686,126.851175,40229
223,231,education/job,강서구휴먼희망일터,"강서구 강서로 466, 102호 강서구휴먼희망일터",37.566903100000005,126.8414523,40231
227,235,education/job,똘레랑스 보호작업장,은평구 연서로 21길 31 지하 똘레랑스 보호작업장,37.61540170000001,126.9143712,40235
228,236,education/job,빛가람장애인시설,은평구 갈현로 339 (갈현동) 빛가람장애인시설,37.626617700000004,126.9189449,40236
229,237,education/job,빛나눔보호작업장,"은평구 수색로 390-29(수색동,1층) 빛나눔보호작업장",37.5910253,126.88524479999998,40237
230,238,education/job,그린내,서대문구 명지2길 14 (홍은동304-1) 그린내,37.5831244,126.9278855,40238
231,239,education/job,장애인내일키움 직업교육센터,서대문구 연희로33가길6-15 장애인내일키움 직업교육센터,37.5775986,126.9343031,40239
232,240,education/job,장애인영농재활시설,경기 남양주 진접읍 연평리 472외 2필지 등 장애인영농재활시설,37.6843303,127.17150009999999,40240
233,241,education/job,마리스타 보호작업장,충북 충주시 산척면 지속골길 71 마리스타 보호작업장,37.0634895,127.9703874,40241
234,242,education/job,마포구립 장애인직업재활센터,마포구 매봉산로 18 (상암동 1640)2층 206호 마포구립 장애인직업재활센터,37.574198700000004,126.8899631,40242
237,245,education/job,드림장애인 보호작업장,양천구 신남길 20 드림장애인 보호작업장,37.5158084,126.84172379999998,40245
239,247,education/job,열림일터,강서구 까치산로 136(화곡6동) 열림일터,37.549460499999995,126.8516847,40247
240,248,education/job,구립강서구 직업재활센터,강서구 허준로 95-9 구립강서구 직업재활센터,37.567426,126.851724,40248
241,249,education/job,교남어유지동산,경기파주적성면 어못내길94-44 교남어유지동산,37.9987172,126.9887603,40249
242,250,education/job,다사랑 직업재활시설,강서구방화대로40길37 다사랑 직업재활시설,37.5710716,126.8188154,40250
245,253,education/job,보라매보호작업장,금천구 가산디지털2로 136(승일벤처타워 302호) 보라매보호작업장,37.4801032,126.87962749999998,40253
246,254,wellfare,충현복지관,서울특별시 강남구 논현로98길 16 충현복지관,37.5036713,127.03699109999998,40254
247,255,education/job,강서나누리센터 보호작업장,강서구 공항대로 7가길 21-3 강서나누리센터 보호작업장,37.562850299999994,126.81405330000001,40255
248,256,education/job,초록등대 장애인보호작업장,강서구 강서로 68길 12 초록등대 장애인보호작업장,37.5662352,126.84157990000001,40256
249,257,education/job,강서희망보호작업장,강서구 강서로34길 36 (화곡동)프리즘오피스302호 강서희망보호작업장,37.5433339,126.84150179999999,40257
250,258,education/job,에덴하우스,경기 파주시 소라지로195길 47-30 에덴하우스,37.7406292,126.69331650000001,40258
251,259,education/job,형원,경기파주시소라지로195번길 47-20신촌동 형원,37.7381632,126.6922763,40259
253,261,education/job,구로구립 장애인보호작업장,구로구 경인로21 (온수동 44-21) 구로구립 장애인보호작업장,37.4897768,126.8247718,40261
254,262,education/job,늘푸름보호작업장,구로구 부일로 1나길38 (온수동) 늘푸름보호작업장,37.4929219,126.81676809999999,40262
255,263,education/job,EM실천,금천구 서부샛길 648 대륭테크노타워 6차 1004호 EM실천,37.481232,126.87619540000001,40263
258,266,education/job,금천구립 장애인보호작업장,금천구 한내로 69-15 금천구립 장애인보호작업장,37.457724600000006,126.88739509999999,40266
259,267,education/job,소올터직업재활,금천구 범안로 1138 고려테크온603호 소올터직업재활,37.4658084,126.8883962,40267
260,268,education/job,실로암장애인 근로사업장,관악구 남부순환로 1717 실로암장애인 근로사업장,37.4829514,126.9411179,40268
261,269,education/job,SG블루웰,금천구 두산로 70 현대지식산업센터 B동 419 SG블루웰,37.468942299999995,126.8956174,40269
262,270,education/job,행복한나무,영등포구 양산로 96 (당산동 2가) 행복한나무,37.5236145,126.89349340000001,40270
263,271,education/job,동작구립 장애인보호작업장,동작구 등용로12길 57 동작구립 장애인보호작업장,37.5119805,126.9324524,40271
266,274,education/job,SRC직업재활센터 (구 삼육직업재활작업소),경기도 성남시 중원구 둔촌대로 545 한라시그마밸리 1006호 SRC직업재활센터 (구 삼육직업재활작업소),37.431886999999996,127.17742890000001,40274
267,275,education/job,나자로의집,관악구 남부순환로 194길 81 나자로의집,37.481381299999995,126.93417029999999,40275
268,276,education/job,함께사는세상 보호작업장,관악구 국회단지길 67 1층 함께사는세상 보호작업장,37.488673299999995,126.9412779,40276
269,277,education/job,갑을장애인 직업휴먼센터,관악구 난우16길 13-7 갑을장애인 직업휴먼센터,37.4777105,126.9178696,40277
271,279,education/job,사랑의일터,"서초구 서초대로 351, 로템2빌딩 6층 사랑의일터",37.4957739,127.0196737,40279
272,280,education/job,사랑손보호작업장,서초구 서초대로28길 24 사랑손보호작업장,37.487287,126.99589350000001,40280
273,281,education/job,사)대한안마사협회 부설안마수련원,서초구 서초중앙로22길 105 사)대한안마사협회 부설안마수련원,37.494544399999995,127.0195867,40281
276,284,education/job,라파엘 직업재활센터,경기도 여주시 강천면 원양1로 907 라파엘 직업재활센터,37.34645020000001,127.7341111,40284
280,288,education/job,소망제이앤피,강남구 언주로167길 35 4층 소망제이앤피,37.526374600000004,127.0302808,40288
282,290,education/job,래그랜느보호작업장,강남구 양재대로55길 13 지하1층 래그랜느보호작업장,37.49169860000001,127.08759520000001,40290
283,291,wellfare,서대문농아인복지관,서울특별시 서대문구 수색로4가길 23 서대문농아인복지관,37.5707006,126.913825,40291
284,292,wellfare,양천장애인복지관,서울특별시 양천구 목동동로 159 양천장애인복지관,37.5199002,126.8698811,40292
285,293,wellfare,사랑의복지관,서울특별시 서초구 강남대로65길 19 사랑의복지관,37.4998338,127.02399399999999,40293
286,294,wellfare,방이장애인복지관,서울특별시 송파구 오금로11길 68 방이장애인복지관,37.5146627,127.11420179999999,40294
287,295,wellfare,인성장애인복지관,서울특별시 송파구 마천로61길 26 인성장애인복지관,37.493905,127.155198,40295
288,296,education/job,밀알그린보호작업장,강남구 밤고개로1길 34 밀알그린보호작업장,37.488783500000004,127.10361540000001,40296
289,297,education/job,신아보호작업장,송파구 양산로8길 17 (거여동) 신아보호작업장,37.4914401,127.14550729999999,40297
290,298,education/job,임마누엘 보호작업시설,송파구 양산로10길 26 (거여동) 임마누엘 보호작업시설,37.491475200000004,127.1466758,40298
293,301,education/job,구립송파구 장애인보호작업장,송파구 양산로 5 3층 (거여동) 구립송파구 장애인보호작업장,37.4897693,127.14267240000001,40301
294,302,education/job,연화직업재활원,송파구 가락로 86 (석촌동) 5층 연화직업재활원,37.5004614,127.1058885,40302
295,303,education/job,송파위더스,송파구 성내천로 333-4 (마천동) 송파위더스,37.4913838,127.15745259999998,40303
296,304,education/job,효명장애인 보호작업시설,"송파구 올림픽로 269, 832호 (신천동, 롯데캐슬프라자) 효명장애인 보호작업시설",37.514418,127.1006494,40304
297,305,education/job,행복보호작업장,송파구 성내천로 271 (마천동) 행복보호작업장,37.4963274,127.15446770000001,40305
298,306,education/job,굿윌스토어(♠),송파구 마천로 226 (마천동) 굿윌스토어(♠),37.500233200000004,127.1429345,40306
299,307,education/job,함재보호작업장,송파구 새말로10길 19 (문정동) 함재보호작업장,37.481135200000004,127.12773659999999,40307
300,308,education/job,두손장애인보호작업장,송파구 송이로 31길 4-15(문정동) 두손장애인보호작업장,37.487966899999996,127.13259740000002,40308
301,309,education/job,라온클린패밀리,강동구 고덕로 295-45 라온클린패밀리,37.5577349,127.1585865,40309
303,311,education/job,성지보호작업장,강동구 동남로 85길 15 성지보호작업장,37.5612461,127.15589469999999,40311
304,312,education/job,강동구 장애인보호작업장,강동구 고덕로 100-5 강동구 장애인보호작업장,37.554310799999996,127.13657020000001,40312
305,313,education/job,아이티어빌리티센터,강동구 명일로 230 삼보프리빌 301호 아이티어빌리티센터,37.5391493,127.14681350000001,40313
307,315,education/job,푸른보호작업장,강동구 상암로3길 86 푸른보호작업장,37.5543166,127.1281487,40315
309,317,education/job,동안우리복지센터,강동구 풍성로 146 동안우리복지센터,37.530998499999995,127.12819280000001,40317
310,318,education/job,파란마음복지센터,강동구 진황도로 100 하이브 3층 파란마음복지센터,37.5354205,127.1374068,40318
311,319,education/job,선한복지센터,"강동구 양재대로91길 62 (성내동, 동아아파트상가4층) 선한복지센터",37.5287576,127.13265690000001,40319
312,320,education/job,소망드림복지센터,강동구 암사동512-4 2층 소망드림복지센터,37.5498987,127.1265488,40320
313,321,daycare,그린도봉주간보호센터,서울특별시 도봉구 도봉로 575 그린도봉주간보호센터,37.6564134,127.03881640000002,40321
316,324,daycare,마포장애인종합복지관,"마포구 월드컵북로 30길 9-22, 102동 102호 (성산동, 성산월드타운대림아파트) [성산동 601번지]",37.5698541,126.90769569999999,40324
318,326,daycare,로뎀나무,강서구 까치산로18나길 36 (화곡동 772-60 1층),37.5458718,126.8495672,40326
319,327,daycare,양지골,구로구 구로중앙로28길 62 5층 (구로동 109-3),37.499968200000005,126.88907240000002,40327
320,328,daycare,파란마음주간보호센터,중구 다산로22길 11 (신당동 340-180) 1층,37.5576765,127.0130703,40328
321,329,signinterpret,송파구수화통역센터,"서울시 송파구 송파1동 15-2 3층 서울시 송파구 송파대로 460, 3층",37.5076437,127.10547199999999,40329
322,330,education/job,TEST,서울특별시 강남구 학동로 402 TEST,37.5169881,127.04180659999999,40330
