,category,place_name,소재지도로명주소,place_address,남녀공용화장실여부,남성용-대변기수,남성용-소변기수,남성용-장애인용대변기수,남성용-장애인용소변기수,남성용-어린이용대변기수,남성용-어린이용소변기수,여성용-대변기수,여성용-장애인용대변기수,여성용-어린이용대변기수,관리기관명,전화번호,개방시간,설치년도,lat,lon,데이터기준일자,Unnamed: 21,place_id
0,toilet/open,남대문시장 화장실,서울특별시 중구 소월로 3,서울특별시 중구 남창동 51-2,N,0,2,1,0,0,0,1,1,0,서울특별시 중구청,02-3396-5472,연중무휴,2017-07,37.559433,126.976225,2018-02-26,,300000
1,toilet/open,광희동 화장실,서울특별시 중구 마른내로 166,서울특별시 중구 광희동1가 202-1,N,2,4,1,0,0,0,4,1,0,서울특별시 중구청,02-3396-5472,연중무휴,2000-11,37.564371,127.00630600000001,2018-02-26,,300001
2,toilet/open,신당 1호 화장실,서울특별시 중구 다산로 33다길 25,서울특별시 중구 신당동 236-542,Y,1,1,0,0,0,0,2,0,0,서울특별시 중구청,02-3396-5472,연중무휴,1982-09,37.563819,127.013347,2018-02-26,,300002
3,toilet/open,신당 2호 화장실,서울특별시 중구 다산로 31길 7-5,서울특별시 중구 신당동 298-74,N,2,1,0,0,0,0,2,0,0,서울특별시 중구청,02-3396-5472,연중무휴,1981-06,37.561325,127.013778,2018-02-26,,300003
4,toilet/open,청구역 화장실,서울특별시 중구 장충단로 228-15,서울특별시 중구 신당동 297-17,N,1,3,1,0,0,0,2,0,0,서울특별시 중구청,02-3396-5472,연중무휴,1984-09,37.561316999999995,127.013783,2018-02-26,,300004
5,toilet/open,황학동 화장실,서울특별시 중구 다산로48길 33,서울특별시 중구 황학동 755,N,1,2,1,1,1,0,3,1,1,서울특별시 중구청,02-3396-5472,연중무휴,2017-07,37.56754,127.01813899999999,2018-02-26,,300005
2369,toilet/open,구로4동 경로당 화장실,서울특별시 구로구 구로동로8길 27,서울특별시 구로구 구로동 745-74,N,2,2,0,0,0,0,1,0,3,서울특별시 구로구시설관리공단,02-850-0946,연중무휴,1981-07,37.487057,126.886241,2018-02-19,,300006
2370,toilet/open,거리공원 등기소앞 화장실,서울특별시 구로구 구로동 50,서울특별시 구로구 구로동 50,N,2,6,0,0,0,0,5,0,0,서울특별시 구로구시설관리공단,02-850-0946,연중무휴,1986-02,37.501131,126.89034099999999,2018-02-19,,300007
2371,toilet/open,삭새어린이공원 화장실,서울특별시 구로구 부일로9길 90-2,서울특별시 구로구 궁동 238-3,N,2,2,0,0,0,0,3,0,0,서울특별시 구로구시설관리공단,02-850-0946,연중무휴,1986-12,37.496342999999996,126.824444,2018-02-19,,300008
2373,toilet/open,개웅어린이공원 화장실,서울특별시 구로구 개봉로15길 58-2,서울특별시 구로구 개봉동 340-8,N,2,1,0,0,0,0,2,0,0,서울특별시 구로구시설관리공단,02-850-0946,연중무휴,1986-10,37.490107,126.853004,2018-02-19,,300009
2374,toilet/open,고척근린공원 화장실,서울특별시 구로구 고척로45길 31,서울특별시 구로구 고척동 산9-14,N,5,1,1,0,0,0,12,0,0,서울특별시 구로구시설관리공단,02-850-0946,연중무휴,2002-05,37.505376,126.853067,2018-02-19,,300010
2386,toilet/open,궁동생태공원 화장실,서울특별시 구로구 궁동 42-2,서울특별시 구로구 궁동 42-2,N,1,1,0,0,1,0,2,0,0,서울특별시 구로구시설관리공단,02-850-0946,연중무휴,2014-04,37.501289,126.829383,2018-02-19,,300011
2448,toilet/open,구로리어린이공원 화장실,서울특별시 구로구 구로중앙로 13,서울특별시 구로구 구로동 139-82,N,3,4,1,0,0,0,6,0,0,서울특별시 구로구시설관리공단,02-850-0946,연중무휴,2003-11,37.490433,126.89161599999998,2018-02-19,,300012
2449,toilet/open,화원어린이공원 화장실,서울특별시 구로구 벚꽃로 490,서울특별시 구로구 구로동 478-1,N,1,3,0,0,0,0,1,0,0,서울특별시 구로구시설관리공단,02-850-0946,연중무휴,2003-11,37.497937,126.88048899999998,2018-02-19,,300013
2450,toilet/open,애경어린이공원 화장실,서울특별시 구로구 구로동 501-22,서울특별시 구로구 구로동 501-22,N,1,0,1,0,0,0,1,0,0,서울특별시 구로구시설관리공단,02-850-0946,(평일)09:00~17:00+(주말)09:00~17:00+(공휴일)09:00~17:00,2007-08,37.500312,126.88443799999999,2018-02-19,,300014
2451,toilet/open,성산빌라 앞 화장실,서울특별시 구로구 도림로 8-9,서울특별시 구로구 구로동 801-27,N,1,3,0,0,0,0,1,0,0,서울특별시 구로구시설관리공단,02-850-0946,연중무휴,2011-05,37.485186999999996,126.88731100000001,2018-02-19,,300015
2452,toilet/open,동산빌라앞 화장실,서울특별시 구로구 구로동 792-28,서울특별시 구로구 구로동 792-28,N,1,3,0,0,0,0,2,0,0,서울특별시 구로구시설관리공단,02-850-0946,연중무휴,2007-11,37.485938,126.88857800000001,2018-02-19,,300016
2453,toilet/open,계남근린공원입구 화장실,서울특별시 구로구 중알로15길 100-20,서울특별시 구로구 고척동 226-7,N,2,3,0,0,0,0,1,0,0,서울특별시 구로구시설관리공단,02-850-0946,연중무휴,2002-11,37.507601,126.854501,2018-02-19,,300017
2454,toilet/open,고척근린공원 소공원 화장실,서울특별시 구로구 고척로52가길 65,서울특별시 구로구 고척동 164-12,N,1,2,0,0,0,0,2,0,0,서울특별시 구로구시설관리공단,02-850-0946,연중무휴,2012-09,37.503009000000006,126.85281100000002,2018-02-19,,300018
2455,toilet/open,잦절약수터 입구 화장실,서울특별시 구로구 개봉동 46-2,서울특별시 구로구 개봉동 46-2,N,2,2,0,0,0,0,4,0,0,서울특별시 구로구시설관리공단,02-850-0946,연중무휴,2008-12,37.502194,126.839656,2018-02-19,,300019
2456,toilet/open,개웅산공원 화장실,서울특별시 구로구 개봉동 산60-5,서울특별시 구로구 개봉동 산60-5,N,3,1,1,0,0,0,5,0,0,서울특별시 구로구시설관리공단,02-850-0946,연중무휴,2010-01,37.485145,126.847953,2018-02-19,,300020
2457,toilet/open,목감교 화장실,서울특별시 구로구 개봉동 372-1,서울특별시 구로구 개봉동 372-1,N,2,4,0,0,0,0,4,0,0,서울특별시 구로구시설관리공단,02-850-0946,연중무휴,2010-11,37.491017,126.863285,2018-02-19,,300021
2458,toilet/open,광명교 화장실,서울특별시 구로구 천왕동 51-1,서울특별시 구로구 천왕동 51-1,N,1,1,0,0,0,0,2,0,0,서울특별시 구로구시설관리공단,02-850-0946,연중무휴,2010-11,37.480733,126.846005,2018-02-19,,300022
2460,toilet/open,남구로역 공중화장실 화장실,서울특별시 구로구 도림로 9,서울특별시 구로구 구로동 803-5,N,3,8,0,0,0,0,2,0,0,서울특별시 구로구시설관리공단,02-850-0946,(평일)04:00~20:00+(주말)04:00~20:00+(공휴일)04:00~20:00,2013-12,37.485671,126.886622,2018-02-19,,300023
2461,toilet/open,구일역제방앞 화장실,서울특별시 구로구 구일로 133,서울특별시 구로구 구로동 642-76,N,1,3,0,0,0,0,2,0,0,서울특별시 구로구시설관리공단,02-850-0946,연중무휴,2011-02,37.495033,126.87102900000001,2018-02-19,,300024
2462,toilet/open,고척교입구 화장실,서울특별시 구로구 구로동 621-9,서울특별시 구로구 구로동 621-9,N,1,2,0,0,0,0,2,0,0,서울특별시 구로구시설관리공단,02-850-0946,연중무휴,2017-07,37.501465,126.872376,2018-02-19,,300025
2464,toilet/open,인라인스케이트장제방 화장실,서울특별시 구로구 구로동 635-19,서울특별시 구로구 구로동 635-19,N,1,1,0,0,0,0,2,0,0,서울특별시 구로구시설관리공단,02-850-0946,연중무휴,2017-07,37.499117,126.872294,2018-02-19,,300026
2465,toilet/open,c구장(축구장)제방위 화장실,서울특별시 구로구 구로동 271-86,서울특별시 구로구 구로동 271-86,N,1,1,0,0,0,0,2,0,0,서울특별시 구로구시설관리공단,02-850-0946,연중무휴,2011-02,37.511845,126.87817199999999,2018-02-19,,300027
2466,toilet/open,동양미래대학옆제방 화장실,서울특별시 구로구 고척동 279-1,서울특별시 구로구 고척동 279-1,N,1,1,0,0,0,0,2,0,0,서울특별시 구로구시설관리공단,02-850-0946,연중무휴,2017-07,37.500023999999996,126.86924499999999,2018-02-19,,300028
2467,toilet/open,계남근린공원 화장실,서울특별시 구로구 신정3동 산103-2,서울특별시 구로구 신정3동 산103-2,N,1,0,0,0,0,0,1,0,0,서울특별시 구로구시설관리공단,02-850-0946,연중무휴,2002-04,37.509325,126.85599099999999,2018-02-19,,300029
2468,toilet/open,신구로유수지 화장실,서울특별시 구로구 구로동 693-2,서울특별시 구로구 구로동 693-17,N,1,13,0,0,0,0,2,0,0,서울특별시 구로구시설관리공단,02-850-0946,연중무휴,2009-08,37.489378,126.87546499999999,2018-02-19,,300030
2469,toilet/open,천왕근린공원 화장실,서울특별시 구로구 천왕동 233-2,서울특별시 구로구 천왕동 233-2,N,2,2,1,0,0,0,8,0,0,서울특별시 구로구시설관리공단,02-850-0946,연중무휴,2011-05,37.476158,126.84231399999999,2018-02-19,,300031
2470,toilet/open,오수배드민턴장 화장실,서울특별시 구로구 오리로22다길 104,서울특별시 구로구 궁동 산10-49,N,1,2,0,0,0,0,1,0,0,서울특별시 구로구시설관리공단,02-850-0946,연중무휴,2011-08,37.502117999999996,126.83481299999998,2018-02-19,,300032
2472,toilet/open,미래빌라앞 화장실,서울특별시 구로구 오류로 86,서울특별시 구로구 오류동 134-1,N,1,2,1,0,0,0,2,0,0,서울특별시 구로구시설관리공단,02-850-0946,연중무휴,2014-05,37.492482,126.840966,2018-02-19,,300033
2473,toilet/open,도림교옆 화장실,서울특별시 구로구 신도림동 325-1,서울특별시 구로구 신도림동 325-1,N,1,2,0,0,0,0,3,0,0,서울특별시 구로구시설관리공단,02-850-0946,연중무휴,2005-05,37.513326,126.885695,2018-02-19,,300034
2474,toilet/open,온수체육공원 화장실,서울특별시 구로구 부일로1길 58-3,서울특별시 구로구 온수동 산10-4,N,1,2,0,0,0,0,3,0,0,서울특별시 구로구시설관리공단,02-850-0946,연중무휴,2015-01,37.493255,126.819401,2018-02-19,,300035
2475,toilet/open,남구로시장 화장실,서울특별시 구로구 구로동로26길 54,서울특별시 구로구 구로4동 741-44,N,3,3,1,0,1,0,3,1,1,서울특별시 구로구시설관리공단,02-850-0946,연중무휴,2016-06,37.489768,126.88708799999999,2018-02-19,,300036
2476,toilet/open,뱀쇠다리 옆 화장실,서울특별시 구로구 구로동 689-8,서울특별시 구로구 구로동 689-8,N,0,2,1,0,0,0,2,0,0,서울특별시 구로구시설관리공단,02-850-0946,연중무휴,2017-07,37.489290999999994,126.87251100000002,2018-02-19,,300037
2477,toilet/open,참새소공원 화장실,서울특별시 구로구 개봉동 1-13,서울특별시 구로구 개봉동 1-13,N,1,1,0,0,0,0,2,0,0,서울특별시 구로구시설관리공단,02-850-0946,연중무휴,2017-09,37.505251,126.84421100000002,2018-02-19,,300038
2478,toilet/open,덕의근린공원 화장실,서울특별시 구로구 고척동 339-4,서울특별시 구로구 고척동 339-4,N,0,2,1,0,0,0,2,1,0,서울특별시 구로구시설관리공단,02-850-0947,연중무휴,2017-11,37.506931,126.856076,2018-02-19,,300039
2847,toilet/open,마장축산물평면주차장 화장실,,서울특별시 성동구 마장동 525,N,1,1,1,0,0,0,2,1,0,서울특별시성동구도시관리공단,02-2204-7944,(평일)09:00~17:00+(주말)09:00~17:00+(공휴일)09:00~17:00,2017-01,37.571378,127.040233,2018-02-21,,300040
2852,toilet/open,행당어린이공원 화장실,서울특별시 성동구 행당동 128-417,서울특별시 성동구 행당동 128-417,N,3,2,0,0,0,0,3,0,0,서울특별시성동구도시관리공단,02-2204-7943,연중무휴,1989-01,37.56175999,127.0352626,2018-02-21,,300041
2853,toilet/open,한양대 앞 화장실,서울특별시 성동구 행당동 157-4,서울특별시 성동구 행당동 157-4,N,1,1,1,0,0,0,2,0,0,서울특별시성동구도시관리공단,02-2204-7943,연중무휴,2016-11,37.56610416,127.04575659999999,2018-02-21,,300042
2910,toilet/open,왕십리문화공원 화장실,서울특별시 성동구 도선동 35-2,서울특별시 성동구 도선동 35-2,N,2,2,1,0,0,0,5,1,1,서울특별시성동구도시관리공단,02-2204-7943,연중무휴,2016-12,37.553588299999994,127.0419162,2018-02-21,,300043
2912,toilet/open,독서당공원 화장실,서울특별시 성동구 금호동1가 산37-7,서울특별시 성동구 금호동1가 산37-7,N,1,3,1,0,0,0,3,1,0,서울특별시성동구도시관리공단,02-2204-7943,연중무휴,2016-01,37.556445200000006,127.0195178,2018-02-21,,300044
2917,toilet/open,자동차매매 화장실,서울특별시 성동구 용답동 234-1,서울특별시 성동구 용답동 234-1,N,3,3,1,0,1,0,5,1,1,서울특별시성동구도시관리공단,02-2204-7943,연중무휴,2016-02,37.55397271,127.04632620000001,2018-02-21,,300045
2919,toilet/open,성수근린공원 화장실,서울특별시 성동구 성수동2가 302-25,서울특별시 성동구 성수동2가 302-25,N,1,2,1,0,0,0,2,0,0,서울특별시성동구도시관리공단,02-2204-7943,연중무휴,1995-06,37.56607434,127.047049,2018-02-21,,300046
2920,toilet/open,성삼공원 화장실,서울특별시 성동구 성수동2가 273-11,서울특별시 성동구 성수동2가 273-11,N,2,1,1,0,0,0,5,1,1,서울특별시성동구도시관리공단,02-2204-7943,연중무휴,2016-08,37.56161138,127.0269475,2018-02-21,,300047
2921,toilet/open,중랑물재생센터 화장실,서울특별시 성동구 송정동 73-37,서울특별시 성동구 송정동 73-37,N,1,1,0,0,0,0,2,0,0,서울특별시성동구도시관리공단,02-2204-7943,연중무휴,2016-01,37.56789151,127.039399,2018-02-21,,300048
2922,toilet/open,무학봉 화장실,서울특별시 성동구 하왕십리동 890-334,서울특별시 성동구 하왕십리동 890-334,N,1,1,0,0,0,0,1,0,0,서울특별시성동구도시관리공단,02-2204-7943,연중무휴,2016-12,37.54484853,127.0206114,2018-02-21,,300049
2923,toilet/open,응봉체육공원 화장실,서울특별시 성동구 응봉동 9-4,서울특별시 성동구 응봉동 9-4,N,1,1,0,0,0,0,2,0,0,서울특별시성동구도시관리공단,02-2204-7943,연중무휴,2016-01,37.55759695,127.0372514,2018-02-21,,300050
2924,toilet/open,응봉교 아래 화장실,서울특별시 성동구 응봉동 244-2,서울특별시 성동구 응봉동 244-2,N,1,1,0,0,0,0,2,0,0,서울특별시성동구도시관리공단,02-2204-7943,연중무휴,2016-01,37.55127046,127.0372186,2018-02-21,,300051
2927,toilet/open,매봉산지하수 옆 화장실,서울특별시 성동구 옥수동 산5-164,서울특별시 성동구 옥수동 산5-164,N,2,2,1,1,0,0,4,0,0,서울특별시성동구도시관리공단,02-2204-7943,연중무휴,2016-05,37.54480786,127.05240500000001,2018-02-21,,300052
2931,toilet/open,응봉자전거대여소 화장실,서울특별시 성동구 응봉동 3-11,서울특별시 성동구 응봉동 3-11,N,1,1,0,0,0,0,1,0,0,서울특별시성동구도시관리공단,02-2204-7943,연중무휴,2016-05,37.5485049,127.03086680000001,2018-02-21,,300053
2934,toilet/open,응봉산 팔각정 화장실,서울특별시 성동구 금호4가 1539,서울특별시 성동구 금호4가 1539,N,2,3,1,0,0,0,5,1,0,서울특별시성동구도시관리공단,02-2204-7943,연중무휴,2016-10,37.54845678,127.03192949999999,2018-02-21,,300054
2939,toilet/open,상원 앞 화장실,서울특별시 성동구 성수동1가 2-20,서울특별시 성동구 성수동1가 2-20,N,0,2,1,0,0,0,2,1,0,서울특별시성동구도시관리공단,02-2204-7943,연중무휴,2016-09,37.549916100000004,127.028741,2018-02-21,,300055
2940,toilet/open,송정제방 화장실,서울특별시 성동구 송정동 75-20,서울특별시 성동구 송정동 75-20,N,1,1,1,0,0,0,2,0,0,서울특별시성동구도시관리공단,02-2204-7943,연중무휴,2016-05,37.56982606,127.04410790000001,2018-02-21,,300056
2941,toilet/open,송정농구장 화장실,서울특별시 성동구 송정동 73-24,서울특별시 성동구 송정동 73-24,N,1,1,0,0,0,0,2,0,0,서울특별시성동구도시관리공단,02-2204-7943,연중무휴,2016-01,37.56720159,127.04106740000002,2018-02-21,,300057
2942,toilet/open,새말빗물펌프장 화장실,서울특별시 성동구 송정동 93-22,서울특별시 성동구 송정동 93-22,N,1,1,1,1,0,0,2,0,0,서울특별시성동구도시관리공단,02-2204-7943,연중무휴,2016-06,37.5531319,127.02834909999999,2018-02-21,,300058
2943,toilet/open,궁터장 화장실,서울특별시 성동구 행당동 81-4,서울특별시 성동구 행당동 81-4,N,1,2,0,0,0,0,2,0,0,서울특별시성동구도시관리공단,02-2204-7943,연중무휴,2016-11,37.54610038,127.0105808,2018-02-21,,300059
2946,toilet/open,살곶이 진입 화장실,서울특별시 성동구 사근동 102-28,서울특별시 성동구 사근동 102-28,N,1,1,1,0,0,0,2,0,0,서울특별시성동구도시관리공단,02-2204-7943,연중무휴,2016-01,37.54953971,127.0349686,2018-02-21,,300060
4291,toilet/open,숯내공원 화장실 화장실,서울특별시 송파구 중대로4길 8,서울특별시 송파구 문정동 150-8,N,2,2,0,0,0,0,3,0,0,서울특별시 송파구청,02-2147-3380,상시,,37.497156,127.14693700000001,2018-02-20,,300061
4292,toilet/open,올림픽공원-몽촌삼거리(옥외화장실) 화장실,서울특별시 송파구 올림픽로 424,서울특별시 송파구 오륜동 88-2,N,5,3,0,0,0,0,4,0,0,국민체육진흥공단,,상시,,37.507927,127.118076,2018-02-20,,300062
4293,toilet/open,올림픽공원-공급실 앞(옥외화장실) 화장실,서울특별시 송파구 올림픽로 424,서울특별시 송파구 오륜동 88-2,N,5,3,0,0,0,0,4,0,0,국민체육진흥공단,,정시,,37.514634,127.10741100000001,2018-02-20,,300063
4294,toilet/open,올림픽공원-공급실 뒤(옥외화장실) 화장실,서울특별시 송파구 올림픽로 424,서울특별시 송파구 오륜동 88-2,N,5,3,0,0,0,0,4,0,0,국민체육진흥공단,,"정시(09:00~18:00, 평일만)",,37.493312,127.12503600000001,2018-02-20,,300064
4295,toilet/open,올림픽공원-구립SOMA미술관 화장실,서울특별시 송파구 올림픽로 424,서울특별시 송파구 오륜동 88-2,N,2,4,0,0,0,0,3,0,0,국민체육진흥공단,,"정시(09:00~18:00, 평일만)",,37.502416,127.12611499999998,2018-02-20,,300065
4296,toilet/open,올림픽공원-만남의광장(A2동) 화장실,서울특별시 송파구 올림픽로 424,서울특별시 송파구 오륜동 88,N,6,7,1,0,0,0,10,1,0,국민체육진흥공단,,"정시(09:00~18:00, 평일만)",,37.515394,127.10744199999999,2018-02-20,,300066
4297,toilet/open,올림픽공원-프라자A동 화장실,서울특별시 송파구 올림픽로 424,서울특별시 송파구 오륜동 88,N,2,3,1,0,0,0,4,0,0,국민체육진흥공단,,"정시(09:00~18:00, 평일만)",,37.493833,127.12048200000001,2018-02-20,,300067
4298,toilet/open,올림픽공원-프라자C동 화장실,서울특별시 송파구 올림픽로 424,서울특별시 송파구 오륜동 88,N,2,3,1,0,0,0,4,0,0,국민체육진흥공단,,"정시(09:00~18:00, 평일만)",,37.514516,127.108802,2018-02-20,,300068
4299,toilet/open,올림픽공원-프라자C동 화장실,서울특별시 송파구 올림픽로 424,서울특별시 송파구 오륜동 88,N,2,3,1,0,0,0,4,0,0,국민체육진흥공단,,"정시(09:00~18:00, 평일만)",,37.48982,127.123779,2018-02-20,,300069
4300,toilet/open,송파도서관(오금동 51) 화장실,서울특별시 송파구 동남로23가길 20-15,서울특별시 송파구 오금동 51,N,1,4,0,0,0,0,3,2,0,송파도서관장,,"정시(09:00~18:00, 평일만)",,37.51077,127.116514,2018-02-20,,300070
4301,toilet/open,청소년 수련관 화장실,서울특별시 송파구 중대로4길 8,서울특별시 송파구 문정2동 150-8,N,3,4,1,0,1,0,2,0,1,서울특별시 송파구청,,"정시(09:00~18:00, 평일만)",,37.507065000000004,127.07988600000002,2018-02-20,,300071
4302,toilet/open,청소년 수련관 화장실,서울특별시 송파구 성내천로 319,서울특별시 송파구 마천1동 325-5,N,2,2,1,0,0,0,1,1,0,서울특별시 송파구청,,"정시(09:00~18:00, 평일만)",,37.507079,127.117654,2018-02-20,,300072
4303,toilet/open,서울영어마을풍납캠프 화장실,서울특별시 송파구 풍성로14길 45,서울특별시 송파구 풍납2동 281-1,N,2,4,1,0,0,0,2,1,0,교육청장,,"정시(09:00~18:00, 평일만)",,37.509334,127.085974,2018-02-20,,300073
4304,toilet/open,송파우체국 화장실,서울특별시 송파구 오금로 323,서울특별시 송파구 오금동 50-3,N,2,3,0,0,0,0,4,1,0,송파우체국,,"정시(09:00~18:00, 평일만)",,37.538261999999996,127.12283799999999,2018-02-20,,300074
4305,toilet/open,송파나루(더다이닝) 화장실 화장실,서울특별시 송파구 잠실로 148,서울특별시 송파구 잠실동 47,N,2,4,1,0,1,0,8,1,1,서울특별시 송파구청,02-2147-3380,상시,,37.512456,127.10506399999998,2018-02-20,,300075
4306,toilet/open,대한소방공제회빌딩 화장실,서울특별시 송파구 송파대로 274,서울특별시 송파구 가락본동 98-3,N,1,1,0,0,0,0,1,0,0,건물관리자,,"정시(09:00~18:00, 평일만)",,37.511477,127.08148,2018-02-20,,300076
4307,toilet/open,한국조세연구원빌딩 화장실,서울특별시 송파구 송파대로28길 28,서울특별시 송파구 가락본동 79-6,N,36,36,0,0,0,0,23,0,0,건물관리자,,"정시(09:00~18:00, 평일만)",,37.512144,127.08300700000001,2018-02-20,,300077
4308,toilet/open,국민연금본부회관 화장실,서울특별시 송파구 신천로2길 13,서울특별시 송파구 신천동 7-16,N,1,2,1,0,0,0,1,1,0,건물관리자,,"정시(09:00~18:00, 평일만)",,37.506762,127.105286,2018-02-20,,300078
4309,toilet/open,경찰병원 화장실,서울특별시 송파구 중대로 149,서울특별시 송파구 가락본동 58,N,3,5,1,0,2,0,4,1,0,경찰병원장,,"정시(09:00~18:00, 평일만)",,37.501287,127.12703799999998,2018-02-20,,300079
4310,toilet/open,강동송파교육지원청 화장실,서울특별시 송파구 잠실로 26,서울특별시 송파구 잠실2동 22-3,N,1,5,1,0,0,0,1,1,0,교육장,,"정시(09:00~18:00, 평일만)",,37.50137,127.108678,2018-02-20,,300080
4311,toilet/open,송파구  공영차고지 화장실,서울특별시 송파구 충민로6길 61-5,서울특별시 송파구 장지동 42-1,N,2,2,0,0,0,0,2,0,0,시설관리공단,,"정시(09:00~18:00, 평일만)",,37.495107,127.122426,2018-02-20,,300081
4312,toilet/open,시설관리공단 화장실,서울특별시 송파구 장지동 573-1,서울특별시 송파구 장지동 573-1,N,2,2,1,0,0,0,1,1,0,시설관리공단,,"정시(09:00~18:00, 평일만)",,37.5073,127.11663600000001,2018-02-20,,300082
4313,toilet/open,마천119안전센터 화장실,서울특별시 송파구 오금로51길 56,서울특별시 송파구 마천2동 29-1,N,3,5,0,0,0,0,2,0,0,송파소방서장,02-403-2119,"정시(09:00~18:00, 평일만)",,37.49061,127.157521,2018-02-20,,300083
4314,toilet/open,거여119안전센터 화장실,서울특별시 송파구 마천로 329,서울특별시 송파구 거여2동 307-11,Y,0,0,0,0,0,0,1,0,0,송파소방서장,02-403-2119,"정시(09:00~18:00, 평일만)",,37.508236,127.10388700000001,2018-02-20,,300084
4315,toilet/open,방이119안전센터 화장실,서울특별시 송파구 강동대로 286,서울특별시 송파구 방이2동 89-3,Y,0,0,0,0,0,0,1,0,0,송파소방서장,02-403-2119,"정시(09:00~18:00, 평일만)",,37.505798,127.10616,2018-02-20,,300085
4316,toilet/open,잠실119안전센터 화장실,서울특별시 송파구 석촌호수로 151,서울특별시 송파구 잠실3동 44-5,N,2,1,0,0,0,0,1,0,0,송파소방서장,02-403-2119,"정시(09:00~18:00, 평일만)",,37.492979,127.15016200000001,2018-02-20,,300086
4317,toilet/open,운동장119안전센터 화장실,서울특별시 송파구 올림픽로 25,서울특별시 송파구 잠실2동 10,N,2,3,0,0,0,0,1,0,0,송파소방서장,02-403-2119,"정시(09:00~18:00, 평일만)",,37.514021,127.10756699999999,2018-02-20,,300087
4318,toilet/open,가락119안전센터 화장실,서울특별시 송파구 양재대로 932,서울특별시 송파구 가락1동 600,N,2,2,1,0,0,0,1,0,0,송파소방서장,02-403-2119,"정시(09:00~18:00, 평일만)",,37.506991,127.089909,2018-02-20,,300088
4319,toilet/open,서울초이스병원(임정애 메이저) 화장실,서울특별시 송파구 올림픽로 579,서울특별시 송파구 풍납2동 496-5,N,1,1,0,0,0,0,2,0,0,서울초이스병원장,,"정시(09:00~18:00, 평일만)",,37.504757,127.08773799999999,2018-02-20,,300089
4320,toilet/open,아산병원 화장실,서울특별시 송파구 강동대로 13,서울특별시 송파구 풍납2동 388,N,5,5,2,0,0,0,5,2,0,아산병원장,,"정시(09:00~18:00, 평일만)",,37.516616,127.101258,2018-02-20,,300090
4321,toilet/open,한국육영학교(특수) 화장실,서울특별시 송파구 충민로6길 15,서울특별시 송파구 장지동 848-1,N,2,1,1,0,0,0,3,0,0,한국육영학교장,,"정시(09:00~18:00, 평일만)",,37.497659999999996,127.125723,2018-02-20,,300091
4322,toilet/open,한국체육대학교 화장실,서울특별시 송파구 양재대로 1239,서울특별시 송파구 오륜동 88-15,N,103,156,17,0,1,0,194,16,1,한국체대학장,,"정시(09:00~18:00, 평일만)",,37.504129999999996,127.107677,2018-02-20,,300092
4323,toilet/open,아시아선수촌A동상가 화장실,서울특별시 송파구 올림픽로4길 17,서울특별시 송파구 잠실동 85-1,N,3,3,0,0,0,0,3,0,0,서울특별시 송파구청,,"정시(09:00~18:00, 평일만)",,37.516312,127.10041299999999,2018-02-20,,300093
4324,toilet/open,잠실3동성당 화장실,서울특별시 송파구 잠실로 15,서울특별시 송파구 잠실3동 27-2,N,2,3,0,0,0,0,2,0,0,서울특별시 송파구청,,"정시(09:00~18:00, 평일만)",,37.489398,127.122831,2018-02-20,,300094
4325,toilet/open,풍납백제문화공원 화장실,서울특별시 송파구 풍납동 197,서울특별시 송파구 풍납동 197,N,2,3,1,0,1,0,8,1,1,서울특별시 송파구청,,"정시(09:00~18:00, 평일만)",,37.511469,127.08168899999998,2018-02-20,,300095
4326,toilet/open,송파관광정보센터 화장실,서울특별시 송파구 신천동 32,서울특별시 송파구 신천동 32,N,2,1,1,0,0,0,4,1,0,서울특별시 송파구청,,"정시(09:00~18:00, 평일만)",,37.481813,127.13246299999999,2018-02-20,,300096
4327,toilet/open,올림픽공원-테니스장 화장실,서울특별시 송파구 올림픽로 424,서울특별시 송파구 오륜동 88-2,N,34,54,0,0,0,0,37,0,0,국민체육진흥공단,,"정시(09:00~18:00, 평일만)",,37.524671000000005,127.12196399999999,2018-02-20,,300097
4328,toilet/open,KT가락지점 화장실,서울특별시 송파구 송파대로30길 40,서울특별시 송파구 가락본동 77-6,N,2,3,1,0,0,0,2,1,0,KT가락지점,,"정시(09:00~18:00, 평일만)",,37.512572,127.10819,2018-02-20,,300098
4329,toilet/open,송파나루(놀이마당) 화장실 화장실,서울특별시 송파구 삼학사로 136,서울특별시 송파구 잠실동 47,N,4,9,1,0,0,0,6,1,0,서울특별시 송파구청,02-2147-3380,상시,,37.53587,127.113731,2018-02-20,,300099
4330,toilet/open,송파나루(갤러리수) 화장실 화장실,서울특별시 송파구 오금로 111,서울특별시 송파구 잠실동 47,N,1,3,1,0,0,0,2,1,0,서울특별시 송파구청,02-2147-3380,상시,,37.516192,127.09345900000001,2018-02-20,,300100
4331,toilet/open,잠실공원 화장실 화장실,서울특별시 송파구 백제고분로15길 7,서울특별시 송파구 잠실본동 230,N,2,2,0,0,0,0,3,1,0,서울특별시 송파구청,02-2147-3380,상시,,37.508531,127.07691000000001,2018-02-20,,300101
4332,toilet/open,방이공원 화장실 화장실,서울특별시 송파구 백제고분로 489,서울특별시 송파구 방이동 52,N,2,3,1,0,0,0,5,1,0,서울특별시 송파구청,02-2147-3380,"정시(09:00~18:00, 평일만)",,37.508540999999994,127.076715,2018-02-20,,300102
4333,toilet/open,송이공원 화장실 화장실,서울특별시 송파구 송파동 169,서울특별시 송파구 송파동 169,N,2,2,1,0,0,0,3,1,0,서울특별시 송파구청,02-2147-3380,"정시(09:00~18:00, 평일만)",,37.520247,127.115553,2018-02-20,,300103
4334,toilet/open,웃말공원 화장실 화장실,서울특별시 송파구 송이로15길 41,서울특별시 송파구 가락동 21,N,1,3,1,0,0,0,1,1,0,서울특별시 송파구청,02-2147-3380,"정시(09:00~18:00, 평일만)",,37.494029,127.118077,2018-02-20,,300104
4335,toilet/open,가락공원1(관리동) 화장실 화장실,서울특별시 송파구 양재대로64길 42,서울특별시 송파구 가락동 37,N,2,3,1,0,0,0,2,1,0,서울특별시 송파구청,02-2147-3380,"정시(09:00~18:00, 평일만)",,37.494547,127.120977,2018-02-20,,300105
4336,toilet/open,가락공원2 (족구장) 화장실 화장실,서울특별시 송파구 양재대로64길 42,서울특별시 송파구 가락동 37,N,3,3,0,0,0,0,3,0,0,서울특별시 송파구청,02-2147-3380,"정시(09:00~18:00, 평일만)",,37.522698999999996,127.126848,2018-02-20,,300106
4337,toilet/open,백토공원 화장실 화장실,서울특별시 송파구 양재대로72길 47-8,서울특별시 송파구 오금동 6,N,2,3,1,0,0,0,2,1,0,서울특별시 송파구청,02-2147-3380,상시,,37.497353000000004,127.14649299999999,2018-02-20,,300107
4338,toilet/small,상록(현충) 화장실,,서울특별시 동작구 사당동 산12-2,Y,1,0,0,0,0,0,1,0,0,서울특별시 동작구청,,상시,,37.4927553611,126.973213918,2018-02-19,,300108
4339,toilet/open,훼미리공원 화장실 화장실,서울특별시 송파구 중대로4길 8,서울특별시 송파구 문정동 150-5,N,2,2,0,0,0,0,3,0,0,서울특별시 송파구청,02-2147-3380,상시,,37.496575,127.147079,2018-02-20,,300109
4340,toilet/open,오금공원1(관리동) 화장실 화장실,서울특별시 송파구 동남로23가길 20-15,서울특별시 송파구 오금동 51,N,3,2,1,0,0,0,6,1,1,서울특별시 송파구청,02-2147-3380,상시,,37.49565,127.14773400000001,2018-02-20,,300110
4341,toilet/open,오금공원2(테니스장) 화장실 화장실,서울특별시 송파구 동남로23가길 20-15,서울특별시 송파구 오금동 51,N,2,3,1,0,1,0,6,1,1,서울특별시 송파구청,02-2147-3380,상시,,37.496021999999996,127.147489,2018-02-20,,300111
4342,toilet/open,오금공원3(스케이트장) 화장실 화장실,서울특별시 송파구 동남로23가길 20-15,서울특별시 송파구 오금동 51,N,2,2,1,0,1,0,6,1,1,서울특별시 송파구청,02-2147-3380,상시,,37.495253000000005,127.149206,2018-02-20,,300112
4343,toilet/open,건너말 공원 화장실 화장실,서울특별시 송파구 중대로10길 29,서울특별시 송파구 가락동 110,N,2,2,1,0,0,0,2,1,0,서울특별시 송파구청,02-2147-3380,상시,,37.494576,127.15053300000001,2018-02-20,,300113
4344,toilet/open,개롱공원1(관리동) 화장실 화장실,서울특별시 송파구 동남로 178,서울특별시 송파구 가락동 195,N,1,3,1,0,0,0,1,1,1,서울특별시 송파구청,02-2147-3380,"정시(09:00~18:00, 평일만)",,37.478614,127.11908999999999,2018-02-20,,300114
4345,toilet/open,개롱공원2(놀이터) 화장실 화장실,서울특별시 송파구 오금로44길 61,서울특별시 송파구 가락동 195,N,2,3,1,0,0,0,5,1,1,서울특별시 송파구청,02-2147-3380,상시,,37.502725,127.108952,2018-02-20,,300115
4346,toilet/open,목련공원 화장실 화장실,서울특별시 송파구 동남로24길 25,서울특별시 송파구 오금동 156,N,2,3,1,0,0,0,3,1,0,서울특별시 송파구청,02-2147-3380,상시,,37.502821999999995,127.09856,2018-02-20,,300116
4347,toilet/open,누에머리공원 화장실 화장실,서울특별시 송파구 동남로30길 29,서울특별시 송파구 오금동 110,N,1,2,0,0,0,0,1,0,0,서울특별시 송파구청,02-2147-3380,상시,,37.50359,127.092203,2018-02-20,,300117
4348,toilet/open,두댐이공원 화장실 화장실,서울특별시 송파구 문정로 83,서울특별시 송파구 문정동 2,N,2,2,0,0,0,0,3,0,0,서울특별시 송파구청,02-2147-3380,상시,,37.51232,127.12552,2018-02-20,,300118
4349,toilet/open,거여공원 화장실 화장실,서울특별시 송파구 오금로51길 20,서울특별시 송파구 거여동 11,N,2,3,1,0,0,0,2,0,0,서울특별시 송파구청,02-2147-3380,상시,,37.512589,127.11395700000001,2018-02-20,,300119
4350,toilet/open,마천공원 화장실 화장실,서울특별시 송파구 성내천로23길 12,서울특별시 송파구 마천동 11,N,1,3,1,0,0,0,4,1,0,서울특별시 송파구청,02-2147-3380,상시,,37.510673,127.1208,2018-02-20,,300120
4351,toilet/open,연화공원 화장실 화장실,서울특별시 송파구 새말로15길 17-5,서울특별시 송파구 문정동 92,N,2,3,1,0,0,0,3,1,0,서울특별시 송파구청,02-2147-3380,상시,,37.511115000000004,127.111104,2018-02-20,,300121
4352,toilet/open,송파근린공원 화장실 화장실,서울특별시 송파구 송파대로42길 29,서울특별시 송파구 송파동 113,N,1,2,1,0,0,0,1,1,0,서울특별시 송파구청,02-2147-3380,상시,,37.513018,127.11353600000001,2018-02-20,,300122
4353,toilet/open,풍납공원 화장실 화장실,서울특별시 송파구 천호대로 992,서울특별시 송파구 풍납동 70-32,N,2,2,1,0,0,0,4,0,0,서울특별시 송파구청,02-2147-3380,상시,,37.491231,127.11534099999999,2018-02-20,,300123
4354,toilet/open,천마산공원(안전공원) 화장실 화장실,서울특별시 송파구 성내천로35길 53,서울특별시 송파구 마천동 산1-10,N,1,2,1,0,0,0,1,1,0,서울특별시 송파구청,02-2147-3380,"정시(09:00~18:00, 평일만)",,37.510249,127.12571299999999,2018-02-20,,300124
4355,toilet/open,천마산공원(축구장) 화장실 화장실,서울특별시 송파구 성내천로35길 53,서울특별시 송파구 마천동 산1-10,N,1,2,1,0,0,0,2,1,0,서울특별시 송파구청,02-2147-3380,"정시(09:00~18:00, 평일만)",,37.497048,127.14818600000001,2018-02-20,,300125
4356,toilet/open,장지근린공원 화장실 화장실,서울특별시 송파구 장지동 851,서울특별시 송파구 장지동 851,N,1,4,1,0,0,0,4,1,0,서울특별시 송파구청,02-2147-3380,"정시(09:00~18:00, 평일만)",,37.526728000000006,127.113524,2018-02-20,,300126
4357,toilet/open,동남권유통단지 화장실 화장실,서울특별시 송파구 문정동 625,서울특별시 송파구 문정동 625,N,2,4,1,0,0,0,4,1,0,서울특별시 송파구청,02-2147-3380,"정시(09:00~18:00, 평일만)",,37.526396999999996,127.114103,2018-02-20,,300127
4358,toilet/open,중소기업정보관 화장실 화장실,서울특별시 송파구 올림픽로 8,서울특별시 송파구 잠실동 50-3,N,4,3,0,0,0,0,5,1,0,서울특별시 송파구청,02-2147-3281,"정시(09:00~18:00, 평일만)",,37.501847999999995,127.12758600000001,2018-02-20,,300128
4359,toilet/open,장미 화장실 화장실,서울특별시 송파구 신천동 6,서울특별시 송파구 신천동 6,N,1,2,1,0,0,0,3,0,0,서울특별시 송파구청,02-2147-3281,"정시(09:00~18:00, 평일만)",,37.508532,127.07690500000001,2018-02-20,,300129
4360,toilet/open,마천 공중화장실 화장실,서울특별시 송파구 성내천로32길 24-1,서울특별시 송파구 마천동 125-13,N,1,1,0,0,0,0,2,0,0,서울특별시 송파구청,02-2147-3281,"정시(09:00~18:00, 평일만)",,37.518096,127.10063899999999,2018-02-20,,300130
4361,toilet/open,산성 화장실 화장실,서울특별시 송파구 감이남로 6-1,서울특별시 송파구 마천동 277-30,N,1,2,0,0,0,0,2,0,0,서울특별시 송파구청,02-2147-3281,"정시(09:00~18:00, 평일만)",,37.477614,127.124945,2018-02-20,,300131
4362,toilet/open,제2거여 재래식 화장실,서울특별시 송파구 마천로 272,서울특별시 송파구 거여동 181-3,N,1,0,0,0,0,0,2,0,0,서울특별시 송파구청,02-2147-3281,상시,,37.493210999999995,127.13636299999999,2018-02-20,,300132
4363,toilet/open,제3거여 재래식 화장실,서울특별시 송파구 거마로16길 9,서울특별시 송파구 거여동 181-415,N,1,1,0,0,0,0,1,0,0,서울특별시 송파구청,02-2147-3281,상시,,37.506316,127.106633,2018-02-20,,300133
4364,toilet/open,제4거여 재래식 화장실,서울특별시 송파구 거마로10가길 16,서울특별시 송파구 거여동 181-622,N,1,0,0,0,0,0,2,0,0,서울특별시 송파구청,02-2147-3281,상시,,37.504578,127.138421,2018-02-20,,300134
4365,toilet/open,제5거여 재래식 화장실,서울특별시 송파구 마천로46길 12-1,서울특별시 송파구 거여동 181-639,N,1,1,0,0,0,0,1,0,0,서울특별시 송파구청,02-2147-3281,상시,,37.509823,127.131592,2018-02-20,,300135
4366,toilet/open,제6거여 재래식 화장실,서울특별시 송파구 마천로50길 8,서울특별시 송파구 거여동 202-78,N,1,0,0,0,0,0,2,0,0,서울특별시 송파구청,02-2147-3281,상시,,37.471111,127.126154,2018-02-20,,300136
4367,toilet/open,신도빌딩 화장실,서울특별시 송파구 중대로 215,서울특별시 송파구 가락동 10,N,2,2,0,0,0,0,2,0,0,서울특별시 송파구청,02-2147-3281,상시,,37.50651,127.12056799999999,2018-02-20,,300137
4368,toilet/open,가윤빌딩 화장실,서울특별시 송파구 송이로 155,서울특별시 송파구 가락동 124-4,N,1,1,0,0,0,0,1,0,0,서울특별시 송파구청,02-2147-3281,상시,,37.485902,127.13243100000001,2018-02-20,,300138
4369,toilet/open,세신타운 화장실,서울특별시 송파구 양산로 12,서울특별시 송파구 거여동 293-1,N,2,2,0,0,0,0,2,0,0,서울특별시 송파구청,02-2147-3281,상시,,37.500049,127.147784,2018-02-20,,300139
4370,toilet/open,㈜송파상운-취약지역 화장실,서울특별시 송파구 성내천로63길 5-5,서울특별시 송파구 마천동 330-2,N,0,2,0,0,0,0,0,0,0,서울특별시 송파구청,02-2147-3281,상시,,37.500054,127.14313100000001,2018-02-20,,300140
4371,toilet/open,로데오 상점가-취약지역 화장실,서울특별시 송파구 동남로 110,서울특별시 송파구 문정동 29-24,N,1,2,0,0,0,0,2,0,0,서울특별시 송파구청,02-2147-3281,상시,,37.493745000000004,127.144305,2018-02-20,,300141
4372,toilet/open,현윤빌딩 화장실,서울특별시 송파구 동남로 102,서울특별시 송파구 문정동 42-6 2층,N,2,2,0,0,0,0,2,0,0,서울특별시 송파구청,02-2147-3281,상시,,37.492985,127.149482,2018-02-20,,300142
4373,toilet/open,향군회관A동 화장실,서울특별시 송파구 올림픽로35길 123,서울특별시 송파구 신천동 7-29,N,2,3,0,0,0,0,2,0,0,서울특별시 송파구청,02-2147-3281,상시,,37.495843,127.124748,2018-02-20,,300143
4374,toilet/small,학수(현충) 화장실,,서울특별시 동작구 사당동 산22-16,N,1,1,0,0,0,0,1,0,0,서울특별시 동작구청,,상시,,37.4926707943,126.966637299,2018-02-19,,300144
4375,toilet/open,현대드림밸리빌딩 화장실,서울특별시 송파구 오금로11길 11-8,서울특별시 송파구 방이동 34-2,N,2,3,0,0,0,0,2,0,0,서울특별시 송파구청,02-2147-3281,상시,,37.492385,127.127344,2018-02-20,,300145
4376,toilet/open,대우유토피아 화장실,서울특별시 송파구 올림픽로 336,서울특별시 송파구 방이동 22,N,1,2,1,0,0,0,2,0,0,서울특별시 송파구청,02-2147-3281,"정시(09:00~18:00, 평일만)",,37.514685,127.114194,2018-02-20,,300146
4377,toilet/open,동성빌딩 화장실,서울특별시 송파구 오금로11길 14,서울특별시 송파구 방이동 64-1,N,1,2,0,0,0,0,1,0,0,서울특별시 송파구청,02-2147-3281,"정시(09:00~18:00, 평일만)",,37.53595,127.116069,2018-02-20,,300147
4378,toilet/open,세기빌딩 화장실,서울특별시 송파구 오금로 111,서울특별시 송파구 방이동 66-2,N,3,5,0,0,0,0,3,0,0,서울특별시 송파구청,02-2147-3281,"정시(09:00~18:00, 평일만)",,37.527741999999996,127.113877,2018-02-20,,300148
4379,toilet/open,삼성디지탈프라자 화장실,서울특별시 송파구 오금로 218,서울특별시 송파구 송파동 147-6,N,2,2,0,0,0,0,2,0,0,서울특별시 송파구청,02-2147-3281,"정시(09:00~18:00, 평일만)",,37.491772999999995,127.15561000000001,2018-02-20,,300149
4380,toilet/open,효창빌딩 화장실,서울특별시 송파구 올림픽로 100,서울특별시 송파구 잠실동 181-3,N,1,1,0,0,0,0,1,0,0,서울특별시 송파구청,02-2147-3281,"정시(09:00~18:00, 평일만)",,37.50275,127.12838899999998,2018-02-20,,300150
4381,toilet/open,성진빌딩 화장실,서울특별시 송파구 올림픽로 98,서울특별시 송파구 잠실동 181-2,N,2,2,0,0,0,0,2,0,0,서울특별시 송파구청,02-2147-3281,"정시(09:00~18:00, 평일만)",,37.514602000000004,127.10654099999999,2018-02-20,,300151
4382,toilet/open,삼성생명빌딩 화장실,서울특별시 송파구 올림픽로 633,서울특별시 송파구 풍납동 473-5,N,3,3,0,0,0,0,3,0,0,서울특별시 송파구청,02-2147-3281,"정시(09:00~18:00, 평일만)",,37.500471000000005,127.13546699999999,2018-02-20,,300152
4383,toilet/open,현대파크빌상가빌딩 화장실,서울특별시 송파구 중대로 178,서울특별시 송파구 가락동 147-2,N,1,2,0,0,0,0,2,0,0,서울특별시 송파구청,02-2147-3281,"정시(09:00~18:00, 평일만)",,37.493971,127.155076,2018-02-20,,300153
4384,toilet/open,가락빌딩 화장실,서울특별시 송파구 오금로 310,서울특별시 송파구 가락동 8-2,N,3,3,0,0,0,0,2,0,0,서울특별시 송파구청,02-2147-3281,"정시(09:00~18:00, 평일만)",,37.505896,127.109766,2018-02-20,,300154
4385,toilet/open,풍납지구대 화장실,서울특별시 송파구 토성로 64,서울특별시 송파구 풍납2동 403-11,N,1,1,0,0,0,0,1,0,0,송파경찰서,02-406-8113,상시,,37.514285,127.11389199999999,2018-02-20,,300155
4386,toilet/open,청호빌딩 화장실,서울특별시 송파구 송파대로 441,서울특별시 송파구 석촌동 174-12,N,1,1,0,0,0,0,1,0,0,서울특별시 송파구청,02-2147-3281,"정시(09:00~18:00, 평일만)",,37.522388,127.10296699999999,2018-02-20,,300156
4387,toilet/open,신우빌딩 화장실,서울특별시 송파구 가락로 114,서울특별시 송파구 석촌동 296-2,N,1,1,0,0,0,0,1,0,0,서울특별시 송파구청,02-2147-3281,상시,,37.506227,127.131651,2018-02-20,,300157
4388,toilet/open,세븐스타빌딩 화장실,서울특별시 송파구 올림픽로 111,서울특별시 송파구 잠실동 19-8,N,1,2,0,0,0,0,2,0,0,서울특별시 송파구청,02-2147-3281,상시,,37.510861,127.11022700000001,2018-02-20,,300158
4389,toilet/open,민성빌딩 화장실,서울특별시 송파구 백제고분로 113,서울특별시 송파구 잠실동 222-5,N,1,2,0,0,0,0,1,0,0,서울특별시 송파구청,02-2147-3281,상시,,37.499311999999996,127.097053,2018-02-20,,300159
4390,toilet/open,석촌레이크빌 화장실,서울특별시 송파구 송파대로 453,서울특별시 송파구 석촌동 184-7,N,2,2,0,0,0,0,3,0,0,서울특별시 송파구청,02-2147-3281,상시,,37.504302,127.089021,2018-02-20,,300160
4391,toilet/open,우진빌딩 화장실,서울특별시 송파구 가락로 214,서울특별시 송파구 송파동 147-1,Y,1,2,0,0,0,0,1,0,0,서울특별시 송파구청,02-2147-3281,상시,,37.502383,127.094292,2018-02-20,,300161
4392,toilet/open,아이티벤처타워 화장실,서울특별시 송파구 중대로 135,서울특별시 송파구 가락동 78,N,3,4,1,0,0,0,3,1,0,서울특별시 송파구청,02-2147-3281,상시,,37.475386,127.12756999999999,2018-02-20,,300162
4393,toilet/open,파크인수빌딩 화장실,서울특별시 송파구 백제고분로15길 7,서울특별시 송파구 잠실본동 230,N,2,3,1,0,0,0,2,1,0,서울특별시 송파구청,02-2147-3281,상시,,37.506586,127.08099399999999,2018-02-20,,300163
4394,toilet/open,향군타워B동 화장실,서울특별시 송파구 올림픽로35길 125,서울특별시 송파구 신천동 7-13,N,2,2,1,0,0,0,3,1,0,서울특별시 송파구청,02-2147-3281,상시,,37.503901,127.13815600000001,2018-02-20,,300164
4395,toilet/open,문산부인과 화장실,서울특별시 송파구 양재대로60길 3-13,서울특별시 송파구 가락동 94-3,N,1,2,0,0,0,0,2,0,0,서울특별시 송파구청,02-2147-3281,"정시(09:00~18:00, 평일만)",,37.502295000000004,127.093303,2018-02-20,,300165
4396,toilet/open,뉴스타트병원 화장실,서울특별시 송파구 송이로 76,서울특별시 송파구 가락동 159-7,N,2,2,0,0,0,0,2,0,0,서울특별시 송파구청,02-2147-3281,"정시(09:00~18:00, 평일만)",,37.494675,127.14849,2018-02-20,,300166
4397,toilet/open,올림픽병원 화장실,서울특별시 송파구 백제고분로 283,서울특별시 송파구 석촌동 14-10,N,1,2,0,0,0,0,2,0,0,서울특별시 송파구청,02-2147-3281,"정시(09:00~18:00, 평일만)",,37.528724,127.116851,2018-02-20,,300167
4398,toilet/open,서울병원 화장실,서울특별시 송파구 오금로 290,서울특별시 송파구 가락본동 2,N,2,2,0,0,0,0,2,0,0,서울특별시 송파구청,02-2147-3281,"정시(09:00~18:00, 평일만)",,37.495332,127.14081200000001,2018-02-20,,300168
4399,toilet/open,빠른병원 화장실,서울특별시 송파구 백제고분로 405,서울특별시 송파구 송파동 20-7,N,1,2,1,0,0,0,1,1,0,서울특별시 송파구청,02-2147-3281,"정시(09:00~18:00, 평일만)",,37.496936,127.148574,2018-02-20,,300169
4400,toilet/open,한솔병원 화장실,서울특별시 송파구 송파대로 445,서울특별시 송파구 석촌동 174-13,N,1,1,0,0,0,0,1,0,0,서울특별시 송파구청,02-2147-3281,"정시(09:00~18:00, 평일만)",,37.495509999999996,127.12175,2018-02-20,,300170
4401,toilet/open,힘찬병원 화장실,서울특별시 송파구 백제고분로 407,서울특별시 송파구 송파동 20-8,N,0,2,1,0,0,0,1,1,0,서울특별시 송파구청,,"정시(09:00~18:00, 평일만)",,37.50277,127.09253799999999,2018-02-20,,300171
4402,toilet/open,잠실중앙상가 화장실,서울특별시 송파구 올림픽로 203,서울특별시 송파구 잠실동 27-6,N,3,4,0,0,0,0,3,0,0,서울특별시 송파구청,,"정시(09:00~18:00, 평일만)",,37.503592,127.103652,2018-02-20,,300172
4403,toilet/open,올림픽프라자상가 화장실,서울특별시 송파구 양재대로 1222,서울특별시 송파구 방이동 89-11,N,2,3,0,0,0,0,3,0,0,서울특별시 송파구청,,"정시(09:00~18:00, 평일만)",,37.502334000000005,127.116708,2018-02-20,,300173
4404,toilet/open,장미상가 A 화장실,서울특별시 송파구 신천로 45,서울특별시 송파구 신천동 7,N,2,3,0,0,0,0,3,0,0,서울특별시 송파구청,,"정시(09:00~18:00, 평일만)",,37.506276,127.109292,2018-02-20,,300174
4405,toilet/open,장미상가 B 화장실,서울특별시 송파구 신천로 45,서울특별시 송파구 신천동 7,N,2,2,0,0,0,0,3,0,0,서울특별시 송파구청,,"정시(09:00~18:00, 평일만)",,37.502939000000005,127.12808400000002,2018-02-20,,300175
4406,toilet/open,잠실지하 상가 화장실,서울특별시 송파구 올림픽로 265,서울특별시 송파구 잠실동,N,6,6,1,0,1,0,18,1,0,서울특별시 송파구청,,"정시(09:00~18:00, 평일만)",,37.514590000000005,127.114434,2018-02-20,,300176
4407,toilet/open,갤러리아팰리스 화장실,서울특별시 송파구 올림픽로 212,서울특별시 송파구 잠실동 40,N,3,3,0,0,0,0,3,0,0,서울특별시 송파구청,,"정시(09:00~18:00, 평일만)",,37.510961,127.12395500000001,2018-02-20,,300177
4408,toilet/open,아시아선수촌B동상가 화장실,서울특별시 송파구 올림픽로4길 17,서울특별시 송파구 잠실동 85,N,4,6,0,0,0,0,4,0,0,서울특별시 송파구청,,"정시(09:00~18:00, 평일만)",,37.520162,127.112274,2018-02-20,,300178
4409,toilet/open,롯데마트 송파점 화장실,서울특별시 송파구 중대로 80,서울특별시 송파구 문정동 150-2,N,2,3,1,0,0,0,3,1,0,서울특별시 송파구청,,"정시(09:00~18:00, 평일만)",,37.513279,127.094223,2018-02-20,,300179
4410,toilet/open,삼성홈플러스 화장실,서울특별시 송파구 신천로6길 16,서울특별시 송파구 신천동 7-12,N,2,3,0,0,0,0,3,1,0,서울특별시 송파구청,,"정시(09:00~18:00, 평일만)",,37.514129,127.088424,2018-02-20,,300180
4411,toilet/open,롯데백화점 화장실,서울특별시 송파구 올림픽로 240,서울특별시 송파구 잠실동 40-1,N,0,0,0,0,0,0,3,0,0,서울특별시 송파구청,,"정시(09:00~18:00, 평일만)",,37.506146,127.084383,2018-02-20,,300181
4412,toilet/open,롯데마트 잠실점 화장실,서울특별시 송파구 올림픽로 240,서울특별시 송파구 잠실동 40-1,N,2,2,0,0,0,0,3,0,0,서울특별시 송파구청,,"정시(09:00~18:00, 평일만)",,37.487,127.13233500000001,2018-02-20,,300182
4413,toilet/open,롯데캐슬프라자 화장실,서울특별시 송파구 올림픽로 269,서울특별시 송파구 신천동 7-18,N,4,4,1,0,0,0,5,0,0,서울특별시 송파구청,,"정시(09:00~18:00, 평일만)",,37.489875,127.110781,2018-02-20,,300183
4414,toilet/open,가든파이브(툴) 화장실,서울특별시 송파구 충민로 10,서울특별시 송파구 문정동 628,N,5,5,1,0,0,0,6,0,0,서울특별시 송파구청,,"정시(09:00~18:00, 평일만)",,37.490097,127.124133,2018-02-20,,300184
4415,toilet/open,가든파이브(라이프) 화장실,서울특별시 송파구 충민로 66,서울특별시 송파구 문정동 634,N,2,2,1,0,0,0,4,1,0,서울특별시 송파구청,,"정시(09:00~18:00, 평일만)",,37.498713,127.12659099999999,2018-02-20,,300185
4416,toilet/open,서울주유소 화장실,서울특별시 송파구 문정로 153,서울특별시 송파구 가락동 180-4,N,1,1,0,0,0,0,1,0,0,서울특별시 송파구청,02-2147-2500,"정시(09:00~18:00, 평일만)",,37.495961,127.149872,2018-02-20,,300186
4417,toilet/open,제트라인디엠주유소 화장실,서울특별시 송파구 중대로 183,서울특별시 송파구 가락동 36-7,Y,2,1,0,0,0,0,0,0,0,서울특별시 송파구청,02-2147-2500,"정시(09:00~18:00, 평일만)",,37.496986,127.14325500000001,2018-02-20,,300187
4418,toilet/open,GS훼미리주유소 화장실,서울특별시 송파구 중대로 58,"서울특별시 송파구 문정동 150-21, 41",N,1,2,0,0,0,0,1,0,0,서울특별시 송파구청,02-2147-2500,"정시(09:00~18:00, 평일만)",,37.538075,127.12206499999999,2018-02-20,,300188
4419,toilet/open,트레져오일몽촌주유소 화장실,서울특별시 송파구 백제고분로 475,서울특별시 송파구 방이동 107-8,N,0,1,0,0,0,0,1,0,0,서울특별시 송파구청,02-2147-2500,"정시(09:00~18:00, 평일만)",,37.510334,127.101129,2018-02-20,,300189
4420,toilet/open,백제고분로주유소 화장실,서울특별시 송파구 오금로 143,서울특별시 송파구 방이동 109-6,N,2,1,0,0,0,0,2,0,0,서울특별시 송파구청,02-2147-2500,"정시(09:00~18:00, 평일만)",,37.500221999999994,127.160804,2018-02-20,,300190
4421,toilet/open,SK방이주유소 화장실,서울특별시 송파구 위례성대로12길 38,서울특별시 송파구 방이동 132-1,N,1,1,0,0,0,0,2,0,0,서울특별시 송파구청,02-2147-2500,상시,,37.510395,127.07229,2018-02-20,,300191
4422,toilet/open,SK정유(남성주유소) 화장실,서울특별시 송파구 백제고분로 474,서울특별시 송파구 방이동 149-3,N,1,2,0,0,0,0,1,0,0,서울특별시 송파구청,02-2147-2500,상시,,37.497569,127.151246,2018-02-20,,300192
4423,toilet/open,송파알찬주유소 화장실,서울특별시 송파구 백제고분로 229,서울특별시 송파구 삼전동 9-8,N,1,1,0,0,0,0,1,0,0,서울특별시 송파구청,02-2147-2500,"정시(09:00~18:00, 평일만)",,37.515823,127.132201,2018-02-20,,300193
4424,toilet/open,GS석촌주유소 화장실,서울특별시 송파구 백제고분로 289,서울특별시 송파구 석촌동 14-12,N,1,1,0,0,0,0,1,0,0,서울특별시 송파구청,02-2147-2500,"정시(09:00~18:00, 평일만)",,37.512494000000004,127.093382,2018-02-20,,300194
4425,toilet/open,인광주유소 화장실,서울특별시 송파구 송파대로 397,서울특별시 송파구 석촌동 295,N,1,2,0,0,0,0,1,0,0,서울특별시 송파구청,02-2147-2500,"정시(09:00~18:00, 평일만)",,37.50763,127.109816,2018-02-20,,300195
4426,toilet/open,잠실주유소(셀프) 화장실,서울특별시 송파구 송파대로 442,서울특별시 송파구 송파동 19-1,N,1,1,0,0,0,0,1,0,0,서울특별시 송파구청,02-2147-2500,"정시(09:00~18:00, 평일만)",,37.50608,127.10590400000001,2018-02-20,,300196
4427,toilet/open,유진주유소 화장실,서울특별시 송파구 동남로 325,서울특별시 송파구 오금동 121-1,N,2,1,0,0,0,0,2,0,0,서울특별시 송파구청,02-2147-2500,"정시(09:00~18:00, 평일만)",,37.507467,127.10966699999999,2018-02-20,,300197
4428,toilet/open,한진송파주유소 화장실,서울특별시 송파구 동남로 317,서울특별시 송파구 오금동 121-6,N,1,2,0,0,0,0,1,0,0,서울특별시 송파구청,02-2147-2500,"정시(09:00~18:00, 평일만)",,37.503917,127.124701,2018-02-20,,300198
4429,toilet/open,올림픽주유소(셀프) 화장실,서울특별시 송파구 위례성대로 188,서울특별시 송파구 오금동 4,N,1,1,0,0,0,0,2,0,0,서울특별시 송파구청,02-2147-2500,"정시(09:00~18:00, 평일만)",,37.502767999999996,127.097991,2018-02-20,,300199
4430,toilet/open,삼화주유소 화장실,서울특별시 송파구 백제고분로 125,서울특별시 송파구 잠실동 222-31,N,1,2,0,0,0,0,1,0,0,서울특별시 송파구청,02-2147-2500,"정시(09:00~18:00, 평일만)",,37.499076,127.11944799999999,2018-02-20,,300200
4431,toilet/open,완불주유소 화장실,서울특별시 송파구 송파대로 3,서울특별시 송파구 장지동 608-5,N,1,1,0,0,0,0,1,0,0,서울특별시 송파구청,02-2147-2500,"정시(09:00~18:00, 평일만)",,37.498954,127.117173,2018-02-20,,300201
4432,toilet/open,남성대주유소 화장실,서울특별시 송파구 송파대로 52,서울특별시 송파구 장지동 645-13,N,2,1,0,0,0,0,0,0,0,서울특별시 송파구청,02-2147-2500,"정시(09:00~18:00, 평일만)",,37.511283,127.097926,2018-02-20,,300202
4433,toilet/open,진양주유소 화장실,서울특별시 송파구 올림픽로 499,서울특별시 송파구 풍납동 401-6,N,1,1,0,0,0,0,1,0,0,서울특별시 송파구청,02-2147-2500,"정시(09:00~18:00, 평일만)",,37.512386,127.099356,2018-02-20,,300203
4434,toilet/open,우리주유소 화장실,서울특별시 송파구 동남로 153,"서울특별시 송파구 가락2동 137-9, 11",N,2,2,0,0,0,0,1,0,0,서울특별시 송파구청,02-2147-2500,"정시(09:00~18:00, 평일만)",,37.516252,127.103021,2018-02-20,,300204
4435,toilet/open,서원주유소 화장실,서울특별시 송파구 중대로 154,"서울특별시 송파구 가락2동 146-6, 7",N,1,1,0,0,0,0,2,0,0,서울특별시 송파구청,02-2147-2500,"정시(09:00~18:00, 평일만)",,37.491735,127.11773799999999,2018-02-20,,300205
4436,toilet/open,정직한주유소(셀프) 화장실,서울특별시 송파구 오금로 455,"서울특별시 송파구 거여1동 19-4, 5, 6, 7",N,2,2,0,0,0,0,1,0,0,서울특별시 송파구청,02-2147-2500,"정시(09:00~18:00, 평일만)",,37.511101000000004,127.09390400000001,2018-02-20,,300206
4437,toilet/open,송파주유소(셀프) 화장실,서울특별시 송파구 거마로 5,서울특별시 송파구 거여동 26-1,N,1,2,0,0,0,0,1,0,0,서울특별시 송파구청,02-2147-2500,"정시(09:00~18:00, 평일만)",,37.520051,127.10381000000001,2018-02-20,,300207
4438,toilet/open,대성주유소 화장실,서울특별시 송파구 마천로 230,서울특별시 송파구 마천2동 31,Y,1,2,0,0,0,0,0,0,0,서울특별시 송파구청,02-2147-2500,"정시(09:00~18:00, 평일만)",,37.517821999999995,127.10181899999999,2018-02-20,,300208
4439,toilet/open,상아주유소 화장실,서울특별시 송파구 거마로 82,서울특별시 송파구 마천2동 49-11,Y,1,2,0,0,0,0,0,0,0,서울특별시 송파구청,02-2147-2500,"정시(09:00~18:00, 평일만)",,37.517399,127.10071699999999,2018-02-20,,300209
4440,toilet/open,삼정주유소 화장실,서울특별시 송파구 백제고분로 252,"서울특별시 송파구 삼전동 72-2, 8",N,1,1,0,0,0,0,1,0,0,서울특별시 송파구청,02-2147-2500,"정시(09:00~18:00, 평일만)",,37.497627,127.124371,2018-02-20,,300210
4441,toilet/open,선우상사 삼전주유소 화장실,서울특별시 송파구 백제고분로 199,"서울특별시 송파구 삼전동 7-8, 13",N,1,1,0,0,0,0,1,0,0,서울특별시 송파구청,02-2147-2500,상시,,37.48956,127.110602,2018-02-20,,300211
4442,toilet/open,송파제일주유소(셀프) 화장실,서울특별시 송파구 삼학사로 50,"서울특별시 송파구 석촌동 210-16, 17, 18",N,1,1,0,0,0,0,1,0,0,서울특별시 송파구청,02-2147-2500,"정시(09:00~18:00, 평일만)",,37.503781,127.13035900000001,2018-02-20,,300212
4443,toilet/open,퍼스트주유소(셀프) 화장실,서울특별시 송파구 삼학사로 22,서울특별시 송파구 석촌동 217-17,N,1,1,0,0,0,0,1,0,0,서울특별시 송파구청,02-2147-2500,"정시(09:00~18:00, 평일만)",,37.500471000000005,127.13168600000002,2018-02-20,,300213
4444,toilet/open,㈜남경석유 화장실,서울특별시 송파구 동남로 298,"서울특별시 송파구 오금동 129-5, 6",N,1,1,0,0,0,0,1,0,0,서울특별시 송파구청,02-2147-2500,"정시(09:00~18:00, 평일만)",,37.508202000000004,127.132566,2018-02-20,,300214
4445,toilet/open,아시아주유소 화장실,서울특별시 송파구 도곡로 438,"서울특별시 송파구 잠실본동 305-11, 12",N,2,1,0,0,0,0,1,0,0,서울특별시 송파구청,02-2147-2500,"정시(09:00~18:00, 평일만)",,37.50519,127.131653,2018-02-20,,300215
4446,toilet/open,송파주유소 화장실,서울특별시 송파구 송이로 28,서울특별시 송파구 송파2동 174-16,N,1,1,0,0,0,0,1,0,0,서울특별시 송파구청,02-2147-2500,"정시(09:00~18:00, 평일만)",,37.489917999999996,127.14360400000001,2018-02-20,,300216
4447,toilet/open,SK엔크린 신화에너지 화장실,서울특별시 송파구 가락로 47,"서울특별시 송파구 석촌동 239-8, 13",N,1,2,0,0,0,0,1,0,0,서울특별시 송파구청,02-2147-2500,"정시(09:00~18:00, 평일만)",,37.485184000000004,127.128863,2018-02-20,,300217
4448,toilet/open,GS칼텍스 레이크시티주유소 화장실,서울특별시 송파구 삼학사로 70,"서울특별시 송파구 석촌동 14-2, 3",N,1,2,0,0,0,0,1,0,0,서울특별시 송파구청,02-2147-2500,"정시(09:00~18:00, 평일만)",,37.501658,127.14575400000001,2018-02-20,,300218
4449,toilet/open,마천시장 화장실,서울특별시 송파구 마천로45길 23,"서울특별시 송파구 마천동 140-2,3",N,2,2,0,0,0,0,3,1,0,서울특별시 송파구청,02-2147-2500,상시,,37.496836,127.141655,2018-02-20,,300219
4450,toilet/open,성내천 물놀이장 화장실 화장실,서울특별시 송파구 성내천로 103,서울특별시 송파구 오금동 135번지,N,3,1,0,0,0,0,2,1,0,서울특별시 송파구청,02-2147-3340,상시,,37.490303000000004,127.132223,2018-02-20,,300220
4451,toilet/open,"탄천,장지천 합류지점 화장실 화장실",서울특별시 송파구 문정동 419-13(장지천?탄천 합류지점),서울특별시 송파구 문정동 419-13(장지천?탄천 합류지점),N,1,2,0,0,0,0,2,0,0,서울특별시 송파구청,02-2147-3340,"정시(09:00~18:00, 평일만)",,37.503089,127.14238799999998,2018-02-20,,300221
4452,toilet/open,물빛광장 앞 화장실 화장실,서울특별시 송파구 동남로 303-7,서울특별시 송파구 오금동 128번지,N,1,1,0,0,0,0,3,0,1,서울특별시 송파구청,02-2147-3340,"정시(09:00~18:00, 평일만)",,37.498974,127.139151,2018-02-20,,300222
4453,toilet/open,방이동고분군화장실 화장실,서울특별시 송파구 오금로 219,서울특별시 송파구 방이동 125,N,4,8,0,0,0,0,6,0,0,서울특별시 송파구청,02-2147-2800,"정시(09:00~18:00, 평일만)",,37.493519,127.13093899999998,2018-02-20,,300223
4454,toilet/open,석촌동 고분군화장실 화장실,서울특별시 송파구 가락로7길 21,서울특별시 송파구 석촌동 248,N,3,3,0,0,0,0,3,0,0,서울특별시 송파구청,02-2147-2800,"정시(09:00~18:00, 평일만)",,37.49346,127.13006499999999,2018-02-20,,300224
4455,toilet/open,송파다목적구장화장실 화장실,서울특별시 송파구 동남로23가길 20-15,서울특별시 송파구 오금동 51 송파다목적 구장,N,3,2,0,0,0,0,6,0,0,서울특별시 송파구청,02-2147-2800,상시,,37.491797999999996,127.123935,2018-02-20,,300225
4456,toilet/open,송파구여성축구장 화장실,서울특별시 송파구 방이동 88-10,서울특별시 송파구 방이동 88-10,N,1,2,0,0,0,0,2,0,0,서울특별시 송파구청,02-2147-2800,"정시(09:00~18:00, 평일만)",,37.498197999999995,127.125335,2018-02-20,,300226
4457,toilet/open,체육문화회관화장실 화장실,서울특별시 송파구 양산로 15,서울특별시 송파구 거여동 289,N,1,2,1,0,0,0,2,1,0,서울특별시 송파구청,02-2147-2800,"정시(09:00~18:00, 평일만)",,37.506054,127.08456799999999,2018-02-20,,300227
4458,toilet/open,배드민턴체육관 화장실 화장실,서울특별시 송파구 문정로 176,서울특별시 송파구 거여동 산 21-1,N,2,3,0,0,0,0,3,0,0,서울특별시 송파구청,02-2147-2800,"정시(09:00~18:00, 평일만)",,37.478652000000004,127.12066000000002,2018-02-20,,300228
4459,toilet/open,송파어린이도서관 화장실,서울특별시 송파구 올림픽로 105,서울특별시 송파구 잠실동19-6,N,1,1,1,0,0,0,1,1,0,서울특별시 송파구청,02-2147-2360,상시,,37.485147,127.13463999999999,2018-02-20,,300229
4460,toilet/open,소나무언덕1호작은도서관 화장실,서울특별시 송파구 올림픽로47길 9,서울특별시 송파구 풍납동401-1,N,2,1,0,0,0,0,1,0,0,서울특별시 송파구청,02-2147-2360,상시,,37.500888,127.15880200000001,2018-02-20,,300230
4461,toilet/open,소나무언덕2호작은도서관 화장실,서울특별시 송파구 석촌호수로 155,서울특별시 송파구 잠실동 44-4,N,1,1,0,0,0,0,2,0,0,서울특별시 송파구청,02-2147-2360,상시,,37.538538,127.121894,2018-02-20,,300231
4462,toilet/open,거마도서관 정보센터 화장실,서울특별시 송파구 거마로2길 19,서울특별시 송파구 거여동 195-1,N,2,1,0,0,0,0,2,0,0,서울특별시 송파구청,02-2147-2360,상시,,37.506347,127.10998700000002,2018-02-20,,300232
4464,toilet/open,소나무언덕잠실본동작은도서관 화장실,서울특별시 송파구 잠실동 306,서울특별시 송파구 잠실동 306,N,2,2,1,0,0,0,2,1,0,서울특별시 송파구청,02-2147-2360,"정시(09:00~18:00, 평일만)",,37.532163,127.113295,2018-02-20,,300233
4465,toilet/open,송파어린이영어작은도서관 화장실,서울특별시 송파구 오금로2길 22,서울특별시 송파구 신천동 14,N,1,2,1,0,3,0,2,1,2,서울특별시 송파구청,02-2147-2360,"정시(09:00~18:00, 평일만)",,37.492335,127.156625,2018-02-20,,300234
4466,toilet/open,송파여성문화회관 화장실 화장실,서울특별시 송파구 백제고분로42길 5,서울특별시 송파구 송파동 113-2,N,2,2,0,0,0,0,3,0,0,서울특별시 송파구청,02-2147-2760,"정시(09:00~18:00, 평일만)",,37.489731,127.111309,2018-02-20,,300235
4467,toilet/small,비계(현충) 화장실,,서울특별시 동작구 동작동 산42-1,Y,1,1,0,0,0,0,1,0,0,서울특별시 동작구청,,상시,,37.5031984473,126.96769570299999,2018-02-19,,300236
4468,toilet/open,송파 어린이문화회관 화장실,서울특별시 송파구 중대로 235,서울특별시 송파구 오금동 50,N,2,2,0,0,1,0,2,0,7,서울특별시 송파구청,02-2147-2760,"정시(09:00~18:00, 평일만)",,37.499996,127.134841,2018-02-20,,300237
4469,toilet/open,마천종합사회복지관 화장실,서울특별시 송파구 마천로65길 4,서울특별시 송파구 마천동 323-197,N,1,2,0,0,0,0,0,0,0,서울특별시 송파구청,02-2147-2680,"정시(09:00~18:00, 평일만)",,37.519185,127.116092,2018-02-20,,300238
4470,toilet/open,가락종합사회복지관 화장실,서울특별시 송파구 송파대로 345,서울특별시 송파구 가락동 481-2,N,1,2,0,0,0,0,3,0,0,서울특별시 송파구청,02-2147-2680,"정시(09:00~18:00, 평일만)",,37.51894,127.115517,2018-02-20,,300239
4471,toilet/open,송파종합사회복지관 화장실,서울특별시 송파구 오금로51길 34,서울특별시 송파구 거여동 5-8,N,1,2,1,0,0,0,2,1,0,서울특별시 송파구청,02-2147-2680,"정시(09:00~18:00, 평일만)",,37.518034,127.116721,2018-02-20,,300240
4472,toilet/open,삼전종합사회복지관 화장실,서울특별시 송파구 백제고분로32길 37,서울특별시 송파구 삼전동 172,N,1,2,1,0,0,0,2,1,0,서울특별시 송파구청,02-2147-2680,"정시(09:00~18:00, 평일만)",,37.516559,127.12921000000001,2018-02-20,,300241
4473,toilet/open,풍납종합사회복지관 화장실,서울특별시 송파구 강동대로3길 5,서울특별시 송파구 풍납동 330-1,N,1,2,1,0,0,0,2,0,0,서울특별시 송파구청,02-2147-2680,"정시(09:00~18:00, 평일만)",,37.51693,127.11820900000001,2018-02-20,,300242
4474,toilet/open,잠실종합사회복지관 화장실,서울특별시 송파구 올림픽로12길 12,서울특별시 송파구 잠실동 188-1,N,1,2,0,0,0,0,1,0,0,서울특별시 송파구청,02-2147-2680,"정시(09:00~18:00, 평일만)",,37.516682,127.120994,2018-02-20,,300243
4475,toilet/open,솔바람복지센터 화장실,서울특별시 송파구 풍성로5길 16,서울특별시 송파구 풍납동 175,N,3,1,1,0,0,0,1,1,0,서울특별시 송파구청,02-2147-2680,"정시(09:00~18:00, 평일만)",,37.514996000000004,127.122224,2018-02-20,,300244
4476,toilet/open,방이복지관 화장실,서울특별시 송파구 오금로11길 68,서울특별시 송파구 방이동 52-2,N,0,0,1,0,0,0,0,1,0,서울특별시 송파구청,02-2147-2720,"정시(09:00~18:00, 평일만)",,37.521094,127.12101100000001,2018-02-20,,300245
4477,toilet/open,서울시각장애인복지관 화장실,서울특별시 송파구 삼학사로19길 27,서울특별시 송파구 삼전동 109,N,1,2,0,0,0,0,2,0,0,서울특별시 송파구청,02-2147-2720,"정시(09:00~18:00, 평일만)",,37.51477,127.12509399999999,2018-02-20,,300246
4478,toilet/open,인성장애인복지관 화장실,서울특별시 송파구 마천로61길 26,서울특별시 송파구 마천동 211-90,N,1,2,1,0,0,0,0,1,1,서울특별시 송파구청,02-2147-2720,"정시(09:00~18:00, 평일만)",,37.514047999999995,127.127531,2018-02-20,,300247
4479,toilet/open,서울곰두리체육센터(오금동 51번지) 화장실,서울특별시 송파구 동남로23가길 20-15,서울특별시 송파구 오금동 51,N,2,2,1,0,0,0,2,1,0,서울특별시 송파구청,02-2147-2720,"정시(09:00~18:00, 평일만)",,37.524418,127.12322900000001,2018-02-20,,300248
4480,toilet/open,송파구청 화장실,서울특별시 송파구 올림픽로 326,서울특별시 송파구 신천동 29-5,N,3,4,1,0,0,0,6,1,0,서울특별시 송파구청,02-2147-2120,"정시(09:00~18:00, 평일만)",,37.520208000000004,127.125752,2018-02-20,,300249
4481,toilet/open,보건소 화장실,서울특별시 송파구 올림픽로 326,서울특별시 송파구 신천동  29-5,N,1,2,1,0,0,0,2,0,0,서울특별시 송파구청,02-2147-3420,"정시(09:00~18:00, 평일만)",,37.51827,127.122876,2018-02-20,,300250
4482,toilet/open,송파구보건지소 화장실,서울특별시 송파구 양산로 5,서울특별시 송파구 거여동 289-5,N,2,2,0,0,0,0,2,1,0,서울특별시 송파구청,02-2147-3420,"정시(09:00~18:00, 평일만)",,37.515527,127.122188,2018-02-20,,300251
4483,toilet/open,송파구의회 화장실,서울특별시 송파구 백제고분로 242,서울특별시 송파구 삼전동 62-2,N,2,3,0,0,0,0,2,0,0,서울특별시 송파구청,02-2147-3600,"정시(09:00~18:00, 평일만)",,37.522386,127.116483,2018-02-20,,300252
4484,toilet/open,거송경로당 화장실 화장실,서울특별시 송파구 마천로46가길 12,서울특별시 송파구 거여동 205-47,N,4,3,1,0,0,0,7,1,0,서울특별시 송파구청,02-2147-2920,"정시(09:00~18:00, 평일만)",,37.51427,127.126347,2018-02-20,,300253
4485,toilet/open,풍납1동 주민센터 화장실,서울특별시 송파구 천호대로152길 7,서울특별시 송파구 풍납1동 476,N,2,2,2,0,0,0,2,0,0,서울특별시 송파구청,02-2147-2220,"정시(09:00~18:00, 평일만)",,37.517233000000004,127.120154,2018-02-20,,300254
4486,toilet/open,풍납2동 주민센터 화장실,서울특별시 송파구 토성로 64,서울특별시 송파구 풍납2동 403-11,N,2,1,0,0,0,0,2,0,0,서울특별시 송파구청,02-2147-2220,"정시(09:00~18:00, 평일만)",,37.514733,127.127567,2018-02-20,,300255
4487,toilet/open,거여1동주민센터 화장실,서울특별시 송파구 오금로53길 32,서울특별시 송파구 거여1동 136-16,N,3,4,1,0,0,0,5,0,0,서울특별시 송파구청,02-2147-2220,"정시(09:00~18:00, 평일만)",,37.516964,127.12333500000001,2018-02-20,,300256
4488,toilet/open,거여2동주민센터 화장실,서울특별시 송파구 오금로53길 3-5,서울특별시 송파구 거여2동 19-1,N,2,2,0,0,0,0,2,0,0,서울특별시 송파구청,02-2147-2220,"정시(09:00~18:00, 평일만)",,37.520986,127.126732,2018-02-20,,300257
4489,toilet/open,마천1동주민센터 화장실,서울특별시 송파구 마천로 303,서울특별시 송파구 마천1동 128-10,N,2,2,0,0,0,0,2,0,0,서울특별시 송파구청,02-2147-2220,"정시(09:00~18:00, 평일만)",,37.515465999999996,127.128468,2018-02-20,,300258
4490,toilet/open,마천2동주민센터 화장실,서울특별시 송파구 마천로 287,서울특별시 송파구 마천2동 127-1,N,2,2,0,0,0,0,2,1,0,서울특별시 송파구청,02-2147-2220,"정시(09:00~18:00, 평일만)",,37.499806,127.142478,2018-02-20,,300259
4491,toilet/open,방이1동주민센터 화장실,서울특별시 송파구 위례성대로16길 22,서울특별시 송파구 방이1동 200,N,3,7,1,0,0,0,4,1,0,서울특별시 송파구청,02-2147-2220,"정시(09:00~18:00, 평일만)",,37.47085,127.132053,2018-02-20,,300260
4492,toilet/open,방이2동주민센터 화장실,서울특별시 송파구 백제고분로 495,서울특별시 송파구 방이2동 52-3,N,2,3,0,0,0,0,2,0,0,서울특별시 송파구청,02-2147-2220,"정시(09:00~18:00, 평일만)",,37.480996000000005,127.13663600000001,2018-02-20,,300261
4493,toilet/open,오륜동주민센터 화장실,서울특별시 송파구 양재대로 1232,서울특별시 송파구 오륜동 89-10,N,2,1,1,0,0,0,2,1,0,서울특별시 송파구청,02-2147-2220,"정시(09:00~18:00, 평일만)",,37.514371999999995,127.088936,2018-02-20,,300262
4494,toilet/open,오금동주민센터 화장실,서울특별시 송파구 중대로25길 5,서울특별시 송파구 오금동 50-1,N,0,2,1,0,0,0,1,1,0,서울특별시 송파구청,02-2147-2220,"정시(09:00~18:00, 평일만)",,37.495584,127.12378999999999,2018-02-20,,300263
4495,toilet/open,제우빌딩 화장실,서울특별시 송파구 백제고분로 293,서울특별시 송파구 석촌동 15,N,1,2,0,0,0,0,1,0,0,서울특별시 송파구청,02-2147-3281,상시,,37.503106,127.099043,2018-02-20,,300264
4496,toilet/open,위너스빌딩 화장실,서울특별시 송파구 백제고분로 63,서울특별시 송파구 잠실동 175-2,N,2,2,0,0,0,0,2,0,0,서울특별시 송파구청,02-2147-3281,상시,,37.511301,127.07883999999999,2018-02-20,,300265
4497,toilet/open,인성정보빌딩 화장실,서울특별시 송파구 위례성대로22길 28,서울특별시 송파구 오금동 23,N,2,3,0,0,0,0,2,0,0,서울특별시 송파구청,02-2147-3281,정시(09:00~19:00),,37.50823,127.12989499999999,2018-02-20,,300266
4498,toilet/open,송파나루(카페고고스) 화장실 화장실,서울특별시 송파구 석촌호수로 197,서울특별시 송파구 잠실동 47,N,3,4,1,0,1,0,5,1,1,서울특별시 송파구청,02-2147-3380,"정시(09:00~18:00, 평일만)",,37.50031,127.1082,2018-02-20,,300267
4499,toilet/open,송파1동주민센터 화장실,서울특별시 송파구 백제고분로 392,서울특별시 송파구 송파동 113-1,N,1,1,1,0,0,0,3,1,0,서울특별시 송파구청,02-2147-2220,"정시(09:00~18:00, 평일만)",,37.515537,127.100894,2018-02-20,,300268
4500,toilet/open,송파2동주민센터 화장실,서울특별시 송파구 송이로 32,서울특별시 송파구 송파2동 173,N,2,0,0,0,0,0,2,0,0,서울특별시 송파구청,02-2147-2220,"정시(09:00~18:00, 평일만)",,37.513884000000004,127.106397,2018-02-20,,300269
4502,toilet/open,석촌동주민센터 화장실,서울특별시 송파구 백제고분로37길 16,서울특별시 송파구 석촌동 265,N,2,6,0,0,0,0,2,0,0,서울특별시 송파구청,02-2147-2220,"정시(09:00~18:00, 평일만)",,37.495931,127.12170800000001,2018-02-20,,300270
4503,toilet/open,삼전동주민센터 화장실,서울특별시 송파구 백제고분로 236,서울특별시 송파구 삼전동 62,N,2,2,1,0,0,0,2,0,0,서울특별시 송파구청,02-2147-2220,"정시(09:00~18:00, 평일만)",,37.502635,127.12784099999999,2018-02-20,,300271
4504,toilet/open,가락본동주민센터 화장실,서울특별시 송파구 송파대로28길 39,서울특별시 송파구 가락본동 77-3,N,3,2,2,0,0,0,2,0,0,서울특별시 송파구청,02-2147-2220,"정시(09:00~18:00, 평일만)",,37.493479,127.11148700000001,2018-02-20,,300272
4505,toilet/open,가락1동주민센터 화장실,서울특별시 송파구 송파대로37길 29,서울특별시 송파구 가락1동 479,N,2,1,0,0,0,0,2,0,0,서울특별시 송파구청,02-2147-2220,"정시(09:00~18:00, 평일만)",,37.516474,127.072985,2018-02-20,,300273
4506,toilet/open,가락2동주민센터 화장실,서울특별시 송파구 중대로20길 6,서울특별시 송파구 가락2동 154,N,2,2,1,0,0,0,2,0,0,서울특별시 송파구청,02-2147-2220,"정시(09:00~18:00, 평일만)",,37.507311,127.093828,2018-02-20,,300274
4507,toilet/open,문정1동주민센터 화장실,서울특별시 송파구 동남로 116,서울특별시 송파구 문정1동 29-21,N,1,2,1,0,0,0,2,0,0,서울특별시 송파구청,02-2147-2220,"정시(09:00~18:00, 평일만)",,37.519736,127.13654199999999,2018-02-20,,300275
4508,toilet/open,문정2동주민센터 화장실,서울특별시 송파구 중대로 16,서울특별시 송파구 문정2동 150-38,N,1,2,1,0,0,0,1,1,0,서울특별시 송파구청,02-2147-2220,"정시(09:00~18:00, 평일만)",,37.494166,127.151797,2018-02-20,,300276
4509,toilet/open,장지동주민센터 화장실,서울특별시 송파구 새말로19길 6,서울특별시 송파구 문정동 114-4,N,2,2,0,0,0,0,2,0,0,서울특별시 송파구청,02-2147-2220,"정시(09:00~18:00, 평일만)",,37.502708,127.09276100000001,2018-02-20,,300277
4511,toilet/open,잠실2동주민센터 화장실,서울특별시 송파구 잠실로 32,서울특별시 송파구 잠실2동 22,N,2,1,1,0,0,0,2,1,0,서울특별시 송파구청,02-2147-2220,"정시(09:00~18:00, 평일만)",,37.519203999999995,127.127499,2018-02-20,,300278
4512,toilet/open,잠실3동주민센터 화장실,서울특별시 송파구 잠실로 51-31,서울특별시 송파구 잠실3동 27-4,N,1,3,1,0,0,0,2,1,0,서울특별시 송파구청,02-2147-2220,"정시(09:00~18:00, 평일만)",,37.516789,127.12506100000002,2018-02-20,,300279
4513,toilet/open,잠실4동주민센터 화장실,서울특별시 송파구 올림픽로35길 16,서울특별시 송파구 잠실4동 20-5,N,1,1,1,0,0,0,2,1,0,서울특별시 송파구청,02-2147-2220,"정시(09:00~18:00, 평일만)",,37.517016999999996,127.12603200000001,2018-02-20,,300280
4514,toilet/open,잠실6동주민센터 화장실,서울특별시 송파구 올림픽로35길 120,서울특별시 송파구 잠실6동 7-6,N,3,2,1,0,0,0,2,0,0,서울특별시 송파구청,02-2147-2220,상시,,37.506786,127.098228,2018-02-20,,300281
4515,toilet/open,잠실7동주민센터 화장실,서울특별시 송파구 올림픽로4길 17,서울특별시 송파구 잠실7동 85-1,N,2,3,0,0,0,0,3,0,0,서울특별시 송파구청,02-2147-2220,상시,,37.508691,127.09774099999998,2018-02-20,,300282
4516,toilet/open,송파경찰서 화장실,서울특별시 송파구 중대로 221,서울특별시 송파구 가락동 9-6,N,2,5,1,0,0,0,2,1,0,송파경찰서,02-406-8113,상시,,37.512153999999995,127.107704,2018-02-20,,300283
4517,toilet/open,강동세무서 화장실,서울특별시 송파구 강동대로 62,서울특별시 송파구 풍납2동 388-6,N,2,4,1,0,0,0,2,1,0,강동세무서,,"정시(09:00~18:00, 평일만)",,37.500485999999995,127.14109199999999,2018-02-20,,300284
4518,toilet/open,송파세무서 화장실,서울특별시 송파구 강동대로 62,서울특별시 송파구 풍납2동 388-6,N,2,2,1,0,0,0,5,1,0,송파세무서,,상시,,37.498298999999996,127.150577,2018-02-20,,300285
4519,toilet/open,마천지구대 화장실,서울특별시 송파구 마천로41길 8,서울특별시 송파구 마천2동 127-8,Y,1,2,0,0,0,0,0,0,0,송파경찰서,02-406-8113,상시,,37.5035,127.09726699999999,2018-02-20,,300286
4520,toilet/open,방이지구대 화장실,서울특별시 송파구 양재대로71길 5-6,서울특별시 송파구 방이1동 204-8,N,1,3,0,0,0,0,1,0,0,송파경찰서,02-406-8113,상시,,37.499488,127.101729,2018-02-20,,300287
4521,toilet/open,잠실지구대 화장실,서울특별시 송파구 백제고분로15길 5,서울특별시 송파구 잠실본동 230-3,N,1,1,0,0,0,0,1,0,0,송파경찰서,02-406-8113,상시,,37.502534999999995,127.11634,2018-02-20,,300288
4522,toilet/open,가락지구대 화장실,서울특별시 송파구 양재대로64길 42,서울특별시 송파구 가락본동 37,Y,1,1,0,0,0,0,0,0,0,송파경찰서,02-406-8113,상시,,37.504594,127.077357,2018-02-20,,300289
4523,toilet/open,문정지구대 화장실,서울특별시 송파구 새말로15길 17-5,서울특별시 송파구 문정1동 92,Y,1,1,0,0,0,0,0,0,0,송파경찰서,02-406-8113,상시,,37.501877,127.13795900000001,2018-02-20,,300290
4524,toilet/open,삼전지구대 화장실,서울특별시 송파구 백제고분로 238,서울특별시 송파구 삼전동 62-3,N,4,5,0,0,0,0,3,0,0,송파경찰서,02-406-8113,상시,,37.506104,127.083624,2018-02-20,,300291
4525,toilet/open,새울빌딩 화장실,서울특별시 금천구 시흥대로 414,서울특별시 금천구 독산4동 287-7,N,2,3,0,0,0,0,3,0,0,서울특별시 금천구청,02-2627-1909,24시간,2018-06,37.4705467,126.88102920000001,2018-02-20,,300292
4526,toilet/open,올림픽공원-제1체육관(체조) 화장실,서울특별시 송파구 올림픽로 424,서울특별시 송파구 오륜동 88-2,N,47,63,2,0,0,0,82,2,4,국민체육진흥공단,,"정시(09:00~18:00, 평일만)",,37.512107,127.082406,2018-02-20,,300293
4527,toilet/open,올림픽공원-제2체육관(펜싱) 화장실,서울특별시 송파구 올림픽로 424,서울특별시 송파구 오륜동 88-2,N,34,47,10,0,0,0,57,7,1,국민체육진흥공단,,"정시(09:00~18:00, 평일만)",,37.493581,127.13823700000002,2018-02-20,,300294
4528,toilet/open,올림픽공원-제3체육관(역도) 화장실,서울특별시 송파구 올림픽로 424,서울특별시 송파구 오륜동 88-2,N,12,7,5,0,0,0,11,4,0,국민체육진흥공단,,"정시(09:00~18:00, 평일만)",,37.490682,127.142822,2018-02-20,,300295
4529,toilet/open,올림픽공원-경륜장(벨로드룸) 화장실,서울특별시 송파구 올림픽로 424,서울특별시 송파구 오륜동 88-2,N,54,94,10,0,0,0,44,3,0,국민체육진흥공단,,상시,,37.501925,127.10226599999999,2018-02-20,,300296
4530,toilet/open,올림픽공원-수영경기장 화장실,서울특별시 송파구 올림픽로 424,서울특별시 송파구 오륜동 88-2,N,43,55,2,0,0,0,42,2,0,국민체육진흥공단,,"정시(09:00~18:00, 평일만)",,37.50078,127.131782,2018-02-20,,300297
4531,toilet/open,올림픽공원-올림픽홀 화장실,서울특별시 송파구 올림픽로 424,서울특별시 송파구 오륜동 88-2,N,47,59,1,0,0,0,51,0,0,국민체육진흥공단,,"정시(09:00~18:00, 평일만)",,37.502534999999995,127.137391,2018-02-20,,300298
4532,toilet/open,올림픽공원-올림픽미술관 화장실,서울특별시 송파구 올림픽로 424,서울특별시 송파구 오륜동 88-2,N,9,13,0,0,0,0,14,0,0,국민체육진흥공단,,"정시(09:00~18:00, 평일만)",,37.478765,127.11699399999999,2018-02-20,,300299
4533,toilet/open,올림픽공원-컨벤션센터 화장실,서울특별시 송파구 올림픽로 424,서울특별시 송파구 오륜동 88-2,N,21,15,4,0,0,0,26,2,0,국민체육진흥공단,,상시,,37.501298,127.11888400000001,2018-02-20,,300300
4534,toilet/open,올림픽회관 화장실,서울특별시 송파구 올림픽로 424,서울특별시 송파구 오륜동 88-2,N,37,43,1,0,0,0,38,1,0,국민체육진흥공단,,"정시(09:00~18:00, 평일만)",,37.527248,127.11768799999999,2018-02-20,,300301
4535,toilet/open,선수촌올림픽스포츠센타 화장실,서울특별시 송파구 올림픽로 424,서울특별시 송파구 오륜동 88-2,N,5,6,0,0,0,0,6,0,0,국민체육진흥공단,,상시,,37.502331,127.12300400000001,2018-02-20,,300302
4536,toilet/open,올림픽공원-중앙공급실 화장실,서울특별시 송파구 올림픽로 424,서울특별시 송파구 오륜동 88-2,N,2,3,0,0,0,0,1,0,0,국민체육진흥공단,,"정시(09:00~18:00, 평일만)",,37.507264,127.09416100000001,2018-02-20,,300303
4537,toilet/open,올림픽공원-경륜장(옥외화장실) 화장실,서울특별시 송파구 올림픽로 424,서울특별시 송파구 오륜동 88-2,N,3,5,0,0,0,0,4,0,0,국민체육진흥공단,,"정시(09:00~18:00, 평일만)",,37.503099,127.07886200000002,2018-02-20,,300304
4538,toilet/open,올림픽공원-수영장(옥외화장실) 화장실,서울특별시 송파구 올림픽로 424,서울특별시 송파구 오륜동 88-2,N,5,3,0,0,0,0,4,0,0,국민체육진흥공단,,"정시(09:00~18:00, 평일만)",,37.49355,127.146817,2018-02-20,,300305
4539,toilet/open,올림픽공원-피크닉장(옥외화장실) 화장실,서울특별시 송파구 올림픽로 424,서울특별시 송파구 오륜동 88-2,N,5,3,0,0,0,0,4,0,0,국민체육진흥공단,,"정시(09:00~18:00, 평일만)",,37.502193,127.116799,2018-02-20,,300306
4540,toilet/open,올림픽공원-북2문 화장실,서울특별시 송파구 올림픽로 424,서울특별시 송파구 오륜동 88-2,N,5,3,0,0,0,0,4,0,0,국민체육진흥공단이사장,,"정시(09:00~18:00, 평일만)",,37.490909,127.158144,2018-02-20,,300307
4541,toilet/open,올림픽공원-에어돔(옥외화장실) 화장실,서울특별시 송파구 올림픽로 424,서울특별시 송파구 오륜동 88-2,N,5,3,0,0,0,0,4,0,0,국민체육진흥공단,,"정시(09:00~18:00, 평일만)",,37.529058,127.11038300000001,2018-02-20,,300308
4542,toilet/open,올림픽공원-P1주차장(옥외화장실) 화장실,서울특별시 송파구 올림픽로 424,서울특별시 송파구 오륜동 88-2,N,5,3,0,0,0,0,4,0,0,국민체육진흥공단,,"정시(09:00~18:00, 평일만)",,37.533822,127.12117099999999,2018-02-20,,300309
4548,toilet/open,영진빌딩 화장실,서울특별시 금천구 시흥대로 426,서울특별시 금천구 독산3동 159-23,N,2,2,0,0,0,0,2,0,0,서울특별시 금천구청,02-2627-1909,24시간,2018-06,37.4715436,126.88126559999999,2018-02-20,,300310
4549,toilet/open,남문시장 화장실,서울특별시 금천구 시흥대로144길 17,서울특별시 금천구 독산3동 984-10,N,2,3,1,0,0,1,5,1,0,서울특별시 금천구청,02-2627-1909,24시간,2018-07,37.4737591,126.8829029,2018-02-20,,300311
4550,toilet/open,삼주물산 화장실,서울특별시 금천구 시흥대로 492,서울특별시 금천구 독산3동 954,N,3,3,0,0,0,0,3,0,0,서울특별시 금천구청,02-2627-1909,24시간,2018-06,37.4776571,126.8817333,2018-02-20,,300312
4551,toilet/open,농협관악지점 화장실,서울특별시 금천구 남부순환로 1366,서울특별시 금천구 독산3동 951,N,1,2,0,0,0,0,2,0,0,서울특별시 금천구청,02-2627-1909,09:00~16:30,2018-06,37.4793528,126.88521670000002,2018-02-20,,300313
4552,toilet/open,미도빌딩 화장실,서울특별시 금천구 시흥대로 473,서울특별시 금천구 독산1동 145-15,Y,1,3,0,0,0,0,1,0,0,서울특별시 금천구청,02-2627-1909,24시간,2018-07,37.4759294,126.8805365,2018-02-20,,300314
4553,toilet/open,삼일빌딩 화장실,서울특별시 금천구 가산로 78,서울특별시 금천구 독산1동 148-17,N,3,3,0,0,0,0,3,0,0,서울특별시 금천구청,02-2627-1909,24시간,2018-07,37.4733373,126.87804550000001,2018-02-20,,300315
4554,toilet/open,효연빌딩 화장실,서울특별시 금천구 가산로 116,서울특별시 금천구 가산동 151-30,N,3,3,0,0,0,0,3,0,0,서울특별시 금천구청,02-2627-1909,24시간,2018-07,37.4761203,126.87561559999999,2018-02-20,,300316
4555,toilet/open,건국빌딩 화장실,서울특별시 금천구 시흥대로 421,서울특별시 금천구 독산1동 288-1,N,2,2,0,0,0,0,2,0,0,서울특별시 금천구청,02-2627-1909,24시간,2018-06,37.4711625,126.88011470000001,2018-02-20,,300317
4556,toilet/open,새한벤처월드 화장실,서울특별시 금천구 시흥대로 281,서울특별시 금천구 시흥1동 113-15,N,3,4,0,0,0,0,3,0,0,서울특별시 금천구청,02-2627-1909,24시간,2018-06,37.458539200000004,126.88063570000001,2018-02-20,,300318
4557,toilet/open,금천구청 화장실,서울특별시 금천구 시흥대로73길 70,서울특별시 금천구 시흥동 1020,N,4,4,1,0,0,0,8,1,0,서울특별시 금천구청,02-2627-1003,24시간,2018-07,37.4567829,126.88664569999999,2018-02-20,,300319
4558,toilet/open,가산동 주민센터 화장실,서울특별시 금천구 가산로 129,서울특별시 금천구 가산동 144-3,Y,2,3,1,0,0,0,2,0,0,서울특별시 금천구 가산동주민센터,02-2627-2501,09:00~18:00,,37.476868200000006,126.8830013,2018-02-20,,300320
4559,toilet/open,독산1동 주민센터 화장실,서울특별시 금천구 시흥대로123길 11,서울특별시 금천구 독산동 289-5,Y,3,3,1,0,0,0,3,0,0,서울특별시 금천구 독산1동 주민센터,02-2627-2503,09:00~18:00,,37.4701912,126.8882753,2018-02-20,,300321
4560,toilet/open,독산1동 분소 화장실,서울특별시 금천구 한내로 69-17,서울특별시 금천구 독산동 1088-3,Y,1,1,0,0,0,0,1,0,0,서울특별시 금천구 독산1동주민센터,02-2627-2503,09:00~18:00,,37.4579178,126.8790119,2018-02-20,,300322
4561,toilet/open,독산2동 주민센터 화장실,서울특별시 금천구 범안로 1240-7,서울특별시 금천구 독산동 1035-13,Y,1,1,1,0,0,0,1,0,0,서울특별시 금천구 독산2동주민센터,02-2627-2505,09:00~18:00,,37.4660933,126.8909841,2018-02-20,,300323
4562,toilet/open,독산3동 주민센터 화장실,서울특별시 금천구 독산로 317,서울특별시 금천구 독산동 973-17,N,1,3,1,0,0,0,3,1,0,서울특별시 금천구 독산3동주민센터,02-2627-2507,09:00~18:00,,37.475137,126.8944592,2018-02-20,,300324
4563,toilet/open,독산4동 주민센터 화장실,서울특별시 금천구 독산로 232,서울특별시 금천구 독산동 1022,N,1,2,1,0,0,0,2,1,0,서울특별시 금천구 독산4동주민센터,02-2627-2509,09:00~18:00,,37.4674311,126.8933803,2018-02-20,,300325
4564,toilet/open,시흥1동 주민센터 화장실,서울특별시 금천구 시흥대로58길 36,서울특별시 금천구 시흥동 886-6,N,1,2,0,0,0,0,2,1,0,서울특별시 금천구 시흥1동주민센터,02-2627-2513,09:00~18:00,,37.4535401,126.8944932,2018-02-20,,300326
4565,toilet/open,시흥2동 주민센터 화장실,서울특별시 금천구 금하로 764,서울특별시 금천구 시흥2동 267-9,Y,1,2,1,0,0,0,1,0,0,서울특별시 금천구 시흥2동주민센터,02-2627-2515,09:00~18:00,,37.4496493,126.90570829999999,2018-02-20,,300327
4566,toilet/open,시흥3동 주민센터 화장실,서울특별시 금천구 시흥대로18길 40,서울특별시 금천구 시흥동 956-3,N,1,1,0,0,0,0,1,0,0,서울특별시 금천구 시흥3동주민센터,02-2627-2517,09:00~18:00,,37.4402328,126.89704809999999,2018-02-20,,300328
4567,toilet/open,시흥4동 주민센터 화장실,서울특별시 금천구 독산로36길 14,서울특별시 금천구 시흥동 812-38,Y,3,2,1,0,0,0,3,0,0,서울특별시 금천구 시흥4동주민센터,02-2627-2519,09:00~18:00,,37.45896629999999,126.89741609999999,2018-02-20,,300329
4568,toilet/open,시흥5동 주민센터 화장실,서울특별시 금천구 금하로21길 20,서울특별시 금천구 시흥동 832-14,Y,1,4,1,0,0,0,2,0,0,서울특별시 금천구 시흥5동주민센터,02-2627-2521,09:00~18:00,,37.4523731,126.89954080000001,2018-02-20,,300330
4569,toilet/open,가산동 공영주차장 화장실,서울특별시 금천구 시흥대로153길 53,서울특별시 금천구 가산동 148-28,N,1,1,0,0,0,0,0,0,0,서울특별시 금천구 시설관리공단,02-809-0061,24시간,,37.4766434,126.8868057,2018-02-20,,300331
4570,toilet/open,가산정보 도서관 화장실,서울특별시 금천구 가산로5길 43,서울특별시 금천구 가산동 235-3,N,1,1,0,0,0,0,1,0,1,서울특별시 금천구 시설관리공단,02-865-6817,07:00~22:00,,37.4734666,126.8833726,2018-02-20,,300332
4571,toilet/open,독산1동 공영주차장 화장실,서울특별시 금천구 범안로12가길 65,서울특별시 금천구 독산동 1006-94,Y,1,0,0,0,0,0,0,0,0,서울특별시 금천구 시설관리공단,02-809-0061,24시간,,37.4649091,126.8860344,2018-02-20,,300333
4572,toilet/open,독산2동 공영주차장 화장실,서울특별시 금천구 시흥대로98길 36,서울특별시 금천구 독산동 1050-17,Y,1,0,0,0,0,0,0,0,0,서울특별시 금천구 시설관리공단,02-809-0061,24시간,,37.4638407,126.8912794,2018-02-20,,300334
4573,toilet/open,독산3동 공영주차장 화장실,서울특별시 금천구 남부순환로 126가길 5,서울특별시 금천구 독산동 898-28,N,1,1,0,0,0,0,1,0,0,서울특별시 금천구 시설관리공단,02-809-0061,24시간,,37.479282,126.8975982,2018-02-20,,300335
4574,toilet/open,구룡공영주차장 화장실,서울특별시 금천구 독산로107길 13,서울특별시 금천구 독산동 964,Y,1,1,0,0,0,0,0,0,0,서울특별시 금천구 시설관리공단,02-809-0061,24시간,,37.4778527,126.8939706,2018-02-20,,300336
4575,toilet/open,금천구민문화체육센터 화장실,서울특별시 금천구 독산로54길 188,서울특별시 금천구 독산동 371-2,Y,2,2,1,0,0,0,3,0,0,서울특별시 금천구 시설관리공단,02-861-1313,06:00~22:00,,37.4702421,126.89830990000002,2018-02-20,,300337
4576,toilet/open,금천구립도서관 화장실,서울특별시 금천구 독산로54길 114,서울특별시 금천구 독산동 375-2,Y,2,2,1,0,0,0,2,0,0,서울특별시 금천구 시설관리공단,02-2627-2453,07:00~22:00,,37.467464299999996,126.89929540000001,2018-02-20,,300338
4577,toilet/open,금빛공원 휘트니스센터 화장실,서울특별시 금천구 금화로 668,서울특별시 금천구 시흥동 893,N,3,3,1,0,0,0,4,1,0,서울특별시 금천구 시설관리공단,02-802-9685,06:00~22:00,,37.452602899999995,126.89554550000001,2018-02-20,,300339
4578,toilet/open,서울시립금천청소년수련관 화장실,서울특별시 금천구 금화로30길 54,서울특별시 금천구 시흥동 산84-7,N,1,3,1,1,0,0,3,1,0,서울특별시청,02-803-1318,06:00~22:00,,37.4483861,126.90678999999999,2018-02-20,,300340
4579,toilet/open,시흥3동공영주차장 화장실,서울특별시 금천구 시흥대로28길 35-11,서울특별시 금천구 시흥동 942-5,Y,1,1,0,0,0,0,0,0,0,서울특별시 금천구 시설관리공단,02-809-0061,24시간,,37.4429674,126.89713710000001,2018-02-20,,300341
4580,toilet/open,금천구 시설관리공단 화장실,서울특별시 금천구 시흥대로37길 18,서울특별시 금천구 시흥동 985-26,N,1,2,0,0,0,0,2,0,0,서울특별시 금천구 시설관리공단,02-809-3217,09:00~18:00,,37.4457296,126.89388170000001,2018-02-20,,300342
4581,toilet/open,시흥계곡 화장실,서울특별시 금천구 시흥5동 산73-1,서울특별시 금천구 시흥5동 산73-1,N,2,3,0,0,0,0,3,0,0,서울특별시 금천구청,02-2627-1909,24시간,2018-06,37.4483015,126.9039545,2018-02-20,,300343
4582,toilet/open,효봉공영주차장 화장실,서울특별시 금천구 독산로50길 116,서울특별시 금천구 시흥동 3-145,Y,1,1,0,0,0,0,0,0,0,서울특별시 금천구 시설관리공단,02-809-0061,24시간,,37.4621029,126.90181609999999,2018-02-20,,300344
4583,toilet/open,삼성공영주차장 화장실,서울특별시 금천구 시흥4동 171-4,서울특별시 금천구 시흥동 171-4,N,1,1,0,0,0,0,1,0,0,서울특별시 금천구 시설관리공단,02-809-0061,24시간,,37.4547684,126.9004453,2018-02-20,,300345
4584,toilet/open,시흥4동 공영주차장 화장실,서울특별시 금천구 독산로36나길 21,서울특별시 금천구 시흥동 704-56,N,1,3,0,1,0,0,3,1,0,서울특별시 금천구 시설관리공단,02-809-0061,24시간,,37.459702899999996,126.9002888,2018-02-20,,300346
4585,toilet/open,1호선 금천구청역 화장실,서울특별시 금천구 시흥대로63길 91,서울특별시 금천구 시흥동 113-55,N,3,3,0,1,0,0,4,1,0,한국철도공사,1544-7788,24시간,,37.4558127,126.8856088,2018-02-20,,300347
4586,toilet/open,1호선 독산역 화장실,서울특별시 금천구 벚꽃로 115,서울특별시 금천구 가산동 717,N,4,5,0,1,0,0,9,1,0,한국철도공사,1544-7788,24시간,,37.465657,126.88103829999999,2018-02-20,,300348
4587,toilet/open,1호선 가산디지털단지역 화장실,서울특별시 금천구 벚꽃로 309,서울특별시 금천구 가산동 468-4,N,2,4,0,1,0,0,6,1,0,한국철도공사,02-2639-3332,24시간,,37.48227070000001,126.8734284,2018-02-20,,300349
4589,toilet/open,가산우체국 화장실,서울특별시 금천구 남부순환로 1288,서울특별시 금천구 가산동 146-61,Y,1,1,0,0,0,0,0,0,0,서울지방우정청,02-864-7143,09:00~18:00,,37.478413700000004,126.88504409999999,2018-02-20,,300350
4590,toilet/open,구로세관 화장실,서울특별시 금천구 가산디지털1로 67,서울특별시 금천구 가산동 319-25,Y,2,2,1,0,0,0,2,0,0,관세청,02-2107-2500,09:00~18:00,,37.471919299999996,126.8758764,2018-02-20,,300351
4591,toilet/open,가산문화센터 화장실,서울특별시 금천구 가산디지털1로 118,서울특별시 금천구 가산동 345-58,N,3,3,0,0,0,0,3,0,0,서울특별시청,02-868-5208,09:00~21:00,,37.4761293,126.874958,2018-02-20,,300352
4592,toilet/open,금천세무서 화장실,서울특별시 금천구 시흥대로152길 11-21,서울특별시 금천구 독산동 953-9,N,2,3,1,0,0,0,2,1,0,국세청,02-850-4200,09:00~18:00,,37.4779901,126.8910166,2018-02-20,,300353
4593,toilet/open,금천우체국 화장실,서울특별시 금천구 시흥대로10,서울특별시 금천구 시흥동 967-1,N,2,3,0,0,0,0,2,0,0,서울지방우정청,02-861-4403,06:00~21:00,,37.4350456,126.8947281,2018-02-20,,300354
4594,toilet/open,서울시흥동우체국 화장실,서울특별시 금천구 시흥대로217,서울특별시 금천구 시흥동 993-2,N,1,2,1,0,0,0,1,1,0,서울지방우정청,02-803-0004,06:00~21:00,,37.453162899999995,126.8919138,2018-02-20,,300355
4595,toilet/open,금천노인종합복지관 화장실,서울특별시 금천구 시흥대로51길 93-32,서울특별시 금천구 시흥동 558-1,Y,2,3,1,0,0,0,3,0,0,서울특별시청,02-804-4058,09:00~18:00,,37.450179999999996,126.88905179999999,2018-02-20,,300356
4596,toilet/open,kt 금천전화국 화장실,서울특별시 금천구 시흥대로 139,서울특별시 금천구 시흥동 985-14,Y,2,2,1,0,0,0,2,0,0,한국전기통신공사,080-258-1035,09:00~18:00,,37.446391799999994,126.8942675,2018-02-20,,300357
4597,toilet/open,남부여성발전센터 화장실,서울특별시 금천구 독산로50길 23,서울특별시 금천구 시흥동 산139-2,Y,1,3,1,0,0,0,3,0,0,서울특별시청,02-802-0922,09:00~22:00,,37.463094500000004,126.89717959999999,2018-02-20,,300358
4598,toilet/open,성부주유소 화장실,서울특별시 금천구 남부순환로 1272,서울특별시 금천구 가산동 142-13,N,1,1,0,0,0,0,1,0,0,서울특별시 금천구청,02-2627-1532,24시간,1976-05,37.478553000000005,126.89215,2018-02-20,,300359
4599,toilet/open,동남주유소 화장실,서울특별시 금천구 범안로 1155,서울특별시 금천구 독산1동 1001-5,N,1,1,0,0,0,0,1,0,0,서울특별시 금천구청,02-2627-1532,06:00~23:00,1989-09,37.466766,126.88966299999998,2018-02-20,,300360
4600,toilet/open,㈜태영유업 화장실,서울특별시 금천구 시흥대로 484,서울특별시 금천구 독산3동 967,Y,1,1,0,0,0,0,1,0,0,서울특별시 금천구청,02-2627-1532,24시간,1976-04,37.476799,126.89911000000001,2018-02-20,,300361
4601,toilet/open,KH에너지㈜직영 시흥대로 주유소 화장실,서울특별시 금천구 시흥대로 221,서울특별시 금천구 시흥1동 993,N,1,2,0,0,0,0,1,0,0,서울특별시 금천구청,02-2627-1532,24시간,1976-05,37.453441999999995,126.900618,2018-02-20,,300362
4602,toilet/open,SK네트웍스㈜ 박미주유소 화장실,서울특별시 금천구 시흥대로 39-7,서울특별시 금천구 시흥3동 980,N,1,2,0,0,0,0,1,0,0,서울특별시 금천구청,02-2627-1532,24시간,1974-01,37.43725,126.90264599999999,2018-02-20,,300363
4603,toilet/open,일신주유소 화장실,서울특별시 금천구 시흥대로 118,서울특별시 금천구 시흥3동 939-4,N,1,1,0,0,0,0,1,0,0,서울특별시 금천구청,02-2627-1532,06:00~24:00,1976-05,37.444398,126.90424399999999,2018-02-20,,300364
4604,toilet/open,SK네트웍스㈜ 순환도로주유소 화장실,서울특별시 금천구 남부순환로 1410,서울특별시 금천구 독산3동 900-4,N,1,1,0,0,0,0,2,0,0,서울특별시 금천구청,02-2627-1532,07:00~23:00,1992-04,37.480247,126.90736299999999,2018-02-20,,300365
4605,toilet/open,백운주유소 화장실,서울특별시 금천구 시흥대로 282,서울특별시 금천구 독산2동 1077-3,N,1,1,0,0,0,0,1,0,0,서울특별시 금천구청,02-2627-1532,05:00~24:00,1992-06,37.45884,126.89941999999999,2018-02-20,,300366
4606,toilet/open,백산주유소 화장실,서울특별시 금천구 시흥대로 174,서울특별시 금천구 시흥1동 904,N,1,2,0,0,0,0,1,0,0,서울특별시 금천구청,02-2627-1532,06:00~23:00,1993-04,37.449557,126.903021,2018-02-20,,300367
4607,toilet/open,금천주유소 화장실,서울특별시 금천구 독산로 77,서울특별시 금천구 시흥1동 841-16,N,1,2,0,0,0,0,1,0,0,서울특별시 금천구청,02-2627-1532,05:00~23:00,1993-10,37.454265,126.905801,2018-02-20,,300368
4608,toilet/open,주식회사 명보에너지 화장실,서울특별시 금천구 시흥대로 377,"서울특별시 금천구 독산1동 292-7,12,29,39",N,2,1,0,0,0,0,2,0,0,서울특별시 금천구청,02-2627-1532,24시간,1994-03,37.467188,126.897154,2018-02-20,,300369
4609,toilet/open,SK네트웍스㈜ 이가주유소 화장실,서울특별시 금천구 시흥대로 441,서울특별시 금천구 독산1동 150-6,N,2,2,0,0,0,0,1,0,0,서울특별시 금천구청,02-2627-1532,24시간,1994-03,37.472947,126.8979,2018-02-20,,300370
4610,toilet/open,동광석유㈜ 구광주유소 화장실,서울특별시 금천구 서부샛길 674,서울특별시 금천구 가산동 535-155,Y,1,2,0,0,0,0,0,0,0,서울특별시 금천구청,02-2627-1532,05:00~10:30,1986-07,37.481897,126.875184,2018-02-20,,300371
4611,toilet/open,경복에너지 화장실,서울특별시 금천구 독산로 147,서울특별시 금천구 시흥1동 860-36,N,2,2,0,0,0,0,2,0,0,서울특별시 금천구청,02-2627-1532,05:00~23:00,1996-07,37.4605,126.904623,2018-02-20,,300372
4612,toilet/open,대득에너지(금천셀프주유소) 화장실,서울특별시 금천구 시흥대로 81,서울특별시 금천구 시흥3동983-1외 2필지,N,1,1,0,0,0,0,2,0,0,서울특별시 금천구청,02-2627-1532,24시간,2018-02,37.441471,126.903104,2018-02-20,,300373
4613,toilet/open,중앙에너비스㈜ 삼중가스지점 화장실,서울특별시 금천구 시흥대로 314,서울특별시 금천구 독산2동 1059,N,2,2,0,0,0,0,1,0,0,서울특별시 금천구청,02-2627-1532,24시간,1982-03,37.461709,126.898375,2018-02-20,,300374
4617,toilet/open,은행공원화장실 화장실,서울특별시 금천구 시흥5동 836,서울특별시 금천구 시흥동 836,N,1,3,0,0,0,0,2,0,0,서울특별시 금천구청,02-2627-1655,24시간,1979-05,37.452028000000006,126.907117,2018-02-20,,300375
4626,toilet/open,다목적광장화장실 화장실,서울특별시 금천구 시흥대로 150길 56,서울특별시 금천구 독산동 971,N,2,2,0,0,0,0,2,0,0,서울특별시 금천구청,02-2627-1655,09:00~18:00,2018-11,37.476376,126.901872,2018-02-20,,300376
4627,toilet/open,금천체육공원화장실 화장실,서울특별시 금천구 독산로54길 102-98,서울특별시 금천구 독산동 산198-3,N,3,3,1,0,0,0,8,1,0,서울특별시 금천구청,02-2627-1655,24시간,2018-02,37.467762,126.90966,2018-02-20,,300377
4628,toilet/open,금천체육공원1화장실 화장실,서울특별시 금천구 산118-4,서울특별시 금천구 독산동 374,N,1,3,0,0,0,0,2,0,0,서울특별시 금천구청,02-2627-1655,24시간,2018-06,37.467569,126.90901299999999,2018-02-20,,300378
4629,toilet/open,호압사화장실 화장실,서울특별시 금천구 호암로 278,서울특별시 금천구 시흥동 234,N,2,3,1,0,0,0,2,1,0,서울특별시 금천구청,02-2627-1655,24시간,2018-10,37.452329999999996,126.92528899999999,2018-02-20,,300379
4630,toilet/open,산기슭공원화장실 화장실,서울특별시 금천구 독산로54길 6,서울특별시 금천구 시흥동 산138-3,N,2,4,1,0,0,0,6,1,0,서울특별시 금천구청,02-2627-1655,24시간,1998-10,37.463615999999995,126.907404,2018-02-20,,300380
4631,toilet/open,대명시장 화장실,서울특별시 금천구 금하로646-5,서울특별시 금천구 시흥1동 885-2,N,2,3,0,0,0,0,3,0,0,서울특별시 금천구청,02-2627-1303,24시간,,37.4540506,126.88483259999998,2018-02-20,,300381
4632,toilet/open,현대시장 화장실,서울특별시 금천구 독산로27길 52,서울특별시 금천구 시흥1동 848-31,N,0,1,1,0,0,0,0,1,0,서울특별시 금천구청,02-2627-1303,24시간,2018-07,37.4577242,126.8872758,2018-02-20,,300382
4633,toilet/open,금빛공원 화장실,서울특별시 금천구 금하로 668,서울특별시 금천구 시흥1동 893-1,N,1,2,1,0,0,0,2,1,0,서울특별시 금천구청,02-2627-1909,24시간,2018-06,37.452710499999995,126.88704820000001,2018-02-20,,300383
4636,toilet/open,금조빌딩 화장실,서울특별시 금천구 시흥대로153길 99,서울특별시 금천구 가산동 150-2,N,1,1,0,0,0,0,1,0,0,서울특별시 금천구청,02-2627-1909,24시간,2018-06,37.4557794,126.8821975,2018-02-20,,300384
4637,toilet/open,고려테크온 화장실,서울특별시 금천구 범안로 1138,서울특별시 금천구 가산동 715,N,27,27,7,0,0,0,14,7,0,서울특별시 금천구청,02-2627-1909,24시간,2018-07,37.465779600000005,126.87086770000002,2018-02-20,,300385
4638,toilet/open,재능유통 화장실,서울특별시 금천구 가산디지털1로 186,서울특별시 금천구 가산동 459-11,Y,2,3,0,0,0,0,4,0,0,서울특별시 금천구청,02-2627-1909,24시간,2018-06,37.4817722,126.86427990000001,2018-02-20,,300386
4639,toilet/open,시흥빌딩 화장실,서울특별시 금천구 시흥대로 155,서울특별시 금천구 시흥1동 986-4,N,3,3,0,0,0,0,3,0,0,서울특별시 금천구청,02-2627-1909,24시간,2018-06,37.447970700000006,126.885065,2018-02-20,,300387
4640,toilet/open,석수상가 화장실,서울특별시 금천구 삼성산길 3,서울특별시 금천구 시흥3동 979-3,N,2,2,0,0,0,0,2,0,0,서울특별시 금천구청,02-2627-1909,24시간,2018-07,37.4342741,126.88635990000002,2018-02-20,,300388
4641,toilet/open,일오삼플레이스 화장실,서울특별시 금천구 시흥대로 164,서울특별시 금천구 시흥1동 904-22,N,2,3,1,0,0,0,2,1,0,서울특별시 금천구청,02-2627-1909,24시간,2018-07,37.4488924,126.8857364,2018-02-20,,300389
4642,toilet/open,대명여울빛시장 화장실,서울특별시 금천구 시흥1동 886-16,서울특별시 금천구 시흥1동 886-16,N,1,2,0,0,0,0,2,0,0,서울특별시 금천구청,02-2627-1909,24시간,2018-07,37.4532836,126.88540549999999,2018-02-20,,300390
4643,toilet/open,농협금천지점 화장실,서울특별시 금천구 탑골로 2,서울특별시 금천구 시흥5동 251-3,N,1,2,0,0,0,0,2,0,0,서울특별시 금천구청,02-2627-1909,09:00~16:30,2018-06,37.4507752,126.8927173,2018-02-20,,300391
4644,toilet/open,농협독산지점 화장실,서울특별시 금천구 시흥대로 336,서울특별시 금천구 독산2동 1054-28,N,1,1,0,0,0,0,1,0,0,서울특별시 금천구청,02-2627-1909,09:00~16:30,2018-06,37.463599200000004,126.8803207,2018-02-20,,300392
4645,toilet/open,벧엘감리교회 화장실,서울특별시 금천구 독산로 228,서울특별시 금천구 독산4동 1022-83,N,1,2,0,0,0,0,3,0,0,서울특별시 금천구청,02-2627-1909,24시간,2018-06,37.46701470000001,126.8845413,2018-02-20,,300393
4897,toilet/small,정금(현충) 화장실,,서울특별시 동작구 동작동 산10-2,N,1,1,0,0,0,0,1,0,0,서울특별시 동작구청,,상시,,37.494990499400004,126.976207533,2018-02-19,,300394
4924,toilet/small,달마사입구(현충) 화장실,,서울특별시 동작구 흑석동 256-84,N,1,1,0,0,0,0,1,0,0,서울특별시 동작구청,,상시,,37.4987278175,126.96216990200001,2018-02-19,,300395
4925,toilet/small,까치산 화장실,,서울특별시 동작구 사당동 산44-23,N,1,0,0,0,0,0,1,0,0,서울특별시 동작구청,,상시,,37.479400942699996,126.96734416299999,2018-02-19,,300396
4926,toilet/small,장승배드민턴장(상도) 화장실,,서울특별시 동작구 상도동 산65-221,N,1,1,0,0,0,0,1,0,0,서울특별시 동작구청,,상시,,37.494030853299996,126.942111771,2018-02-19,,300397
4927,toilet/small,초소앞(상도) 화장실,,서울특별시 동작구 상도동 산65-235,N,1,1,0,0,0,0,2,0,0,서울특별시 동작구청,,상시,,37.492402334,126.943144301,2018-02-19,,300398
4928,toilet/open,공원관리사무소 (대방공원) 화장실,,서울특별시 동작구 대방동 23-176,N,3,4,1,0,0,0,5,1,0,서울특별시 동작구청,,상시,,37.5102271087,126.928540235,2018-02-19,,300399
4929,toilet/open,대방배수지 주차장(대방공원) 화장실,,서울특별시 동작구 대방동 23-189,N,2,4,1,0,0,0,6,1,0,서울특별시 동작구청,,상시,,37.5084387381,126.927266145,2018-02-19,,300400
4930,toilet/open,고구동산 화장실,,서울특별시 동작구 본동 126-450,N,1,2,1,0,0,0,4,1,0,서울특별시 동작구청,,상시,,37.5082901473,126.95439722399999,2018-02-19,,300401
4931,toilet/open,송학대 화장실,,서울특별시 동작구 노량진동 325-2,N,1,1,0,0,0,0,2,0,0,서울특별시 동작구청,,상시 (동절기 제외),,37.5087216441,126.943751729,2018-02-19,,300402
4932,toilet/open,벽천(성남고후문) 화장실,,서울특별시 동작구 대방동 350-2,N,1,1,0,0,0,0,2,0,0,서울특별시 동작구청,,상시 (동절기 제외),,37.5068310672,126.926815305,2018-02-19,,300403
4934,toilet/open,삼일공원(경로당) 화장실,,서울특별시 동작구 사당동 산24-17,N,2,3,1,0,0,0,2,1,0,서울특별시 동작구청,,상시,,37.485861143499996,126.97454154100001,2018-02-19,,300404
4935,toilet/open,노들나루 화장실,,서울특별시 동작구 본동 258-1,N,2,3,1,0,0,0,3,1,0,서울특별시 동작구청,,상시 (동절기 제외),,37.5137210973,126.953615721,2018-02-19,,300405
4936,toilet/open,도화 화장실,,서울특별시 동작구 상도4동 244-183,N,1,2,0,0,0,0,2,1,0,서울특별시 동작구청,,상시,,37.4997830544,126.93549387,2018-02-19,,300406
4938,toilet/small,달마(현충) 화장실,,서울특별시 동작구 흑석동 산59-2,N,1,1,0,0,0,0,1,0,0,서울특별시 동작구청,,상시,,37.4983341405,126.95963695,2018-02-19,,300407
7553,toilet/open,이태원1 화장실,서울특별시 용산구 녹사평대로40길 56,서울특별시 용산구 이태원동 34-114,N,2,2,1,0,0,0,5,0,1,용산구청,02-2199-7322,24시간,1989.01,37.534454,126.98883400000001,2018-01-11,,300408
7554,toilet/open,이태원2 화장실,서울특별시 용산구 소월로38가길 8,서울특별시 용산구 이태원동 261-5,N,2,2,0,0,0,0,3,0,0,용산구청,02-2199-7322,24시간,1981.01,37.543063000000004,126.99014299999999,2018-01-11,,300409
7555,toilet/open,이태원3 화장실,서울특별시 용산구 이태원로 164-1,서울특별시 용산구 이태원동 72-47,N,2,2,0,0,0,0,2,0,0,용산구청,02-2199-7322,24시간,2000.01,37.534169,126.99237099999999,2018-01-11,,300410
7556,toilet/open,후암4 화장실,서울특별시 용산구 한강대로 104길 77,서울특별시 용산구 후암동 103-9,N,2,3,0,0,0,0,3,0,0,용산구청,02-2199-7322,24시간,1981.01,37.550428000000004,126.97621200000002,2018-01-11,,300411
7557,toilet/open,모자원 화장실,서울특별시 용산구 신흥로26길 21-2,서울특별시 용산구 용산동2가 1-1883,N,1,1,0,0,0,0,1,0,0,용산구청,02-2199-7322,24시간,2012.01,37.545499,126.98400600000001,2018-01-11,,300412
7558,toilet/open,이촌로 화장실,서울특별시 용산구 이촌로 121-1,서울특별시 용산구 한강로3가 40-900,N,3,3,0,0,0,0,2,0,0,용산구청,02-2199-7322,24시간,1985.01,37.523158,126.961087,2018-01-11,,300413
7559,toilet/open,철길담장 옆 화장실,,서울특별시 용산구 한강로2가 2-341,N,1,1,0,0,0,0,1,0,0,용산구청,02-2199-7322,24시간,2003.01,37.531684999999996,126.968651,2018-01-11,,300414
7813,toilet/open,삼융주유소 화장실,서울특별시 은평구 수색로 299,서울특별시 은평구 수색동 379-8,N,1,1,0,0,0,0,1,0,0,삼융주유소,02-307-3314,연중무휴,,37.583929,126.8911308,2018-01-03,,300415
7863,toilet/open,에이스빌딩 화장실,서울특별시 강서구 공항대로 325,서울특별시 강서구 등촌3동 668-10,N,2,2,0,0,0,0,3,0,0,서울특별시 강서구청,02-2600-4073,09:00~18:00,,37.5582986258,126.843900879,2018-01-08,,300416
7864,toilet/open,화인빌딩 화장실,서울특별시 강서구 공항대로 287,서울특별시 강서구 등촌3동 673-5,N,2,2,0,0,0,0,3,0,0,서울특별시 강서구청,02-2600-4073,09:00~18:00,,37.5589813559,126.839698265,2018-01-08,,300417
7865,toilet/open,에이스테크노타워 화장실,서울특별시 강서구 강서로 468,서울특별시 강서구 등촌3동 684-1,N,3,3,0,0,0,0,3,0,0,서울특별시 강서구청,02-2600-4073,07:00~20:00,,37.5671864411,126.84149174,2018-01-08,,300418
7866,toilet/open,우리벤처타운 화장실,서울특별시 강서구 강서로 466,서울특별시 강서구 등촌3동 684-2,N,3,3,0,0,0,0,2,0,0,서울특별시 강서구청,02-2600-4073,06:00~22:00,,37.5668980323,126.841424436,2018-01-08,,300419
7867,toilet/open,하바나빌딩 화장실,서울특별시 강서구 공항대로 272,서울특별시 강서구 발산1동 644-2,N,2,2,0,0,0,0,1,0,0,서울특별시 강서구청,02-2600-4073,08:30~24:00,,37.5581101453,126.83775801,2018-01-08,,300420
7868,toilet/open,벽산에어트리움 화장실,서울특별시 강서구 양천로 28,서울특별시 강서구 방화2동 849,N,2,2,0,0,0,0,3,0,0,서울특별시 강서구청,02-2600-4073,24시간,,37.5504957394,126.87384271299999,2018-01-08,,300421
7869,toilet/open,양서빌딩 화장실,서울특별시 강서구 양천로 34,서울특별시 강서구 방화2동 534-9,N,2,2,0,0,0,0,2,0,0,서울특별시 강서구청,02-2600-4073,05:00~20:00,,37.5511640297,126.87530370200001,2018-01-08,,300422
7870,toilet/open,리빙프라자(강서본점) 화장실,서울특별시 강서구 공항대로 571,서울특별시 강서구 염창동 277 1층,N,3,5,1,0,0,0,4,1,0,서울특별시 강서구청,02-2600-4073,24시간,,37.5491750559,126.86904226700001,2018-01-08,,300423
7871,toilet/open,롯데리아 까치산역점 화장실,서울특별시 강서구 강서로 35,서울특별시 강서구 화곡1동 343-60,N,1,1,0,0,0,0,1,0,0,서울특별시 강서구청,02-2600-4073,24시간,,37.532497511799995,126.84380532600001,2018-01-08,,300424
7916,toilet/open,리빙프라자(목동점) 화장실,서울특별시 강서구 등촌로 7,서울특별시 강서구 화곡4동 782-4,N,2,2,0,0,0,0,2,0,0,서울특별시 강서구청,02-2600-4073,09:00~22:00,,37.5457520327,126.860280726,2018-01-08,,300425
7935,toilet/open,GS칼텍스㈜서부지점 화장실,서울특별시 은평구 응암로 210,서울특별시 은평구 응암동 576-39,N,1,2,0,0,0,0,1,0,0,GS칼텍스㈜서부지점,02-302-6041,연중무휴,,37.590707,126.91758700000001,2018-01-03,,300426
7936,toilet/open,갈현베르빌 화장실,서울특별시 은평구 연서로 149,서울특별시 은평구 갈현동 465-12,N,2,2,1,0,0,0,3,1,0,갈현베르빌,02-358-8030,연중무휴,,37.612154,126.91685700000001,2018-01-03,,300427
7937,toilet/open,갈현주유소 화장실,서울특별시 은평구 갈현로 197,서울특별시 은평구 갈현동 506-5,N,1,2,0,0,0,0,1,0,0,갈현주유소,02-389-9005,연중무휴,,37.615361,126.9128493,2018-01-03,,300428
7938,toilet/open,갈현초등학교 화장실,서울특별시 은평구 연서로29길 31,서울특별시 은평구 갈현동 451-15,N,41,76,0,0,0,0,100,0,0,갈현초등학교,02-355-0835,(평일)09:00~18:00,,37.619215999999994,126.91668600000001,2018-01-03,,300429
7939,toilet/open,불광지구대 화장실,서울특별시 은평구 연서로 290,서울특별시 은평구 불광동 423-16,N,1,2,0,0,0,0,2,0,0,불광지구대,02-385-9901,연중무휴,,37.621387,126.9265642,2018-01-03,,300430
7940,toilet/open,VIP오피스텔 화장실,서울특별시 강서구 공항대로 426,서울특별시 강서구 화곡6동 1107,N,1,1,0,0,0,0,1,0,0,서울특별시 강서구청,02-2600-4073,08:00~20:00,,37.5548303781,126.854229429,2018-01-08,,300431
7941,toilet/open,대지산업빌딩 화장실,서울특별시 강서구 공항대로 434,서울특별시 강서구 화곡6동 1125-15,N,2,3,0,0,0,0,2,0,0,서울특별시 강서구청,02-2600-4073,05:30~20:00,,37.5545432129,126.85516705200001,2018-01-08,,300432
7942,toilet/open,삼보프라자 화장실,서울특별시 강서구 화곡로 330,서울특별시 강서구 화곡6동 1116-3,N,2,2,0,0,0,0,2,0,0,서울특별시 강서구청,02-2600-4073,24시간,,37.5532696756,126.851199514,2018-01-08,,300433
7943,toilet/open,화곡빌딩 화장실,서울특별시 강서구 화곡로 164,서울특별시 강서구 화곡1동 1075,N,1,2,0,0,0,0,1,0,0,서울특별시 강서구청,02-2600-4073,07:00~24:00,,37.554417750700004,126.861744835,2018-01-08,,300434
7944,toilet/open,롯데리아 화곡시장점 화장실,서울특별시 강서구 가로공원로 76길 56,서울특별시 강서구 화곡1동 373-12,N,1,1,0,0,0,0,1,0,0,서울특별시 강서구청,02-2600-4073,08:00~22:00,,37.5345329095,126.83781815100001,2018-01-08,,300435
7945,toilet/open,한국맥도널드 송정역점 화장실,서울특별시 강서구 공항대로 21,서울특별시 강서구 공항동 45-38,N,1,1,0,0,0,0,2,0,0,서울특별시 강서구청,02-2600-4073,24시간,,37.557455814899996,126.838922881,2018-01-08,,300436
7946,toilet/open,VIPS 화장실,서울특별시 강서구 공항대로 311,서울특별시 강서구 등촌3동 669-0,N,3,2,0,0,0,0,4,0,0,서울특별시 강서구청,02-2600-4073,24시간,,37.558541409200004,126.84218006799999,2018-01-08,,300437
7947,toilet/open,송화시장진흥협동조합 화장실,서울특별시 강서구 강서로 45나길 16,서울특별시 강서구 발산1동 723-10,N,1,1,0,0,0,0,1,0,0,서울특별시 강서구청,02-2600-4073,08:30~21:00,,37.5487694807,126.83578206,2018-01-08,,300438
7948,toilet/open,맥도널드 우장산점 화장실,서울특별시 강서구 강서로 216,서울특별시 강서구 화곡동 1026,N,1,2,0,0,0,0,2,0,0,서울특별시 강서구청,02-2600-4073,24시간,,37.545102895300005,126.837428625,2018-01-08,,300439
7949,toilet/open,강서사랑나눔 푸드마켓 화장실,서울특별시 강서구 공항대로 2가길 5,서울특별시 강서구 공항동 51-42,N,1,0,0,0,0,0,1,0,0,서울특별시 강서구청,02-2600-4073,09:00~18:00,,37.5603627764,126.808946385,2018-01-08,,300440
7950,toilet/open,동아그린프라자 화장실,서울특별시 강서구 양천로 731,서울특별시 강서구 염창동 258-1,N,3,3,0,0,0,0,2,0,0,서울특별시 강서구청,02-2600-4073,09:00~22:00,,37.5502508075,126.87739652,2018-01-08,,300441
7951,toilet/open,유정빌딩 화장실,서울특별시 강서구 공항대로 46길 97,서울특별시 강서구 화곡6동 1118-3,N,1,2,0,0,0,0,2,0,0,서울특별시 강서구청,02-2600-4073,24시간,,37.5518709144,126.850871845,2018-01-08,,300442
7952,toilet/open,약사사 화장실,서울특별시 강서구 금낭화로17길 261,서울특별시 강서구 개화동 332-2,N,2,2,0,0,0,0,3,0,0,서울특별시 강서구청,02-2600-4073,24시간,,37.5831262517,126.805007214,2018-01-08,,300443
7953,toilet/open,대은교회 화장실,서울특별시 강서구 곰달래로 69,서울특별시 강서구 화곡1동 425-25,N,2,5,0,0,0,0,4,0,0,서울특별시 강서구청,02-2600-4073,24시간,,37.534376828,126.856450616,2018-01-08,,300444
7954,toilet/open,남부골목시장 화장실,서울특별시 강서구 등촌로 5길 62-4,서울특별시 강서구 화곡4동 801-9,N,2,2,1,0,0,0,3,1,0,서울특별시 강서구청,02-2600-4073,08:30~21:00,,37.5331809793,126.86001906899999,2018-01-08,,300445
7955,toilet/open,까치산시장 고객만족센터 화장실,서울특별시 강서구 강서로 12길 14,서울특별시 강서구 화곡8동 342-16,N,1,1,1,0,0,0,2,1,0,서울특별시 강서구청,02-2600-4073,08:30~21:00,,37.531529727199995,126.84786217799999,2018-01-08,,300446
7956,toilet/open,화곡중앙골목시장 고객지원센터 화장실,서울특별시 강서구 월정로 30길 66,서울특별시 강서구 화곡1동 362-144,N,1,1,1,1,0,0,2,1,0,서울특별시 강서구청,02-2600-4073,08:30~21:00,,37.5348848027,126.83950547,2018-01-08,,300447
7957,toilet/open,가양현대주유소 화장실,서울특별시 강서구 양천로 391,서울특별시 강서구 가양1동 58-2,Y,1,2,0,0,0,0,1,0,0,서울특별시 강서구청,02-2600-4073,24시간,,37.566442594499996,126.845857918,2018-01-08,,300448
7958,toilet/open,SK가양주유소 화장실,서울특별시 강서구 강서로 498,서울특별시 강서구 가양1동 151-1,N,1,2,0,0,0,0,2,0,0,서울특별시 강서구청,02-2600-4073,24시간,,37.5697351086,126.841979868,2018-01-08,,300449
7959,toilet/open,세원 제일주유소 화장실,서울특별시 강서구 양천로 311,서울특별시 강서구 가양1동 272-31,N,1,1,0,0,0,0,1,0,0,서울특별시 강서구청,02-2600-4073,24시간,,37.570497465,126.838075259,2018-01-08,,300450
7960,toilet/open,박물관주유소 화장실,서울특별시 강서구 양천로 53길 97,서울특별시 강서구 가양1동 26-1,N,1,1,1,0,0,0,1,1,0,서울특별시 강서구청,02-2600-4073,24시간,,37.5675006753,126.850301899,2018-01-08,,300451
7961,toilet/open,국제공항(U턴)주유소 화장실,서울특별시 강서구 남부순환로 57,서울특별시 강서구 공항동 61-100외 1필지,N,1,1,0,0,0,0,1,0,0,서울특별시 강서구청,02-2600-4073,24시간,,37.546879199,126.824515443,2018-01-08,,300452
7962,toilet/open,청룡주유소 화장실,서울특별시 강서구 양천로 576,서울특별시 강서구 등촌1동 631-7,N,1,2,0,0,0,0,2,0,0,서울특별시 강서구청,02-2600-4073,24시간,,37.5567254599,126.86273651299999,2018-01-08,,300453
7963,toilet/open,경서에너지 공항로충전소 화장실,서울특별시 강서구 공항대로 468,서울특별시 강서구 등촌2동 269-8,N,2,2,0,0,0,0,1,0,0,서울특별시 강서구청,02-2600-4073,24시간,,37.5533400766,126.858632385,2018-01-08,,300454
7964,toilet/open,GS칼텍스강서열린주유소 화장실,서울특별시 강서구 등촌로 213,서울특별시 강서구 등촌2동 510-13,N,1,2,0,0,0,0,1,0,0,서울특별시 강서구청,02-2600-4073,24시간,,37.5487357054,126.862986545,2018-01-08,,300455
7965,toilet/open,등촌주유소 화장실,서울특별시 강서구 등촌로 189,서울특별시 강서구 등촌2동 511-5,N,1,2,0,0,0,0,1,0,0,서울특별시 강서구청,02-2600-4073,24시간,,37.5468610809,126.86251470299999,2018-01-08,,300456
7966,toilet/open,대성주유소 화장실,서울특별시 강서구 강서로 472,서울특별시 강서구 등촌3동 684,N,1,2,0,0,0,0,1,0,0,서울특별시 강서구청,02-2600-4073,24시간,,37.5674710817,126.841436805,2018-01-08,,300457
7967,toilet/open,김포공항주유소 화장실,서울특별시 강서구 하늘길 259,서울특별시 강서구 외발산동 423-2,N,1,1,0,0,0,0,1,0,0,서울특별시 강서구청,02-2600-4073,24시간,,37.5509439506,126.81471928299999,2018-01-08,,300458
7968,toilet/open,발산(오성)주유소 화장실,서울특별시 강서구 강서로 291,"서울특별시 강서구 발산1동 701-7,8",N,1,2,0,0,0,0,1,0,0,서울특별시 강서구청,02-2600-4073,24시간,,37.5517861684,126.835888609,2018-01-08,,300459
7969,toilet/open,관문주유소 화장실,서울특별시 강서구 공항대로 314,서울특별시 강서구 우장산동 648-3,N,1,2,0,0,0,0,2,0,0,서울특별시 강서구청,02-2600-4073,24시간,,37.5578425222,126.84239431399999,2018-01-08,,300460
7970,toilet/open,우장산주유소 화장실,서울특별시 강서구 강서로 292,서울특별시 강서구 우장산동 702-5,N,1,1,0,0,0,0,2,0,0,서울특별시 강서구청,02-2600-4073,24시간,,37.5516753931,126.83657238299999,2018-01-08,,300461
7971,toilet/open,개화주유소 화장실,서울특별시 강서구 양천로 57,서울특별시 강서구 방화1동 488-1,N,1,1,0,0,0,0,1,0,0,서울특별시 강서구청,02-2600-4073,24시간,,37.5531236229,126.87438149799999,2018-01-08,,300462
7972,toilet/open,방화주유소 화장실,서울특별시 강서구 방화동로 58-2,서울특별시 강서구 방화1동 609-59,N,1,1,0,0,0,0,1,0,0,서울특별시 강서구청,02-2600-4073,24시간,,37.5655617105,126.812437424,2018-01-08,,300463
7973,toilet/open,에어포트주유소 화장실,서울특별시 강서구 개화동로 519,서울특별시 강서구 방화2동 645-6,N,1,1,0,0,0,0,1,0,0,서울특별시 강서구청,02-2600-4073,24시간,,37.566293797600004,126.80604264,2018-01-08,,300464
7974,toilet/open,강동주유소 화장실,서울특별시 강서구 양천로 715,"서울특별시 강서구 염창동 252-14,15",N,1,1,0,0,0,0,1,0,0,서울특별시 강서구청,02-2600-4073,24시간,,37.5498163924,126.875545856,2018-01-08,,300465
7975,toilet/open,진일주유소 화장실,서울특별시 강서구 공항대로 533,서울특별시 강서구 염창동 274-18,N,1,2,0,0,0,0,2,0,0,서울특별시 강서구청,02-2600-4073,24시간,,37.5511389244,126.865562348,2018-01-08,,300466
7976,toilet/open,염창동주유소 화장실,서울특별시 강서구 양천로 720,서울특별시 강서구 염창동 263-8,N,1,2,0,0,0,0,1,0,0,서울특별시 강서구청,02-2600-4073,24시간,,37.548984048099996,126.87571472200001,2018-01-08,,300467
7977,toilet/open,양화교주유소 화장실,서울특별시 강서구 공항대로 653,서울특별시 강서구 염창동 283-4,N,2,2,0,0,0,0,1,0,0,서울특별시 강서구청,02-2600-4073,24시간,,37.5473388147,126.87742844799999,2018-01-08,,300468
7978,toilet/open,대흥에너지산업㈜ 화장실,서울특별시 강서구 강서로 25,"서울특별시 강서구 화곡1동 898-3,4",N,1,1,0,0,0,0,1,0,0,서울특별시 강서구청,02-2600-4073,24시간,,37.533668125300004,126.843286964,2018-01-08,,300469
7979,toilet/open,신화곡주유소 화장실,서울특별시 강서구 국회대로 71,서울특별시 강서구 화곡1동 931-11,N,1,1,0,0,0,0,1,0,0,서울특별시 강서구청,02-2600-4073,24시간,,37.5295805274,126.856966649,2018-01-08,,300470
7980,toilet/open,뉴신정주유소 화장실,서울특별시 강서구 곰달래로 207,서울특별시 강서구 화곡2동 862-16,N,1,2,0,0,0,0,1,0,0,서울특별시 강서구청,02-2600-4073,24시간,,37.5315615971,126.856035141,2018-01-08,,300471
7981,toilet/open,목화주유소 화장실,서울특별시 강서구 국회대로 251,서울특별시 강서구 화곡4동 785-2,N,1,2,0,0,0,0,1,0,0,서울특별시 강서구청,02-2600-4073,24시간,,37.5300560095,126.86283518,2018-01-08,,300472
7982,toilet/open,경인고속주유소 화장실,서울특별시 강서구 국회대로 225,서울특별시 강서구 화곡4동 843-4,N,1,2,0,0,0,0,1,0,0,서울특별시 강서구청,02-2600-4073,24시간,,37.5296452353,126.85983561100001,2018-01-08,,300473
7983,toilet/open,하이웨이주유소 화장실,서울특별시 강서구 공항대로 432,서울특별시 강서구 화곡6동 1125,N,1,2,0,0,0,0,1,0,0,서울특별시 강서구청,02-2600-4073,24시간,,37.554539342199995,126.854949769,2018-01-08,,300474
7984,toilet/open,해바라기주유소 화장실,서울특별시 강서구 화곡로 273,서울특별시 강서구 화곡6동 983-1,N,1,2,0,0,0,0,1,0,0,서울특별시 강서구청,02-2600-4073,24시간,,37.5492782519,126.846966065,2018-01-08,,300475
7985,toilet/open,화곡역주유소 화장실,서울특별시 강서구 강서로 151,"서울특별시 강서구 화곡1동 402-1,2",N,1,2,0,0,0,0,1,0,0,서울특별시 강서구청,02-2600-4073,24시간,,37.551908581,126.830696198,2018-01-08,,300476
7986,toilet/open,현대주유소 화장실,서울특별시 강서구 강서로 154,서울특별시 강서구 화곡본동 1076-14,N,1,1,0,0,0,0,1,0,0,서울특별시 강서구청,02-2600-4073,24시간,,37.5520206546,126.83094038700001,2018-01-08,,300477
7987,toilet/open,스카이주유소 화장실,서울특별시 강서구 개화동로 457,"서울특별시 강서구 방화2동 523-8,22",Y,1,2,0,0,0,0,1,0,0,서울특별시 강서구청,02-2600-4074,24시간,,37.5715206664,126.80452582299999,2018-01-08,,300478
7988,toilet/open,방화제1화장실 화장실,서울특별시 강서구 방화동 620-191,서울특별시 강서구 방화동 620-191외 2필지,N,1,2,0,0,0,0,3,0,0,서울특별시 강서구청,02-2600-4073,24시간,,37.5625854553,126.808343098,2018-01-08,,300479
7989,toilet/open,방화제2화장실 화장실,서울특별시 강서구 개화동로29길 28-1,서울특별시 강서구 방화동 612-52,N,1,2,0,0,0,0,2,0,0,서울특별시 강서구청,02-2600-4073,24시간,,37.5636703298,126.808390121,2018-01-08,,300480
7990,toilet/open,무인화장실 화장실,서울특별시 강서구 금낭화로 141,서울특별시 강서구 방화동 829-9,Y,1,0,1,0,0,0,1,1,0,서울특별시 강서구청,02-2600-4073,24시간,,37.5779164564,126.812637381,2018-01-08,,300481
7991,toilet/open,에어포트 비즈니스 센터 화장실,서울특별시 강서구 공항대로 32,서울특별시 강서구 공항동 42-4,N,2,2,0,0,0,0,2,0,0,서울특별시 강서구청,02-2600-4073,09:00~18:00,,37.554751301399996,126.860368044,2018-01-08,,300482
8001,toilet/open,경우회관 화장실,서울특별시 은평구 응암로 357,서울특별시 은평구 녹번동 162-42,N,1,1,0,0,0,0,2,0,0,경우회관,02-2234-1881,(평일)06:00~20:00+(주말)06:00~20:00+(공휴일)06:00~20:00,,37.603094,126.922266,2018-01-03,,300483
8002,toilet/open,경인주유소 화장실,서울특별시 은평구 서오릉로 32,서울특별시 은평구 녹번동 81-15,N,2,1,0,0,0,0,1,0,0,경인주유소,02-355-5323,연중무휴,,37.604122,126.925354,2018-01-03,,300484
8003,toilet/open,구산중학교 화장실,서울특별시 은평구 갈현로15길 20-23,서울특별시 은평구 구산동 산34,N,1,1,0,0,0,0,2,0,0,구산중학교,02-389-8785,(평일)09:00~18:00,,37.609711,126.908896,2018-01-03,,300485
8004,toilet/open,구산초등학교 화장실,서울특별시 은평구 서오릉로15길 16,서울특별시 은평구 구산동 152-3,N,26,50,2,0,0,0,45,3,0,구산초등학교,02-387-7487,(평일)09:00~18:00,,37.6124476,126.909302,2018-01-03,,300486
8005,toilet/open,구산치안센터 화장실,서울특별시 은평구 갈현로 151,서울특별시 은평구 구산동 14-10,N,1,1,0,0,0,0,2,0,0,구산치안센터,02-357-5564,연중무휴,,37.611452,126.911124,2018-01-03,,300487
8006,toilet/open,한국환경정책평가연구원 화장실,서울특별시 은평구 진흥로15길 10,서울특별시 은평구 불광동 613-1,N,12,16,2,0,0,0,14,1,0,국립환경과학원,02-380-7777,(평일)09:00~18:00,,37.610292,126.932027,2018-01-03,,300488
8007,toilet/open,그린빌딩 화장실,서울특별시 은평구 갈현로 81,서울특별시 은평구 역촌동 54-8,N,1,2,0,0,0,0,1,0,0,그린빌딩,02-585-7255,연중무휴,,37.605326,126.91026200000002,2018-01-03,,300489
8008,toilet/open,남창빌딩 화장실,서울특별시 은평구 응암로 193,서울특별시 은평구 응암동 600-2,N,3,2,0,0,0,0,3,0,0,남창빌딩,02-304-9000,연중무휴,,37.589347,126.9167551,2018-01-03,,300490
8009,toilet/open,녹번시장 화장실,서울특별시 은평구 은평로 204-4,서울특별시 은평구 응암동 74-7,N,2,2,0,0,0,0,2,0,0,녹번시장,02-353-7897,연중무휴,,37.600627,126.930466,2018-01-03,,300491
8010,toilet/open,녹번주유소 화장실,서울특별시 은평구 통일로 600,서울특별시 은평구 녹번동 59-1,N,1,2,0,0,0,0,1,0,0,녹번주유소,02-385-5001,연중무휴,,37.600482,126.9363315,2018-01-03,,300492
8011,toilet/open,녹번파출소 화장실,서울특별시 은평구 통일로 684,서울특별시 은평구 녹번동 115-2,N,1,1,0,0,0,0,2,0,0,녹번파출소,02-355-7112,연중무휴,,37.609006,126.932351,2018-01-03,,300493
8012,toilet/open,다회주유소 화장실,서울특별시 은평구 증산로 441,서울특별시 은평구 신사동 34-37,N,2,1,0,0,0,0,1,0,0,다회주유소,02-375-5156,연중무휴,,37.595607,126.91445800000001,2018-01-03,,300494
8013,toilet/open,삼성주유소 화장실,서울특별시 은평구 증산로 379,서울특별시 은평구 신사동 338-1,N,1,1,0,0,0,0,1,0,0,삼성주유소,02-373-6321,연중무휴,,37.590131,126.91279399999999,2018-01-03,,300495
8014,toilet/open,대림한숲타운 화장실,서울특별시 은평구 은평터널로 65,서울특별시 은평구 수색동 415-1,N,2,2,0,0,0,0,2,0,0,대림한숲타운,02-309-3862,(평일)07:00~23:30+(주말)07:00~23:30+(공휴일)07:00~23:30,,37.586651,126.89992600000001,2018-01-03,,300496
8015,toilet/open,은평등기소 화장실,서울특별시 은평구 백련산로 166-26,서울특별시 은평구 응암동 95-1,N,1,4,2,0,0,0,3,1,0,대법원,02-1544-0773,(평일)09:00~18:00,,37.600103999999995,126.927371,2018-01-03,,300497
8016,toilet/open,대성고등학교 화장실,서울특별시 은평구 갈현로29길 51-24,서울특별시 은평구 갈현동 산53-1,N,30,51,1,0,0,0,5,0,0,대성고등학교,02-6252-1000,(평일)09:00~18:00,,37.622499,126.908199,2018-01-03,,300498
8017,toilet/open,대성주유소 화장실,서울특별시 은평구 통일로 642,서울특별시 은평구 녹번동 19-38,N,1,2,0,0,0,0,1,0,0,대성주유소,02-355-3434,연중무휴,,37.6039651,126.93529129999999,2018-01-03,,300499
8020,toilet/open,대조치안센터 화장실,서울특별시 은평구 통일로 737,서울특별시 은평구 대조동 5-17,N,1,1,0,0,0,0,2,0,0,대조치안센터,02-354-0222,연중무휴,,37.611102,126.92895700000001,2018-01-03,,300500
8021,toilet/open,대한생명빌딩 화장실,서울특별시 은평구 통일로 742,서울특별시 은평구 불광동 272-51,N,2,3,0,0,0,0,2,0,0,대한생명빌딩,02-359-1134,(평일)06:00~19:30+(주말)06:00~19:30+(공휴일)06:00~19:30,,37.611826,126.929354,2018-01-03,,300501
8022,toilet/open,덕산중학교 화장실,서울특별시 은평구 가좌로 400,서울특별시 은평구 신사동 265-4,N,32,56,0,0,0,0,57,0,0,덕산중학교,02-353-9427,(평일)09:00~18:00,,37.601847,126.90447990000001,2018-01-03,,300502
8023,toilet/open,동명여자정보산업고등학교 화장실,서울특별시 은평구 통일로 793,서울특별시 은평구 대조동 91-20,N,3,7,1,0,0,0,41,2,0,동명여자정보산업고등학교,02-383-2628,(평일)09:00~18:00,,37.614067,126.92411200000001,2018-01-03,,300503
8024,toilet/open,롯데리아(응암5거리) 화장실,서울특별시 은평구 응암로 177,서울특별시 은평구 응암동 598-4,N,1,2,0,0,0,0,2,0,0,롯데리아(응암5거리),02-308-9341,연중무휴,,37.587875,126.91631399999999,2018-01-03,,300504
8025,toilet/open,롯데리아구산점 화장실,서울특별시 은평구 서오릉로 137,서울특별시 은평구 역촌동 1-2,N,1,2,0,0,0,0,2,0,0,롯데리아구산점,02-389-9321,(평일)10:00~22:00+(주말)10:00~22:00+(공휴일)10:00~22:00,,37.610728,126.91756799999999,2018-01-03,,300505
8026,toilet/open,롯데리아불광점 화장실,서울특별시 은평구 통일로 741,서울특별시 은평구 대조동 6-5,N,2,1,0,0,0,0,3,0,0,롯데리아불광점,02-383-4553,(평일)10:00~22:00+(주말)10:00~22:00+(공휴일)10:00~22:00,,37.611359,126.92848899999998,2018-01-03,,300506
8027,toilet/open,맥도날드연신내점 화장실,서울특별시 은평구 연서로 213,서울특별시 은평구 갈현동 456-28,N,1,2,0,0,0,0,2,0,0,맥도날드연신내점,02-383-0141,연중무휴,,37.617616999999996,126.919201,2018-01-03,,300507
8028,toilet/open,무궁화주유소 화장실,서울특별시 은평구 응암로 163,"서울특별시 은평구 응암동 594-1,98",N,1,2,0,0,0,0,1,0,0,무궁화주유소,02-304-5188,연중무휴,,37.586727,126.915878,2018-01-03,,300508
8029,toilet/open,박석고개주유소 화장실,서울특별시 은평구 통일로 945,서울특별시 은평구 갈현동 1-6,N,1,1,0,0,0,0,1,0,0,박석고개주유소,02-388-0477,연중무휴,,37.627313,126.919242,2018-01-03,,300509
8030,toilet/open,진관초등학교 화장실,서울특별시 은평구 진관4로 78-16,서울특별시 은평구 진관동 14-13,N,28,61,0,0,0,0,74,0,0,백상기업,02-386-3365,연중무휴,,37.645053999999995,126.92912700000001,2018-01-03,,300510
8031,toilet/open,보광빌딩 화장실,서울특별시 은평구 통일로 796,서울특별시 은평구 불광동 291-92,N,2,2,0,0,0,0,2,0,0,보광빌딩,02-546-7011,연중무휴,,37.615494,126.92550700000001,2018-01-03,,300511
8032,toilet/open,북한산초등학교 화장실,서울특별시 은평구 대서문길 42-3,서울특별시 은평구 진관동 산3,N,4,12,1,0,0,0,8,1,0,북한산초등학교,02-359-9824,(평일)09:00~18:00,,37.652335,126.95231100000001,2018-01-03,,300512
8033,toilet/open,불광1치안센터 화장실,서울특별시 은평구 불광로 129,서울특별시 은평구 불광동 13-67,N,2,2,0,0,0,0,2,0,0,불광1치안센터,02-357-4012,연중무휴,,37.618229,126.93294399999999,2018-01-03,,300513
8034,toilet/open,불광3치안센터 화장실,서울특별시 은평구 통일로 914,서울특별시 은평구 불광동 481-88,N,1,1,0,0,0,0,2,0,0,불광2치안센터,02-355-6554,연중무휴,,37.624483000000005,126.920178,2018-01-03,,300514
8035,toilet/open,불광미성상가 화장실,서울특별시 은평구 통일로 780,서울특별시 은평구 불광동 248,N,2,2,0,0,0,0,3,0,0,불광미성상가,02-357-2440,(평일)07:00~24:00+(주말)07:00~24:00+(공휴일)07:00~24:00,,37.614871,126.928269,2018-01-03,,300515
8036,toilet/open,불광주유소 화장실,서울특별시 은평구 연서로 314,서울특별시 은평구 불광동 105-118,N,1,1,0,0,0,0,1,0,0,불광주유소,02-382-5189,연중무휴,,37.623247,126.927865,2018-01-03,,300516
8037,toilet/open,불광중학교 화장실,서울특별시 은평구 불광로 180,서울특별시 은평구 불광2동 173,N,2,3,0,0,0,0,5,0,0,불광중학교,02-385-8356,(평일)09:00~18:00,,37.623128,126.93163899999999,2018-01-03,,300517
8039,toilet/open,삼표수색주유소 화장실,서울특별시 은평구 수색로 198,서울특별시 은평구 증산동 222-3,N,1,2,0,0,0,0,1,0,0,삼표수색주유소,02-372-6135,연중무휴,,37.579021999999995,126.90119299999999,2018-01-03,,300518
8040,toilet/open,상신중학교 화장실,서울특별시 은평구 증산로15길 61,서울특별시 은평구 신사2동 141,N,28,45,0,0,0,0,63,0,0,상신중학교,02-305-5136,(평일)09:00~18:00,,37.590037,126.906663,2018-01-03,,300519
8041,toilet/open,상신초등학교 화장실,서울특별시 은평구 가좌로11가길 38-11,서울특별시 은평구 신사동 산55,N,16,42,0,0,0,0,32,1,0,상신초등학교,02-303-4245,(평일)09:00~18:00,,37.597833,126.903849,2018-01-03,,300520
8042,toilet/open,서대문세무서별관 화장실,서울특별시 은평구 서오릉로 7,서울특별시 은평구 응암동 84-5,N,7,8,0,0,0,0,4,0,0,서대문세무서,02-2287-4200,연중무휴,,37.601752000000005,126.926328,2018-01-03,,300521
8043,toilet/open,서부경찰서 화장실,서울특별시 은평구 은평로9길 15,서울특별시 은평구 녹번동 177-15,N,9,4,2,0,0,0,5,1,0,서부경찰서,02-384-0112,연중무휴,,37.602103,126.921283,2018-01-03,,300522
8044,toilet/open,응암1센터 화장실,서울특별시 은평구 은평로10길 5-2,서울특별시 은평구 응암동 98-74,N,1,1,0,0,0,0,2,0,0,서부경찰서,02-358-1122,연중무휴,,37.5999476,126.923375,2018-01-03,,300523
8045,toilet/open,서부동산교회 화장실,서울특별시 은평구 증산서길 53-9,서울특별시 은평구 증산동 210-10,N,2,6,0,0,0,0,3,0,0,서부동산교회,02-309-0998,(평일)04:30~19:30+(주말)04:30~19:30+(공휴일)04:30~19:30,,37.581755,126.904379,2018-01-03,,300524
8046,toilet/open,서부병원 화장실,서울특별시 은평구 은평로 133,서울특별시 은평구 응암동 87-14,N,1,1,0,0,0,0,2,0,0,서부병원,02-359-0591,연중무휴,,37.600696,126.92256100000002,2018-01-03,,300525
8047,toilet/open,서부장애인종합복지관 화장실,서울특별시 은평구 갈현로11길 30,서울특별시 은평구 구산동 191-1,N,5,13,3,0,0,0,6,3,0,서부장애인종합복지관,02-351-3982,(평일)09:00~18:00,,37.605164,126.90728600000001,2018-01-03,,300526
8048,toilet/open,서신초등학교 화장실,서울특별시 은평구 은평터널로 150,서울특별시 은평구 신사동 194,N,26,30,2,0,4,0,36,0,2,서신초등학교,02-3152-0705,(평일)09:00~18:00,,37.592353,126.907496,2018-01-03,,300527
8049,toilet/open,서오릉주유소 화장실,서울특별시 은평구 서오릉로 267,서울특별시 은평구 구산동 304-1,N,1,2,0,0,0,0,1,0,0,서오릉주유소,02-353-3225,연중무휴,,37.61784960000001,126.90586299999998,2018-01-03,,300528
8050,toilet/open,서울갈현동우체국 화장실,서울특별시 은평구 서오릉로 190,서울특별시 은평구 갈현동 489-5,N,1,1,0,0,0,0,2,0,0,서울갈현동우체국,02-359-2005,(평일)09:00~18:00,,37.613655,126.912531,2018-01-03,,300529
8052,toilet/open,대은초등학교 화장실,서울특별시 은평구 통일로69길 12-15,서울특별시 은평구 대조동 82,N,21,44,2,0,0,0,40,2,0,서울대은초등학교,02-388-0833,(평일)09:00~18:00,,37.612203,126.92615500000001,2018-01-03,,300530
8053,toilet/open,서울병원 화장실,서울특별시 은평구 진흥로 191,서울특별시 은평구 대조동 15-123,N,1,1,0,0,0,0,1,0,0,서울병원,02-357-0515,연중무휴,,37.608784,126.93073659999999,2018-01-03,,300531
8054,toilet/open,서울불광우체국 화장실,서울특별시 은평구 통일로71길 20,서울특별시 은평구 대조동 84-113,N,1,1,0,0,0,0,2,0,0,서울불광우체국,02-382-2205,(평일)09:00~18:00,,37.612811,126.926724,2018-01-03,,300532
8056,toilet/open,서울수색동우체국 화장실,서울특별시 은평구 수색로 248,서울특별시 은평구 수색동 101-7,N,1,1,0,0,0,0,2,0,0,서울수색동우체국,02-302-0205,(평일)09:00~18:00,,37.5817114,126.896557,2018-01-03,,300533
8058,toilet/open,서울연신내우체국 화장실,서울특별시 은평구 연서로 304,서울특별시 은평구 불광동 123-11,N,1,1,0,0,0,0,2,0,0,서울연신내우체국,02-357-0205,(평일)09:00~18:00,,37.622403999999996,126.92731709999998,2018-01-03,,300534
8059,toilet/open,서울연은초등학교 화장실,서울특별시 은평구 가좌로 208,서울특별시 은평구 응암3동 334-12,N,31,41,0,0,0,0,56,0,0,서울연은초등학교,02-372-6999,(평일)09:00~18:00,,37.589307,126.919192,2018-01-03,,300535
8060,toilet/open,서울응암우체국 화장실,서울특별시 은평구 응암로 214,서울특별시 은평구 응암동 576-37,N,1,1,0,0,0,0,2,0,0,서울응암우체국,02-385-0100,(평일)09:00~18:00,,37.590951000000004,126.91762800000001,2018-01-03,,300536
8061,toilet/open,서울응암초등학교 화장실,서울특별시 은평구 가좌로6길 20,서울특별시 은평구 응암3동 산7-40,N,38,72,0,0,0,0,122,0,0,서울응암초등학교,02-309-5555,(평일)09:00~18:00,,37.588237,126.921449,2018-01-03,,300537
8062,toilet/open,서울중앙교회 화장실,서울특별시 은평구 가좌로7다길 11,서울특별시 은평구 응암동 697-3,N,1,1,0,0,0,0,3,0,0,서울중앙교회,02-302-4002,연중무휴,,37.584876,126.918384,2018-01-03,,300538
8063,toilet/open,시립서북병원 화장실,서울특별시 은평구 갈현로7길 49,서울특별시 은평구 역촌동 산31,N,21,37,0,0,0,0,32,14,0,서울특별시,02-3156-3000,(평일)09:00~18:00,,37.604110999999996,126.904504,2018-01-03,,300539
8064,toilet/open,시립은평병원 화장실,서울특별시 은평구 백련산로4길 25-2,서울특별시 은평구 응암동 산6,N,13,13,0,0,0,0,13,0,0,서울특별시,02-300-8114,(평일)09:00~18:00,,37.595099299999994,126.925903,2018-01-03,,300540
8065,toilet/open,시립은평청소년수련관 화장실,서울특별시 은평구 백련산로4길 16,서울특별시 은평구 응암동 산6-46,N,10,12,0,0,0,0,13,0,0,서울특별시,02-383-9966,(평일)09:00~18:00,,37.594206,126.924851,2018-01-03,,300541
8066,toilet/open,은평종합복지관 화장실,서울특별시 은평구 은평터널로 48,서울특별시 은평구 수색동 8-15,N,12,12,0,0,0,0,12,0,0,서울특별시 은평구,02-351-7006,(평일)09:00~18:00,,37.585023,126.89930859999998,2018-01-03,,300542
8067,toilet/open,신사종합복지관 화장실,서울특별시 은평구 은평로 38,서울특별시 은평구 신사동 26-18,N,4,4,1,0,0,0,6,1,0,서울특별시 은평구,02-351-7006,(평일)09:00~18:00,,37.597983,126.91219299999999,2018-01-03,,300543
8068,toilet/open,녹번종합복지관 화장실,서울특별시 은평구 은평로21길 14-26,서울특별시 은평구 녹번동 산28-6,N,5,13,4,0,0,0,5,4,0,서울특별시 은평구,02-351-7006,(평일)09:00~18:00,,37.602712,126.93181799999999,2018-01-03,,300544
8069,toilet/open,은평구립도서관 화장실,서울특별시 은평구 통일로78가길 13-84,서울특별시 은평구 불광동 산59-32,N,8,19,4,0,0,0,17,0,0,서울특별시 은평구,02-385-1671,(평일)09:00~18:00,,37.618896,126.927996,2018-01-03,,300545
8070,toilet/open,갈현1동주민센터 화장실,서울특별시 은평구 갈현로 301,서울특별시 은평구 갈현동 436-14,N,4,8,0,0,0,0,12,0,0,서울특별시 은평구 갈현1동주민센터,02-351-5095,(평일)09:00~18:00,,37.6236469,126.91671299999999,2018-01-03,,300546
8071,toilet/open,갈현2동주민센터 화장실,서울특별시 은평구 연서로27길 31-6,서울특별시 은평구 갈현동 502-3,N,4,8,1,0,0,0,11,1,0,서울특별시 은평구 갈현2동주민센터,02-351-5129,(평일)09:00~18:00,,37.618559000000005,126.91581200000002,2018-01-03,,300547
8072,toilet/open,탑골생태공원 화장실 화장실,서울특별시 은평구 통일로 1079-26,서울특별시 은평구 진관동 387,N,1,3,1,0,0,0,4,1,0,서울특별시 은평구 공원녹지과,02-351-8005,(평일)09:00~18:00,,37.638103,126.91386299999999,2018-01-03,,300548
8073,toilet/open,구파발폭포 화장실 화장실,서울특별시 은평구 진관2로 15-30,서울특별시 은평구 진관동 393,N,2,2,0,0,0,0,2,0,0,서울특별시 은평구 공원녹지과,02-351-8005,(평일)09:00~18:00,,37.636738,126.91933200000001,2018-01-03,,300549
8074,toilet/open,장미테니스장 화장실,서울특별시 은평구 통일로 684,서울특별시 은평구 녹번동 산1-55,N,1,1,0,0,0,0,1,0,0,서울특별시 은평구 청소행정과,02-351-7565,연중무휴,,37.6084167,126.938645,2018-01-03,,300550
8075,toilet/open,뉴타운1지구 공원관리 화장실 화장실,서울특별시 은평구 진관4로 48-25,서울특별시 은평구 진관동 15-19,N,1,2,1,0,0,0,2,1,0,서울특별시 은평구 공원녹지과,02-351-8005,(평일)09:00~18:00,,37.644095,126.92875500000001,2018-01-03,,300551
8076,toilet/open,진관배수지 공원관리 화장실 화장실,서울특별시 은평구 갈현로47길 42-39,서울특별시 은평구 진관동 246-20,N,1,2,0,0,0,0,3,0,0,서울특별시 은평구 공원녹지과,02-351-8005,(평일)09:00~18:00,,37.629991,126.91650700000001,2018-01-03,,300552
8077,toilet/open,구산동주민센터 화장실,서울특별시 은평구 갈현로17길 10,서울특별시 은평구 구산동 27-5,N,3,4,0,0,0,0,7,1,0,서울특별시 은평구 구산동주민센터,02-351-5160,(평일)09:00~18:00,,37.611733,126.910328,2018-01-03,,300553
8078,toilet/open,녹번동주민센터 화장실,서울특별시 은평구 은평로 195,서울특별시 은평구 녹번동 84,N,4,9,0,0,0,0,5,0,0,서울특별시 은평구 녹번동주민센터,02-351-5006,(평일)09:00~18:00,,37.602456,126.929387,2018-01-03,,300554
8081,toilet/open,불광제1동 청사 화장실,서울특별시 은평구 진흥로15길 10,서울특별시 은평구 불광1동 613-1,N,8,8,0,0,0,0,8,1,0,서울특별시 은평구 불광1동주민센터,02-351-5034,(평일)09:00~18:00,,37.610337,126.93204899999999,2018-01-03,,300555
8082,toilet/open,불광2동 주민센터 화장실,서울특별시 은평구 연서로41길 16,서울특별시 은평구 불광동 81-2,N,2,2,0,0,0,0,2,0,0,서울특별시 은평구 불광2동주민센터,02-351-5070,(평일)09:00~18:00,,37.626368,126.92726499999999,2018-01-03,,300556
8083,toilet/open,수색동주민센터 화장실,서울특별시 은평구 은평터널로 27,서울특별시 은평구 수색동 136-50,N,2,4,0,0,0,0,2,0,0,서울특별시 은평구 수색동주민센터,02-351-5245,(평일)09:00~18:00,,37.584142,126.897506,2018-01-03,,300557
8085,toilet/open,신사2동주민센터 화장실,서울특별시 은평구 증산로15길 47,서울특별시 은평구 신사2동 163-17,N,5,7,5,0,0,0,10,5,0,서울특별시 은평구 신사2동주민센터,02-351-5365,(평일)09:00~18:00,,37.590253000000004,126.908387,2018-01-03,,300558
8087,toilet/open,역촌동주민센터 화장실,서울특별시 은평구 연서로 59,서울특별시 은평구 역촌동 62-26,N,6,9,0,0,0,0,6,0,0,서울특별시 은평구 역촌동주민센터,02-351-5306,(평일)09:00~18:00,,37.604352,126.915067,2018-01-03,,300559
8088,toilet/open,응암1동 주민센터 화장실,서울특별시 은평구 백련산로 179,서울특별시 은평구 응암동 96-3,N,6,5,0,0,0,0,6,0,0,서울특별시 은평구 응암1동주민센터,02-351-5215,(평일)09:00~18:00,,37.6006412,126.92673899999998,2018-01-03,,300560
8089,toilet/open,응암2동 주민센터 화장실,서울특별시 은평구 백련산로 100,서울특별시 은평구 응암동 229-13,N,3,4,0,0,0,0,5,0,0,서울특별시 은평구 응암2동주민센터,02-351-5256,(평일)09:00~18:00,,37.594469000000004,126.923092,2018-01-03,,300561
8090,toilet/open,응암3동 주민센터 화장실,서울특별시 은평구 불광천길 410-17,서울특별시 은평구 응암동 583-22,N,6,6,0,0,0,0,6,0,0,서울특별시 은평구 응암3동주민센터,02-351-5274,(평일)09:00~18:00,,37.592203000000005,126.91562900000001,2018-01-03,,300562
8091,toilet/open,증산동주민센터 화장실,서울특별시 은평구 증산서길 89,서울특별시 은평구 증산동 187-19,N,4,4,0,0,0,0,8,0,0,서울특별시 은평구 증산동주민센터,02-351-5408,(평일)09:00~18:00,,37.584311,126.907002,2018-01-03,,300563
8092,toilet/open,진관동 복합청사(보훈회관) 화장실,서울특별시 은평구 진관2로 31,서울특별시 은평구 진관동 78,N,4,4,0,0,0,0,2,0,0,서울특별시 은평구 진관동주민센터,02-351-5472,(평일)09:00~18:00,,37.648686,126.9209064,2018-01-03,,300564
8094,toilet/open,새록어린이공원 화장실,서울특별시 은평구 은평로13길 35,서울특별시 은평구 녹번동 158-1,N,1,3,1,0,0,0,4,1,1,서울특별시 은평구 청소행정과,02-351-7565,연중무휴,,37.603962,126.923657,2018-01-03,,300565
8096,toilet/open,응암어린이공원 화장실,서울특별시 은평구 은평로11길 10,서울특별시 은평구 응암동 85-41,N,2,3,1,0,0,0,3,1,1,서울특별시 은평구 청소행정과,02-351-7565,연중무휴,,37.6016787,126.92355500000001,2018-01-03,,300566
8097,toilet/open,백련근린공원 화장실,서울특별시 은평구 백련산로4길 26,서울특별시 은평구 응암동 산6-48,N,2,3,1,0,0,0,3,1,1,서울특별시 은평구 청소행정과,02-351-7565,연중무휴,,37.594173,126.92610800000001,2018-01-03,,300567
8099,toilet/open,포수동어린이공원 화장실,서울특별시 은평구 은평로8길 28,서울특별시 은평구 응암동 115-25,N,1,3,1,0,0,0,4,1,0,서울특별시 은평구 청소행정과,02-351-7565,연중무휴,,37.598085,126.919405,2018-01-03,,300568
8100,toilet/open,참다래어린이공원 화장실,서울특별시 은평구 응암로25길 8,서울특별시 은평구 응암동 120-22,N,2,2,0,0,0,0,2,0,0,서울특별시 은평구 청소행정과,02-351-7565,연중무휴,,37.595363,126.91733799999999,2018-01-03,,300569
8101,toilet/open,불광사입구시범 화장실,서울특별시 은평구 불광로18길 43,서울특별시 은평구 불광동 산1-13,N,1,4,1,0,0,0,4,1,0,서울특별시 은평구 청소행정과,02-351-7565,연중무휴,,37.623067999999996,126.935973,2018-01-03,,300570
8102,toilet/open,새장골어린이공원 화장실,서울특별시 은평구 연서로37가길 10-12,서울특별시 은평구 불광동 444-1,N,1,2,1,0,0,0,1,1,0,서울특별시 은평구 청소행정과,02-351-7565,연중무휴,,37.625277000000004,126.926227,2018-01-03,,300571
8103,toilet/open,구현초마을마당 화장실,서울특별시 은평구 갈현로15길 41,서울특별시 은평구 구산동 산41-5,N,2,2,0,0,0,0,2,0,0,서울특별시 은평구 청소행정과,02-351-7565,연중무휴,,37.608816,126.9069244,2018-01-03,,300572
8104,toilet/open,서갈현어린이공원 화장실,서울특별시 은평구 갈현로35길 12-8,서울특별시 은평구 갈현동 434-38,N,2,3,1,0,0,0,4,1,1,서울특별시 은평구 청소행정과,02-351-7565,연중무휴,,37.621469,126.91573600000001,2018-01-03,,300573
8105,toilet/open,박석어린이공원 화장실,서울특별시 은평구 통일로89길 18-14,서울특별시 은평구 갈현동 416-3,N,1,3,0,0,0,0,1,1,0,서울특별시 은평구 청소행정과,02-351-7565,연중무휴,,37.625108000000004,126.91853799999998,2018-01-03,,300574
8106,toilet/open,갈곡리어린이공원 화장실,서울특별시 은평구 갈현로41길 3,서울특별시 은평구 갈현동 436-51,N,2,3,1,0,0,0,3,1,1,서울특별시 은평구 청소행정과,02-351-7565,연중무휴,,37.623926000000004,126.91641399999999,2018-01-03,,300575
8107,toilet/open,좌월어린이공원 화장실,서울특별시 은평구 갈현로25길 11-8,서울특별시 은평구 갈현동 513-1,N,2,2,0,0,0,0,5,0,0,서울특별시 은평구 청소행정과,02-351-7565,연중무휴,,37.617275,126.91328200000001,2018-01-03,,300576
8108,toilet/open,길마어린이공원 화장실,서울특별시 은평구 연서로21길 15,서울특별시 은평구 갈현동 474-1,N,2,3,0,0,0,0,3,0,0,서울특별시 은평구 청소행정과,02-351-7565,연중무휴,,37.614676,126.91581200000002,2018-01-03,,300577
8109,toilet/open,대조어린이공원 화장실,서울특별시 은평구 연서로22길 9-30,서울특별시 은평구 대조동 212,N,1,3,1,0,0,0,2,1,1,서울특별시 은평구 청소행정과,02-351-7565,연중무휴,,37.615398,126.91990200000001,2018-01-03,,300578
8110,toilet/open,연서어린이공원 화장실,서울특별시 은평구 연서로6길 8-1,서울특별시 은평구 역촌동 32-36,N,2,3,1,0,0,0,1,1,1,서울특별시 은평구 청소행정과,02-351-7565,연중무휴,,37.604015999999994,126.916748,2018-01-03,,300579
8111,toilet/open,역마을어린이공원 화장실,서울특별시 은평구 진흥로1길 9,서울특별시 은평구 역촌동 39-2,N,1,4,1,0,0,0,4,1,0,서울특별시 은평구 청소행정과,02-351-7565,연중무휴,,37.601077000000004,126.918456,2018-01-03,,300580
8112,toilet/open,역말어린이공원 화장실,서울특별시 은평구 갈현로14길 32,서울특별시 은평구 역촌동 47-1,N,1,2,1,0,0,0,3,1,0,서울특별시 은평구 청소행정과,02-351-7565,연중무휴,,37.606776,126.914092,2018-01-03,,300581
8113,toilet/open,신흥어린이공원 화장실,서울특별시 은평구 증산로21길 25,서울특별시 은평구 신사동 31-2,N,1,2,1,0,0,0,3,1,0,서울특별시 은평구 청소행정과,02-351-7565,연중무휴,,37.596024,126.911825,2018-01-03,,300582
8114,toilet/open,시루뫼어린이공원 화장실,서울특별시 은평구 증산로5길 13,서울특별시 은평구 증산동 185-1,N,1,3,1,0,0,0,3,1,0,서울특별시 은평구 청소행정과,02-351-7565,연중무휴,,37.582856,126.90649199999999,2018-01-03,,300583
8115,toilet/open,분토골어린이공원 화장실,서울특별시 은평구 증산로11길 5,서울특별시 은평구 증산동 163-34,N,1,2,1,0,0,0,1,1,0,서울특별시 은평구 청소행정과,02-351-7565,연중무휴,,37.586715000000005,126.911677,2018-01-03,,300584
8116,toilet/open,까치어린이공원 화장실,서울특별시 은평구 증산로1길 6-21,서울특별시 은평구 증산동 180-1,N,1,2,1,0,0,0,1,1,0,서울특별시 은평구 청소행정과,02-351-7565,연중무휴,,37.579923,126.904078,2018-01-03,,300585
8117,toilet/open,생활체육광장 화장실,서울특별시 은평구 증산로5길 35-27,서울특별시 은평구 증산동 산18-6,N,2,3,1,0,0,0,3,1,0,서울특별시 은평구 청소행정과,02-351-7565,연중무휴,,37.584328,126.903028,2018-01-03,,300586
8118,toilet/open,은평구상징녹지대 화장실,서울특별시 은평구 북한산로 71,서울특별시 은평구 진관동 44,N,2,2,1,0,0,0,4,1,0,서울특별시 은평구 청소행정과,02-351-7565,연중무휴,,37.645271,126.921328,2018-01-03,,300587
8119,toilet/open,진관사입구 화장실,서울특별시 은평구 진관1로 21-10,서울특별시 은평구 진관동 101-2,N,3,3,1,0,0,0,6,1,0,서울특별시 은평구 청소행정과,02-351-7565,연중무휴,,37.633652000000005,126.92081599999999,2018-01-03,,300588
8120,toilet/open,녹번서근린공원 화장실,서울특별시 은평구 녹번로 16,서울특별시 은평구 녹번동 85-1,N,1,1,0,0,0,0,2,0,0,서울특별시 은평구 청소행정과,02-351-7565,연중무휴,,37.6036744,126.927195,2018-01-03,,300589
8121,toilet/open,불광천 화장실,서울특별시 은평구 불광천길 502,서울특별시 은평구 응암동 122-20,N,1,2,0,0,0,0,2,1,0,서울특별시 은평구 청소행정과,02-351-7565,연중무휴,,37.596309000000005,126.91542199999999,2018-01-03,,300590
8122,toilet/open,증산 불광천 화장실,서울특별시 은평구 증산로 251,서울특별시 은평구 증산동 177-24,N,1,1,0,0,0,0,1,1,0,서울특별시 은평구 청소행정과,02-351-7565,연중무휴,,37.580633,126.905833,2018-01-03,,300591
8125,toilet/open,은평구시설관리공단 청사 화장실,서울특별시 은평구 서오릉로 185-1,서울특별시 은평구 구산동 199-19,N,2,2,0,0,0,0,3,0,0,서울특별시 은평구시설관리공단,02-350-5114,(평일)09:00~18:00,,37.612998,126.912675,2018-01-03,,300592
8126,toilet/open,은평문화예술회관 화장실,서울특별시 은평구 녹번로 16,서울특별시 은평구 녹번동 85-4,N,13,23,0,0,0,0,19,0,2,서울특별시 은평구시설관리공단,02-350-5114,(평일)09:00~18:00,,37.603879,126.928347,2018-01-03,,300593
8127,toilet/open,평화공원 지하 공영주차장 화장실 화장실,서울특별시 은평구 서오릉로 지하 47,서울특별시 은평구 녹번동 153-1,N,1,2,0,0,0,0,2,0,0,서울특별시 은평구시설관리공단,02-350-5114,(평일)09:00~18:00,,37.605678000000005,126.92304399999999,2018-01-03,,300594
8128,toilet/open,신사초등학교 화장실,서울특별시 은평구 가좌로 275-2,서울특별시 은평구 신사동 98-32,N,30,63,0,0,0,0,75,0,83,신사초등학교,02-373-9356,(평일)09:00~18:00,,37.592694,126.91225800000001,2018-01-03,,300595
8129,toilet/open,응암3동 공영주차장 화장실,서울특별시 은평구 불광천길 436,서울특별시 은평구 응암3동 580-4,N,2,2,0,0,0,0,1,0,0,서울특별시 은평구시설관리공단,02-350-5114,(평일)09:00~18:00,,37.593462,126.915361,2018-01-03,,300596
8130,toilet/open,새락골어린이공원 화장실,서울특별시 은평구 은평로3가길 34,서울특별시 은평구 신사1동 5-21,N,1,2,1,0,0,0,1,1,0,서울특별시 은평구시설관리공단,02-350-5114,(평일)09:00~18:00,,37.598964,126.911171,2018-01-03,,300597
8131,toilet/open,구산동마을공원 화장실,서울특별시 은평구 서오릉로17길 5-2,서울특별시 은평구 갈현2동 340-1,N,1,1,0,0,0,0,1,0,0,서울특별시 은평구시설관리공단,02-350-5114,(평일)09:00~18:00,,37.614289,126.908999,2018-01-03,,300598
8132,toilet/open,은평구민체육센터 화장실,서울특별시 은평구 진관1로 40,서울특별시 은평구 진관동 362,N,17,23,2,0,3,0,24,2,3,서울특별시 은평구시설관리공단,02-350-5114,(평일)09:00~18:00,,37.630675,126.92330600000001,2018-01-03,,300599
8133,toilet/open,은평구립축구장 화장실,서울특별시 은평구 진관1로 46,서울특별시 은평구 진관동 362-2,N,8,16,1,0,0,0,8,1,0,서울특별시 은평구시설관리공단,02-350-5114,(평일)09:00~18:00,,37.630604999999996,126.9246861,2018-01-03,,300600
8135,toilet/open,선일여자고등학교 화장실,서울특별시 은평구 갈현로29길 27,서울특별시 은평구 갈현동 240-1,N,8,7,0,0,0,0,84,16,0,선일여자고등학교,02-355-9994,(평일)09:00~18:00,,37.619682,126.912454,2018-01-03,,300601
8139,toilet/open,선정중학교 화장실,서울특별시 은평구 서오릉로20길 19,서울특별시 은평구 갈현동 227-5,N,15,22,1,0,0,0,27,0,0,선정중학교,02-3156-1400,(평일)09:00~18:00,,37.618062,126.908774,2018-01-03,,300602
8140,toilet/open,성원E&S㈜은평지점 화장실,서울특별시 은평구 통일로 968,서울특별시 은평구 진관동 240-27,N,1,1,0,0,0,0,2,0,0,성원E&S㈜은평지점,02-352-4451,연중무휴,,37.629234999999994,126.91958799999999,2018-01-03,,300603
8141,toilet/open,세광교회 화장실,서울특별시 은평구 갈현로 192,서울특별시 은평구 갈현동 497-1,N,5,8,0,0,0,0,9,0,0,세광교회,02-388-5101,(평일)04:00~22:00+(주말)04:00~22:00+(공휴일)04:00~22:00,,37.614658,126.91291299999999,2018-01-03,,300604
8142,toilet/open,세명컴퓨터고등학교 화장실,서울특별시 은평구 통일로92가길 33,서울특별시 은평구 불광동 445-35,N,22,30,0,0,0,0,21,0,0,세명컴퓨터고등학교,02-354-1323,(평일)09:00~18:00,,37.627559000000005,126.923464,2018-01-03,,300605
8143,toilet/open,세이브 마트 화장실,서울특별시 은평구 응암로4길 20,서울특별시 은평구 응암동 754-1,N,2,2,0,0,0,0,2,0,0,세이브 마트,02-304-7471,연중무휴,,37.586698,126.917667,2018-01-03,,300606
8144,toilet/open,수리초등학교 화장실,서울특별시 은평구 연서로 364,서울특별시 은평구 불광동 17,N,28,42,0,0,0,0,63,0,0,수리초등학교,02-353-9430,(평일)09:00~18:00,,37.618837,126.933479,2018-01-03,,300607
8145,toilet/open,수색센터 화장실,서울특별시 은평구 수색로 402,서울특별시 은평구 수색동 403,N,1,1,0,0,0,0,1,0,0,수색치안센터,02-372-7840,연중무휴,,37.589518,126.883771,2018-01-03,,300608
8146,toilet/open,수색제일주유소 화장실,서울특별시 은평구 수색로 236,서울특별시 은평구 수색동 154-5,N,1,1,0,0,0,0,1,0,0,수색제일주유소,02-372-8217,연중무휴,,37.581062,126.897676,2018-01-03,,300609
8147,toilet/open,숭실중학교 화장실,서울특별시 은평구 은평터널로7길 6,서울특별시 은평구 신사동300-89,N,53,56,0,0,0,0,44,0,0,숭실중학교,02-373-7641,(평일)09:00~18:00,,37.593114,126.90404299999999,2018-01-03,,300610
8148,toilet/open,신광주유소 화장실,서울특별시 은평구 수색로 350,서울특별시 은평구 수색동 314-1,N,1,1,0,0,0,0,1,0,0,신광주유소,02-302-8583,연중무휴,,37.587129,126.88750900000001,2018-01-03,,300611
8151,toilet/open,신사1센터 화장실,서울특별시 은평구 은평로 28,서울특별시 은평구 신사동 29-10,N,1,1,0,0,0,0,2,0,0,신사1치안센터,02-302-9904,연중무휴,,37.597854,126.91097009999999,2018-01-03,,300612
8152,toilet/open,신사제일주유소 화장실,서울특별시 은평구 증산로 423,"서울특별시 은평구 신사동 35-11,50",N,2,1,0,0,0,0,2,0,0,신사제일주유소,02-308-4333,연중무휴,,37.594062,126.91399399999999,2018-01-03,,300613
8154,toilet/open,신진자동차고등학교 화장실,서울특별시 은평구 은평로6길 16,서울특별시 은평구 응암동 114-1,N,42,55,1,0,0,0,23,1,0,신진자동차고등학교,02-385-3451,(평일)09:00~18:00,,37.598345,126.918291,2018-01-03,,300614
8155,toilet/open,은진초등학교 화장실,서울특별시 은평구 진관1로 21-20,서울특별시 은평구 진관동 165-32,N,19,47,9,0,0,0,94,9,0,씨앤에스자산관리,02-351-3561,연중무휴,,37.633164,126.92159299999999,2018-01-03,,300615
8157,toilet/open,역촌1치안센터 화장실,서울특별시 은평구 연서로6길 19,서울특별시 은평구 역촌동 23-34,N,2,2,0,0,0,0,2,0,0,역촌1치안센터,02-385-0552,연중무휴,,37.604405,126.91790900000001,2018-01-03,,300616
8158,toilet/open,역촌중앙시장 화장실,서울특별시 은평구 연서로17길 18-6,서울특별시 은평구 갈현동 467-1,N,3,2,0,0,0,0,3,0,0,역촌중앙시장,02-359-8595,(평일)04:00~23:00+(주말)04:00~23:00+(공휴일)04:00~23:00,,37.613229,126.916195,2018-01-03,,300617
8160,toilet/open,역촌초등학교 화장실,서울특별시 은평구 은평로3길 25,서울특별시 은평구 역촌동 82-1번지,N,37,64,9,0,0,0,56,4,0,역촌초등학교,02-352-2245,(평일)09:00~18:00,,37.601643,126.914336,2018-01-03,,300618
8161,toilet/open,연서시장 화장실,서울특별시 은평구 통일로 850,서울특별시 은평구 불광동 310-131,N,4,4,0,0,0,0,5,0,0,연서시장,02-359-2840,연중무휴,,37.619408,126.921951,2018-01-03,,300619
8162,toilet/open,연서이엔에쓰주유소 화장실,서울특별시 은평구 연서로 212,서울특별시 은평구 대조동 199-28,N,1,1,0,0,0,0,1,0,0,연서이엔에쓰주유소,02-351-4100,연중무휴,,37.617135,126.91966200000002,2018-01-03,,300620
8163,toilet/open,연서중학교 화장실,서울특별시 은평구 증산서길 125-6,서울특별시 은평구 증산동 193-21,N,30,51,0,0,0,0,57,0,0,연서중학교,02-6715-8000,(평일)09:00~18:00,,37.586988,126.909986,2018-01-03,,300621
8164,toilet/open,연신내메디컬센타 화장실,서울특별시 은평구 연서로 246,서울특별시 은평구 불광동 308-10,N,2,2,0,0,0,0,2,0,0,연신내메디컬센타,02-382-8123,(평일)08:00~20:00+(주말)04:00~23:00+(공휴일)04:00~23:00,,37.619021200000006,126.92257790000001,2018-01-03,,300622
8167,toilet/open,연신초등학교 화장실,서울특별시 은평구 연서로 347,서울특별시 은평구 불광동 73-1,N,15,28,1,0,0,0,35,1,0,연신초등학교,02-387-0373,(평일)09:00~18:00,,37.626278000000006,126.928343,2018-01-03,,300623
8168,toilet/open,연천중학교 화장실,서울특별시 은평구 연서로41길 30,서울특별시 은평구 불광동 산143-1,N,18,38,1,0,0,0,36,1,0,연천중학교,02-354-0514,(평일)09:00~18:00,,37.627454,126.92585600000001,2018-01-03,,300624
8169,toilet/open,연천초등학교 화장실,서울특별시 은평구 연서로34길 22,서울특별시 은평구 불광동 346-153,N,32,52,2,0,0,0,38,2,0,연천초등학교,02-357-3911,(평일)09:00~18:00,,37.620773,126.929317,2018-01-03,,300625
8172,toilet/open,예일디자인고등학교 화장실,서울특별시 은평구 연서로 117,서울특별시 은평구 구산동 8-3,N,3,2,0,0,0,0,43,0,0,예일디자인고등학교,02-380-0999,(평일)09:00~18:00,,37.610782,126.914657,2018-01-03,,300626
8176,toilet/open,은경빌딩 화장실,서울특별시 은평구 은평로 136,서울특별시 은평구 응암동 98-65,N,2,2,0,0,0,0,2,0,0,은경빌딩,02-355-7444,연중무휴,,37.600198999999996,126.92300900000001,2018-01-03,,300627
8177,toilet/open,은명초등학교 화장실,서울특별시 은평구 은평로4길 21-9,서울특별시 은평구 응암1동 114-12,N,25,68,4,0,6,0,91,1,0,은명초등학교,02-359-9517,(평일)09:00~18:00,,37.597634,126.918369,2018-01-03,,300628
8178,toilet/open,은평경찰서 화장실,서울특별시 은평구 연서로 365,서울특별시 은평구 불광동 산24,N,33,34,4,0,0,0,17,1,0,은평경찰서,02-356-0112,연중무휴,,37.628128000000004,126.928599,2018-01-03,,300629
8179,toilet/open,은평고등학교 화장실,서울특별시 은평구 갈현로15길 51,서울특별시 은평구 구산동 산41-1,N,25,41,0,0,0,0,63,0,0,은평고등학교,02-383-0873,(평일)09:00~18:00,,37.609008,126.905973,2018-01-03,,300630
8180,toilet/open,은평뉴타운주유소 화장실,서울특별시 은평구 통일로 924,서울특별시 은평구 불광동 493,N,2,2,0,0,0,0,2,0,0,은평뉴타운주유소,02-355-0349,연중무휴,,37.6252814,126.920371,2018-01-03,,300631
8181,toilet/open,은평드림 화장실,서울특별시 은평구 통일로 1151,서울특별시 은평구 진관동 73-22,N,1,2,0,0,0,0,2,0,0,은평드림주유소,02-354-5182,연중무휴,,37.643837,126.912374,2018-01-03,,300632
8182,toilet/open,은평소방서 화장실,서울특별시 은평구 통일로 962,서울특별시 은평구 진관동 240-9,N,10,11,1,0,0,0,7,1,0,은평소방서,02-355-0119,연중무휴,,37.628725,126.92002600000001,2018-01-03,,300633
8185,toilet/open,수색119안전센터 화장실,서울특별시 은평구 수색로 294,서울특별시 은평구 수색동 330-1,N,1,2,0,0,0,0,1,0,0,은평소방서,02-307-0041,연중무휴,,37.584072,126.892027,2018-01-03,,300634
8186,toilet/open,은평우체국 화장실,서울특별시 은평구 은평로9길 13,서울특별시 은평구 응암동 89-1,N,4,6,2,0,0,0,4,2,0,은평우체국,02-350-3514,(평일)09:00~18:00,,37.601327000000005,126.921204,2018-01-03,,300635
8187,toilet/open,은평장례식장 화장실,서울특별시 은평구 통일로 937,서울특별시 은평구 갈현동 390,N,3,4,1,0,0,0,4,1,0,은평장례식장,02-391-1024,연중무휴,,37.626604,126.919604,2018-01-03,,300636
8188,toilet/open,은평주유소 화장실,서울특별시 은평구 은평로 194,서울특별시 은평구 응암동 81-173,N,1,1,0,0,0,0,2,0,0,은평주유소,02-355-3509,연중무휴,,37.6011049,126.92923600000002,2018-01-03,,300637
8189,toilet/open,은평중학교 화장실,서울특별시 은평구 갈현로17나길 12-1,서울특별시 은평구 구산동 산27,N,20,26,1,0,0,0,35,0,0,은평중학교,02-382-3545,(평일)09:00~18:00,,37.610568,126.909042,2018-01-03,,300638
8190,toilet/open,은혜초등학교 화장실,서울특별시 은평구 통일로78가길 20,서울특별시 은평구 불광동 331-27,N,12,20,2,0,0,0,22,2,0,은혜초등학교,02-355-3912,(평일)09:00~18:00,,37.617781,126.92732099999999,2018-01-03,,300639
8191,toilet/open,응암3파출소 화장실,서울특별시 은평구 응암로 208,서울특별시 은평구 응암동 576-42,N,1,1,0,0,0,0,2,0,0,응암3파출소,02-302-0214,연중무휴,,37.590517,126.9175249,2018-01-03,,300640
8192,toilet/open,응암4센터 화장실,서울특별시 은평구 가좌로7라길 1,서울특별시 은평구 응암동 696,N,1,1,0,0,0,0,2,0,0,응암4치안센터,02-302-9903,연중무휴,,37.585875,126.917294,2018-01-03,,300641
8194,toilet/open,응암주유소 화장실,서울특별시 은평구 응암로 279,서울특별시 은평구 응암동 117-54,N,1,2,0,0,0,0,2,0,0,응암주유소,02-355-3717,연중무휴,,37.596751,126.91931100000001,2018-01-03,,300642
8195,toilet/open,응암지구대 화장실,서울특별시 은평구 은평로 171,서울특별시 은평구 응암동 84-8,N,1,1,0,0,0,0,2,0,0,응암지구대,02-352-4289,연중무휴,,37.601546,126.926433,2018-01-03,,300643
8196,toilet/open,㈜에스지주유소 화장실,서울특별시 은평구 증산로 371,서울특별시 은평구 신사동 338-4,N,1,2,0,0,0,0,2,0,0,㈜에스지주유소,02-373-5752,연중무휴,,37.589447,126.912838,2018-01-03,,300644
8197,toilet/open,증산센터 화장실,서울특별시 은평구 증산서길 82,서울특별시 은평구 증산동 186-11,N,1,1,0,0,0,0,2,0,0,증산치안센터,02-373-5200,연중무휴,,37.583543,126.906798,2018-01-03,,300645
8198,toilet/open,증산종합시장 화장실,서울특별시 은평구 증산로3길 12,서울특별시 은평구 증산동 184-9,N,3,2,0,0,0,0,3,0,0,증산종합시장,02-373-5990,연중무휴,,37.581419,126.905041,2018-01-03,,300646
8199,toilet/open,증산주유소 화장실,서울특별시 은평구 증산로 275,서울특별시 은평구 증산동 174-1,N,1,1,0,0,0,0,1,0,0,증산주유소,02-303-4446,연중무휴,,37.58229,126.907587,2018-01-03,,300647
8203,toilet/open,진관중학교 화장실,서울특별시 은평구 진관4로 36,서울특별시 은평구 진관동 394-3,N,33,47,0,0,0,0,73,0,0,진관중학교,02-383-5378,(평일)09:00~18:00,,37.643895,126.925574,2018-01-03,,300648
8204,toilet/open,청구성심병원 화장실,서울특별시 은평구 통일로 873,서울특별시 은평구 갈현동 395-1,N,1,2,0,0,0,0,3,0,0,청구성심병원,02-353-5511,연중무휴,,37.620729,126.9194449,2018-01-03,,300649
8205,toilet/open,충암고등학교 화장실,서울특별시 은평구 가좌로5길 5,서울특별시 은평구 응암3동 산9-1,N,39,55,1,0,0,0,5,0,0,충암고등학교,02-309-0236,(평일)09:00~18:00,,37.585122999999996,126.92184499999999,2018-01-03,,300650
8208,toilet/open,코끼리주유소 화장실,서울특별시 은평구 서오릉로 41,서울특별시 은평구 녹번동 154-1,N,1,2,0,0,0,0,1,0,0,코끼리주유소,02-384-4000,연중무휴,,37.604489,126.924125,2018-01-03,,300651
8209,toilet/open,타이거주유소 화장실,서울특별시 은평구 수색로 188,서울특별시 은평구 증산동 222-6,N,1,1,0,0,0,0,1,0,0,타이거주유소,02-309-9145,연중무휴,,37.578417,126.901983,2018-01-03,,300652
8210,toilet/open,파레제페빌딩 화장실,서울특별시 은평구 통일로 830,서울특별시 은평구 불광동 304-2,N,1,1,0,0,0,0,3,0,0,파레제페빌딩,02-357-5900,연중무휴,,37.6177691,126.92273200000001,2018-01-03,,300653
8211,toilet/open,한국보건사회연구원 화장실,서울특별시 은평구 진흥로 235,서울특별시 은평구 불광동 산42-14,N,17,20,2,0,0,0,20,1,0,한국보건사회연구원,02-380-8000,(평일)09:00~18:00,,37.610138,126.93496200000001,2018-01-03,,300654
8212,toilet/open,한국여성정책연구원 화장실,서울특별시 은평구 진흥로 225,서울특별시 은평구 불광동 1-363,N,22,31,1,0,0,0,84,2,0,한국여성정책연구원,02-3156-7000,(평일)09:00~18:00,,37.610679,126.93519450000001,2018-01-03,,300655
8213,toilet/open,한국철도공사수색역 화장실,서울특별시 은평구 수색로 269-50,서울특별시 은평구 수색동 380,N,3,4,0,0,0,0,4,1,0,한국철도공사,02-374-4768,(평일)09:00~18:00,,37.581801,126.893883,2018-01-03,,300656
8214,toilet/open,한빛주유소 화장실,서울특별시 은평구 서오릉로 102,서울특별시 은평구 대조동 172-134,N,2,2,0,0,0,0,2,0,0,한빛주유소,02-386-8989,연중무휴,,37.6092515,126.92063799999998,2018-01-03,,300657
8215,toilet/open,흥일주유소 화장실,서울특별시 은평구 가좌로 319,서울특별시 은평구 신사동 40-2,N,1,1,0,0,0,0,1,0,0,흥일주유소,02-309-5151,연중무휴,,37.595876000000004,126.909449,2018-01-03,,300658
15867,toilet/open,세곡동공중화장실 화장실,서울특별시 강남구 밤고개로31길 9,서울특별시 강남구 세곡동96-5,Y,2,3,1,0,0,0,3,0,0,강남구청청소행정과,02-3423-5965,연중무휴,1986-08,37.4654108734,127.109298203,2017-11-17,,300659
15905,toilet/open,모래내공원 화장실,서울특별시 관악구 낙성대동 1613-19,서울특별시 관악구 낙성대동 1613-9,N,1,2,0,0,0,0,3,0,0,서울특별시 관악구청,02-879-6274,24시간,2008-05,37.477814951199996,126.955627711,2017-11-24,,300660
15906,toilet/open,신대방 화장실,서울특별시 관악구 난곡로 374,서울특별시 관악구 신림동 516,N,1,3,1,0,0,0,4,1,0,서울특별시 관악구청,02-879-6274,24시간,2011-05,37.487371067699996,126.91339698899999,2017-11-24,,300661
15907,toilet/open,봉림 화장실,서울특별시 관악구 신림동 1433-158,서울특별시 관악구 신림동 1433-158,N,2,3,1,0,0,0,4,1,0,서울특별시 관악구청,02-879-6274,24시간,2008-09,37.4841326326,126.926371621,2017-11-24,,300662
15908,toilet/open,삼성동1-4 화장실,서울특별시 관악구 원신길 49-1,서울특별시 관악구 신림동 808-142,N,2,1,0,0,0,0,2,0,0,서울특별시 관악구청,02-879-6274,24시간,1981-06,37.4700264193,126.93238585700001,2017-11-24,,300663
15909,toilet/open,삼성동1-5 화장실,서울특별시 관악구 원신길 59,서울특별시 관악구 신림동 808-501,N,1,0,0,0,0,0,1,0,0,서울특별시 관악구청,02-879-6274,24시간,1997-08,37.469730735,126.93211934,2017-11-24,,300664
15910,toilet/open,삼성동1-6 화장실,서울특별시 관악구 원신2길 12-7,서울특별시 관악구 신림동 808-117,N,2,2,0,0,0,0,2,0,0,서울특별시 관악구청,02-879-6274,24시간,1981-07,37.4715183726,126.932176508,2017-11-24,,300665
15911,toilet/open,삼성동1-7 화장실,서울특별시 관악구 원신길 48-1,서울특별시 관악구 신림동 808-495,N,1,0,0,0,0,0,1,0,0,서울특별시 관악구청,02-879-6274,24시간,1997-11,37.4701993692,126.932308831,2017-11-24,,300666
15912,toilet/open,삼성동1-8 화장실,서울특별시 관악구 원신길 90-5,서울특별시 관악구 신림동 808-498,N,2,1,0,0,0,0,2,0,0,서울특별시 관악구청,02-879-6274,24시간,1984-10,37.4686812171,126.93084064899999,2017-11-24,,300667
15913,toilet/open,삼성동1-9 화장실,서울특별시 관악구 원신4길 25-2,서울특별시 관악구 신림동 808-502,N,1,0,0,0,0,0,1,0,0,서울특별시 관악구청,02-879-6274,24시간,1997-11,37.4685664136,126.93174509200001,2017-11-24,,300668
15914,toilet/open,삼성동1-10 화장실,서울특별시 관악구 원신길 75,서울특별시 관악구 신림동 808-502,N,1,2,1,0,0,0,2,1,0,서울특별시 관악구청,02-879-6274,24시간,1983-12,37.469222289,126.931640496,2017-11-24,,300669
15915,toilet/open,삼성동1-11 화장실,서울특별시 관악구 원신길 108-5,서울특별시 관악구 신림동 808-499,N,2,1,0,0,0,0,2,0,0,서울특별시 관악구청,02-879-6274,24시간,1984-10,37.4680071183,126.93059709999999,2017-11-24,,300670
15916,toilet/open,삼성동1-12 화장실,서울특별시 관악구 원신2길 68-7,서울특별시 관악구 신림동 808-497,Y,2,2,0,0,0,0,2,0,0,서울특별시 관악구청,02-879-6274,24시간,1997-08,37.4699464755,126.931250964,2017-11-24,,300671
15917,toilet/open,삼성동1-13 화장실,서울특별시 관악구 원신5길 24-5,서울특별시 관악구 신림동 808-503,Y,1,0,0,0,0,0,0,0,0,서울특별시 관악구청,02-879-6274,24시간,1997-08,37.468328368899996,126.931437835,2017-11-24,,300672
15918,toilet/open,조원동 화장실,서울특별시 관악구 신림동 1677-5,서울특별시 관악구 신림동 1677-5,N,2,3,1,0,0,0,4,0,0,서울특별시 관악구청,02-879-6274,24시간,2009-03,37.484786342,126.903287292,2017-11-24,,300673
15919,toilet/open,삼성동1-15 화장실,서울특별시 관악구 신우길 3,서울특별시 관악구 신림동 산69-18,N,2,2,0,0,0,0,3,0,0,서울특별시 관악구청,02-879-6274,24시간,1986-05,37.4619318708,126.93262373299999,2017-11-24,,300674
15920,toilet/open,삼성동1-16 화장실,서울특별시 관악구 원신10길 12,서울특별시 관악구 신림동 산57-1,N,2,2,0,0,0,0,3,0,0,서울특별시 관악구청,02-879-6274,24시간,1986-05,37.4605354066,126.92970880799999,2017-11-24,,300675
15921,toilet/open,삼성동2-1 화장실,서울특별시 관악구 원신길 183-8,서울특별시 관악구 신림동 808-606,N,1,1,0,0,0,0,1,0,0,서울특별시 관악구청,02-879-6274,24시간,2003-11,37.464954300100004,126.930269855,2017-11-24,,300676
15922,toilet/open,삼성동2-2 화장실,서울특별시 관악구 원신길 173-3,서울특별시 관악구 신림동 304-18,N,1,1,0,0,0,0,1,0,0,서울특별시 관악구청,02-879-6274,24시간,2002-06,37.465329227199994,126.930450367,2017-11-24,,300677
15923,toilet/open,삼성동2-3 화장실,서울특별시 관악구 원신길 157,서울특별시 관악구 신림동 808-505,N,1,1,0,0,0,0,1,0,0,서울특별시 관악구청,02-879-6274,24시간,2004-10,37.4660787615,126.930268811,2017-11-24,,300678
15924,toilet/open,삼성동2-4 화장실,서울특별시 관악구 밤골길 9-3,서울특별시 관악구 신림동 산 60,Y,4,0,0,0,0,0,0,0,0,서울특별시 관악구청,02-879-6274,24시간,1986-05,37.4623238727,126.931167518,2017-11-24,,300679
15925,toilet/open,삼성동2-5 화장실,서울특별시 관악구 원신9길 33-2,서울특별시 관악구 신림동 산79-4,N,1,0,0,0,0,0,1,0,0,서울특별시 관악구청,02-879-6274,24시간,2004-10,37.460394451599996,126.929044324,2017-11-24,,300680
15926,toilet/open,삼성동2-6 화장실,서울특별시 관악구 원신9길 49-3,서울특별시 관악구 신림동 산78-9,N,1,1,0,0,0,0,1,0,0,서울특별시 관악구청,02-879-6274,24시간,2002-06,37.4596264518,126.928484427,2017-11-24,,300681
15927,toilet/open,예촌어린이공원 화장실,서울특별시 관악구 남현길 41,서울특별시 관악구 남현동 1083-1,N,1,2,1,0,0,0,3,0,0,서울특별시 관악구청,02-879-6274,24시간,2010-02,37.4747071106,126.97677469999999,2017-11-24,,300682
15928,toilet/open,서울대정문 화장실,서울특별시 관악구 신림로 1,서울특별시 관악구 신림동 808-124,N,2,2,0,0,0,0,2,0,0,서울특별시 관악구청,02-879-6274,24시간,2007-12,37.4668986533,126.94765808,2017-11-24,,300683
17677,toilet/open,천호역공영주차장 화장실 화장실,서울특별시 강동구 천호대로 1015 (천호동),서울특별시 강동구 천호동 455,N,20,28,2,0,0,0,20,4,0,서울특별시시설관리공단,02-2290-6449,24시간,,37.538507,127.125128,2017-11-15,,300684
17678,toilet/open,도봉산역공영주차장 화장실 화장실,서울특별시 도봉구 도봉로 955  (도봉동),서울특별시 도봉구 도봉동 288-19,N,4,8,1,0,1,0,17,1,1,서울특별시시설관리공단,02-2290-6449,24시간,,37.689719000000004,127.044822,2017-11-15,,300685
17679,toilet/open,잠실역공영주차장 화장실 화장실,서울특별시 송파구 올림픽로 300 (신천동),서울특별시 송파구 신천동 29,N,3,4,0,0,0,0,4,0,0,서울특별시시설관리공단,02-2290-6449,24시간,,37.513118,127.103524,2017-11-15,,300686
17680,toilet/open,화랑대역공영주차장 화장실 화장실,서울특별시 중랑구 신내로 277 (묵동),서울특별시 중랑구 묵동 7,N,1,1,0,0,0,0,1,0,0,서울특별시시설관리공단,02-2290-6449,24시간,,37.620090000000005,127.08668999999999,2017-11-15,,300687
17681,toilet/open,복정역공영주차장 화장실 화장실,서울특별시 송파구 송파대로 지하 6 (장지동),서울특별시 송파구 장지동 596-21,N,5,4,1,0,0,0,8,1,0,서울특별시시설관리공단,02-2290-6449,24시간,,37.471045000000004,127.12675800000001,2017-11-15,,300688
17682,toilet/open,종묘공영주차장 화장실 화장실,서울특별시 종로구 종로 157 (훈정동),서울특별시 종로구 훈정동 1-2,N,8,11,0,0,0,0,6,0,0,서울특별시시설관리공단,02-2290-6449,24시간,,37.574496,126.994045,2017-11-15,,300689
17683,toilet/open,세종로공영주차장화장실 화장실,서울특별시 종로구 세종대로 지하189  (세종로),서울특별시 종로구 세종로 80-1,N,4,6,0,0,0,0,4,0,0,서울특별시시설관리공단,02-2290-6449,24시간,,37.573397,126.975866,2017-11-15,,300690
17684,toilet/open,용산주차빌딩 화장실 화장실,서울특별시 용산구 새창로49길 42  (한강로2가),서울특별시 용산구 한강로2가 12-12,N,2,3,0,0,0,0,2,0,0,서울특별시시설관리공단,02-2290-6449,24시간,,37.534288000000004,126.965325,2017-11-15,,300691
17685,toilet/open,영남주차장 화장실 화장실,서울특별시 영등포구 영등포로34길 9 (영등포동4가),서울특별시 영등포구 영등포동4가 123,N,3,4,0,0,0,0,2,0,0,서울특별시시설관리공단,02-2290-6449,24시간,,37.519465000000004,126.902608,2017-11-15,,300692
17686,toilet/open,구파발역환승센터 화장실 화장실,서울특별시 은평구 진관2로 15-40,서울특별시 은평구 진관동 70-1,N,6,7,1,0,0,0,12,2,0,서울특별시시설관리공단,02-2290-6449,24시간,,37.638085,126.919142,2017-11-15,,300693
17687,toilet/open,개화역환승센터 화장실 화장실,서울특별시 강서구 개화동로8길 19  (개화동),서울특별시 강서구 개화동 490-3,N,3,4,1,0,1,0,8,1,1,서울특별시시설관리공단,02-2290-6449,24시간,,37.577917,126.798208,2017-11-15,,300694
17688,toilet/open,천왕역환승센터 화장실 화장실,서울특별시 구로구 오리로 지하1154  (오류동),서울특별시 구로구 오류동 174-5,N,5,5,0,0,0,0,5,0,0,서울특별시시설관리공단,02-2290-6449,24시간,,37.4866,126.83888999999999,2017-11-15,,300695
17689,toilet/open,마포유수지 화장실 화장실,서울특별시 마포구 마포대로1길 9  (마포동),서울특별시 마포구 마포동 36-1,N,3,1,1,0,0,0,3,1,0,서울특별시시설관리공단,02-2290-6449,24시간,,37.538790000000006,126.942649,2017-11-15,,300696
17690,toilet/open,남부여성주차장 화장실 화장실,서울특별시 금천구 독산로50길 23  (시흥동),서울특별시 금천구 시흥동 산139-2,N,1,2,1,0,0,0,1,0,0,서울특별시시설관리공단,02-2290-6449,24시간,,37.463149,126.90603899999999,2017-11-15,,300697
17691,toilet/open,동대문주차장 화장실 화장실,서울특별시 중구 마장로 22  (신당동),서울특별시 중구 신당동 251-7,N,3,3,0,0,0,0,4,0,0,서울특별시시설관리공단,02-2290-6449,24시간,,37.567161,127.01213200000001,2017-11-15,,300698
17692,toilet/open,봉화산주차장 화장실 화장실,서울특별시 중랑구 봉화산로 190 (신내동),서울특별시 중랑구 신내동 665,N,2,2,0,0,0,0,2,0,0,서울특별시시설관리공단,02-2290-6449,24시간,,37.606218,127.09418899999999,2017-11-15,,300699
17693,toilet/open,사당주차장 화장실 화장실,서울특별시 서초구 과천대로 950-18 (방배동),서울특별시 서초구 방배동 507-1,N,1,1,0,0,0,0,1,0,0,서울특별시시설관리공단,02-2290-6449,24시간,,37.475302,126.98376299999998,2017-11-15,,300700
17990,toilet/open,SK네트웍스(주) 북악주유소 화장실,서울특별시 성북구 정릉로 218,서울특별시 성북구 정릉동 428,n,1,1,0,0,0,0,1,0,0,서울특별시 성북구청 환경과,02-911-5189,연중무휴,2017-10-31,37.605566700000004,127.0085108,2017-10-31,,300701
17991,toilet/open,SK네트웍스(주) 아리랑주유소 화장실,서울특별시 성북구 아리랑로 96,서울특별시 성북구 정릉통 8,n,2,2,0,0,0,0,1,0,0,서울특별시 성북구청 환경과,02-941-5189,연중무휴,2017-10-31,37.6005313,127.01419879999999,2017-10-31,,300702
17992,toilet/open,SK네트웍스(주) 장삼주유소 화장실,서울특별시 성북구 한천로 612,서울특별시 성북구 장위동 43-32,n,2,2,0,0,0,0,2,0,0,서울특별시 성북구청 환경과,02-909-0314,연중무휴,2017-10-31,37.6136312,127.06019840000002,2017-10-31,,300703
17993,toilet/open,SK네트웍스(주) 한천로주유소 화장실,서울특별시 성북구 한천로 727,서울특별시 성북구 장위동 165-11,n,2,2,0,0,0,0,2,0,0,서울특별시 성북구청 환경과,02-909-2900,연중무휴,2017-10-31,37.6215551,127.0518436,2017-10-31,,300704
17994,toilet/open,SK에너지(주) 드림랜드주유소 화장실,서울특별시 성북구 월계로 128,서울특별시 성북구 장위동 219-43,n,1,2,0,0,0,0,1,0,0,서울특별시 성북구청 환경과,02-916-9906,연중무휴,2017-10-31,37.616609499999996,127.04139380000001,2017-10-31,,300705
17995,toilet/open,SK에너지(주) 미도주유소 화장실,서울특별시 성북구 동소문로 211,서울특별시 성북구 돈암동 30-53,n,2,1,0,0,0,0,1,0,0,서울특별시 성북구청 환경과,02-928-0666,연중무휴,2017-10-31,37.6010584,127.02156129999999,2017-10-31,,300706
18067,toilet/open,신방주유소 화장실,서울특별시 성북구 안암로 111,서울특별시 성북구 안암동5가 82-1,n,1,1,0,0,0,0,1,0,0,서울특별시 성북구청 환경과,02-922-5151,연중무휴,2017-10-31,37.5855374,127.0317962,2017-10-31,,300707
18080,toilet/open,개운산근린공원화장실 화장실,서울특별시 성북구 북악산로 949-73,서울특별시 성북구 돈암동 산 6-1,n,3,3,1,1,0,0,5,1,1,서울특별시 성북구청 공원녹지과,02-920-9785,연중무휴,2017-10-31,37.598114100000004,127.0253905,2017-10-31,,300708
18081,toilet/open,고려주유소 화장실,서울특별시 성북구 종암로 17,서울특별시 성북구 종암동 29-10,n,1,1,0,0,0,0,1,0,0,서울특별시 성북구청 환경과,02-923-5277,연중무휴,2017-10-31,37.5919857,127.0360382,2017-10-31,,300709
18082,toilet/open,그린에너지(주)직영 종암주유소 화장실,서울특별시 성북구 종암로 145,서울특별시 성북구 종암동 3-545,n,1,1,0,0,0,0,1,0,0,서울특별시 성북구청 환경과,02-923-9908,연중무휴,2017-10-31,37.6027771,127.0320297,2017-10-31,,300710
18083,toilet/open,꿈나라어린이공원 화장실 화장실,서울특별시 성북구 보문동7가,서울특별시 성북구 보문동 108-2,n,1,2,0,0,0,0,2,0,0,서울특별시 성북구청 공원녹지과,02-920-3781,연중무휴,2017-10-31,37.5800534,127.0230236,2017-10-31,,300711
18084,toilet/open,돈암마을마당 화장실,서울특별시 성북구 동소문로 179-16,서울특별시 성북구 돈암동 51-54,n,2,3,0,0,0,0,4,0,0,서울특별시 성북구청 청소행정과,02-2241-4422,연중무휴,2017-10-31,37.597894700000005,127.02132209999999,2017-10-31,,300712
18085,toilet/open,동일주유소 화장실,서울특별시 성북구 보문로 85,서울특별시 성북구 보문동5가 146-7,n,1,1,0,0,0,0,1,0,0,서울특별시 성북구청 환경과,02-923-4949,연중무휴,2017-10-31,37.5829573,127.02035409999999,2017-10-31,,300713
18086,toilet/open,모랫말근린공원 화장실 화장실,서울특별시 성북구 월곡동,서울특별시 성북구 하월곡동 90-206,n,1,1,0,0,0,0,1,0,0,서울특별시 성북구청 공원녹지과,02-920-3781,연중무휴,2017-10-31,37.6048579,127.0327834,2017-10-31,,300714
18087,toilet/open,보문동 화장실,서울특별시 성북구 보문로 106-17,서울특별시 성북구 보문동1가 147-36,n,2,1,0,0,0,0,3,0,0,서울특별시 성북구청 청소행정과,02-2241-4422,연중무휴,2017-10-31,37.584858600000004,127.01991059999999,2017-10-31,,300715
18088,toilet/open,북선 화장실,서울특별시 성북구 종암동,서울특별시 성북구 종암동 산 2-27,n,2,3,1,1,0,0,2,1,1,서울특별시 성북구청 청소행정과,02-2241-4422,연중무휴,2017-10-31,37.5963421,127.02854769999999,2017-10-31,,300716
18089,toilet/open,북악숲속 화장실,서울특별시 성북구 정릉로6길 48,서울특별시 성북구 정릉동 1-345,n,2,5,1,1,0,0,5,1,1,서울특별시 성북구청 청소행정과,02-2241-4422,연중무휴,2017-10-31,37.6105396,126.9939893,2017-10-31,,300717
18090,toilet/open,북한산 에코체험관 화장실 화장실,서울특별시 성북구 정릉동,서울특별시 성북구 정릉동 산 87-102,n,1,1,0,0,0,0,1,0,0,서울특별시 성북구청 공원녹지과,02-2241-3690,연중무휴,2017-10-31,37.6044281,127.0072894,2017-10-31,,300718
18092,toilet/open,북한산생태숲화장실 화장실,서울특별시 성북구 정릉동,서울특별시 성북구 정릉동 산 12-3,n,3,3,0,0,0,0,7,0,0,서울특별시 성북구청 공원녹지과,02-2241-3690,연중무휴,2017-10-31,37.6208844,127.00667340000001,2017-10-31,,300719
18093,toilet/open,삼선어린이공원 화장실 화장실,서울특별시 성북구 삼선교로16길 116,서울특별시 성북구 삼선동2가 374,n,3,3,0,0,0,0,2,0,0,서울특별시 성북구청 공원녹지과,02-2241-3690,연중무휴,2017-10-31,37.5832289,127.01037659999999,2017-10-31,,300720
18094,toilet/open,삼선주유소 화장실,서울특별시 성북구 창경궁로 324,서울특별시 성북구 삼선동1가 12-1,n,2,2,0,0,0,0,2,0,0,서울특별시 성북구청 환경과,02-766-5106,연중무휴,2017-10-31,37.587976399999995,127.00552140000002,2017-10-31,,300721
18095,toilet/open,상월곡동 화장실,서울특별시 성북구 장월로3길 47,서울특별시 성북구 상월곡동,n,2,2,0,0,0,0,2,0,0,서울특별시 성북구청 청소행정과,02-2241-4422,연중무휴,2017-10-31,37.6091998,127.0454537,2017-10-31,,300722
18096,toilet/open,새천년주유소 화장실,서울특별시 성북구 화랑로 180,서울특별시 성북구 상월곡동 23-36,n,2,1,0,0,0,0,1,0,0,서울특별시 성북구청 환경과,02-964-0302,연중무휴,2017-10-31,37.607231299999995,127.05056370000001,2017-10-31,,300723
18097,toilet/open,성북2동 화장실,서울특별시 성북구 성북로26길 60,서울특별시 성북구 성북동 303-17,n,2,1,0,0,0,0,2,0,0,서울특별시 성북구청 청소행정과,02-2241-4422,연중무휴,2017-10-31,37.59632620000001,126.9936904,2017-10-31,,300724
18098,toilet/open,성북근린공원화장실 화장실,서울특별시 성북구 성북로4길 177,서울특별시 성북구 돈암동 616-361,n,3,3,1,1,0,0,3,1,1,서울특별시 성북구청 공원녹지과,02-2241-3690,연중무휴,2017-10-31,37.595145,127.00759579999999,2017-10-31,,300725
18099,toilet/open,성북성터 화장실,서울특별시 성북구 성북로23길 135-3,서울특별시 성북구 성북동 224-147,n,2,2,0,0,0,0,2,0,0,서울특별시 성북구청 청소행정과,02-2241-4422,연중무휴,2017-10-31,37.5927439,126.99124920000001,2017-10-31,,300726
18100,toilet/open,성북주유소 화장실,서울특별시 성북구 보문로 142,서울특별시 성북구 보문동1가 9-11,n,1,2,0,0,0,0,2,0,0,서울특별시 성북구청 환경과,02-928-4900,연중무휴,2017-10-31,37.587666299999995,127.01837420000001,2017-10-31,,300727
18101,toilet/open,세창주유소 화장실,서울특별시 성북구 동소문로47길 8,서울특별시 성북구 길음동 21-72,n,1,1,0,0,0,0,1,0,0,서울특별시 성북구청 환경과,02-988-2491,연중무휴,2017-10-31,37.6088433,127.02924809999999,2017-10-31,,300728
18102,toilet/open,신동방석유㈜ 화장실,서울특별시 성북구 월계로 84,서울특별시 성북구 장위동 231-198,n,0,0,0,0,0,0,0,0,0,서울특별시 성북구청 환경과,02-918-5151,연중무휴,2017-10-31,37.613474200000006,127.03816470000001,2017-10-31,,300729
18103,toilet/open,신명에너지㈜ 화랑로주유소 화장실,서울특별시 성북구 화랑로 174,서울특별시 성북구 상월곡동 23-11,n,2,2,0,0,0,0,1,0,0,서울특별시 성북구청 환경과,02-963-0051,연중무휴,2017-10-31,37.606899799999994,127.05007309999999,2017-10-31,,300730
18104,toilet/open,안암동 화장실,서울특별시 성북구 인촌로10길 9,서울특별시 성북구 안암동2가 141-9,n,3,3,0,0,0,0,3,0,0,서울특별시 성북구청 청소행정과,02-2241-4422,연중무휴,2017-10-31,37.58559210000001,127.02172309999999,2017-10-31,,300731
18105,toilet/open,오동근린공원화장실 화장실,서울특별시 성북구 화랑로13길 144,서울특별시 성북구 상월곡동,n,3,3,0,0,0,0,7,0,0,서울특별시 성북구청 공원녹지과,02-2241-3690,연중무휴,2017-10-31,37.60852020000001,127.0430126,2017-10-31,,300732
18106,toilet/open,우리주유소 화장실,서울특별시 성북구 화랑로 292,서울특별시 성북구 석관동 176-6,n,2,1,0,0,0,0,2,0,0,서울특별시 성북구청 환경과,02-969-5185,연중무휴,2017-10-31,37.612811900000004,127.0611655,2017-10-31,,300733
18107,toilet/open,우이천 화장실,서울특별시 성북구 장위동,서울특별시 성북구 장위동 156,n,1,2,0,0,0,0,2,0,0,서울특별시 성북구청 청소행정과,02-920-3378,연중무휴,2017-10-31,37.6203186,127.0532784,2017-10-31,,300734
18108,toilet/open,우일에너지 화장실,서울특별시 성북구 종암로 20,서울특별시 성북구 하월곡동 88-681,n,2,3,0,0,0,0,1,0,0,서울특별시 성북구청 환경과,02-913-8722,연중무휴,2017-10-31,37.6079876,127.03029009999999,2017-10-31,,300735
18109,toilet/open,원천제1주유소 화장실,서울특별시 성북구 보국문로 52,서울특별시 성북구 정릉동 401-15,n,2,1,0,0,0,0,2,0,0,서울특별시 성북구청 환경과,02-914-1442,연중무휴,2017-10-31,37.60919129999999,127.0100281,2017-10-31,,300736
18110,toilet/open,월곡1동 화장실,서울특별시 성북구 월곡1동,서울특별시 성북구 하월곡동 96-163,n,2,3,0,0,0,0,3,0,0,서울특별시 성북구청 청소행정과,02-2241-4422,연중무휴,2017-10-31,37.6066402,127.0343461,2017-10-31,,300737
18111,toilet/open,월곡광장 화장실,서울특별시 성북구 장위로10길 41,서울특별시 성북구 하월곡동 228-3,n,2,2,0,0,0,0,1,0,0,서울특별시 성북구청 청소행정과,02-2241-4422,연중무휴,2017-10-31,37.6119091,127.0397597,2017-10-31,,300738
18112,toilet/open,장위3동 화장실,서울특별시 성북구 한천로97길 8-14,서울특별시 성북구 장위동 275-10,n,2,2,0,0,0,0,3,0,0,서울특별시 성북구청 청소행정과,02-2241-4422,연중무휴,2017-10-31,37.6206238,127.05247959999998,2017-10-31,,300739
18113,toilet/open,장위3동 마을공원 화장실 화장실,서울특별시 성북구 장위동,서울특별시 성북구 장위동 77-79,n,2,3,0,0,0,0,3,0,0,서울특별시 성북구청 공원녹지과,02-2241-3960,연중무휴,2017-10-31,37.617110600000004,127.05327220000001,2017-10-31,,300740
18114,toilet/open,강촌쌈밥 화장실,서울특별시 성북구 성북로 167,서울특별시 성북구 성북동 279-1,n,1,1,0,0,0,0,1,0,0,서울특별시 성북구청 청소행정과,02-766-2557,연중무휴,2017-10-31,37.5944763,126.99126570000001,2017-10-31,,300741
18115,toilet/open,개운산스포츠센터 화장실,서울특별시 성북구 북악산로 949-60,서울특별시 성북구 종암동 54-182,n,4,4,0,0,0,0,4,0,0,서울특별시 성북구청 도시관리공단,02-925-9960,09:00~18:00,2017-10-31,37.596861600000004,127.0262231,2017-10-31,,300742
18116,toilet/open,거산프라자 화장실,서울특별시 성북구 종암로 18,서울특별시 성북구 종암동 30,n,2,2,0,0,0,0,2,0,0,서울특별시 성북구청 청소행정과,02-911-0348,연중무휴,2017-10-31,37.5921696,127.03668789999999,2017-10-31,,300743
18117,toilet/open,경동고 공영주차장 화장실,서울특별시 성북구 보문로29길 49,서울특별시 성북구 삼선동3가,n,2,2,0,0,0,0,2,0,0,서울특별시 성북구청 도시관리공단,02-6925-0024,09:00~18:00,2017-10-31,37.5856336,127.0138501,2017-10-31,,300744
18118,toilet/open,고려대학교 안암병원 장례식장 화장실,서울특별시 성북구 인촌로 73,서울특별시 성북구 안암동5가,n,10,11,1,1,0,0,8,1,0,서울특별시 성북구청 어르신사회복지과,02-2241-2533,연중무휴,2017-10-31,37.5871061,127.02634109999998,2017-10-31,,300745
18119,toilet/open,구민회관 공공 화장실 화장실,서울특별시 성북구 성북로4길 177,서울특별시 성북구 돈암동 606-304,n,10,18,3,3,0,0,14,3,0,서울특별시 성북구청 성북구청 문화체육과(문화재단),02-924-6781,연중무휴,2017-10-31,37.5958695,127.0086976,2017-10-31,,300746
18120,toilet/open,금영빌딩 화장실,서울특별시 성북구 보국문로 10(정릉동),서울특별시 성북구 정릉동 414-10,n,16,16,0,0,0,0,16,0,0,서울특별시 성북구청 청소행정과,,연중무휴,2017-10-31,37.6055321,127.01163659999999,2017-10-31,,300747
18121,toilet/open,기린빌딩 화장실,서울특별시 성북구 삼양로 22,서울특별시 성북구 길음동 1081,n,2,2,0,0,0,0,2,0,0,서울특별시 성북구청 청소행정과,02-989-8186,연중무휴,2017-10-31,37.6053737,127.0248645,2017-10-31,,300748
18122,toilet/open,길음1동 주민센터 화장실,서울특별시 성북구 길음로 92,서울특별시 성북구 길음동 1281-7,n,3,9,3,3,0,0,6,3,0,서울특별시 성북구청 길음1동 주민센터,02-2241-6512,09:00~18:00,2017-10-31,37.6104808,127.0194382,2017-10-31,,300749
18123,toilet/open,길음1동분소화장실 화장실,서울특별시 성북구 길음로 6,서울특별시 성북구 길음동 531-33,n,5,6,0,0,0,0,7,0,0,서울특별시 성북구청 길음1동 주민센터 분소,02-2241-6512,09:00~18:00,2017-10-31,37.604285100000006,127.02428490000001,2017-10-31,,300750
18124,toilet/open,길음2동 주민센터 화장실,서울특별시 성북구 삼양로2길 70,서울특별시 성북구 길음동 1064-1,n,2,2,0,0,0,0,2,0,0,서울특별시 성북구청 길음2동 주민센터,02-2241-6513,09:00~18:00,2017-10-31,37.6066874,127.0272767,2017-10-31,,300751
18125,toilet/open,길음환승주차장 화장실,서울특별시 성북구 동소문로 260,서울특별시 성북구 하월공동 104-121,n,5,5,0,0,0,0,5,0,0,서울특별시 성북구청 도시관리공단,02-6925-0023,연중무휴,2017-10-31,37.6040969,127.02581979999998,2017-10-31,,300752
18126,toilet/open,꿈마루도서관화장실 화장실,서울특별시 성북구 서경로 94-1,서울특별시 성북구 정릉동 227-176,n,1,0,0,0,0,0,1,0,0,서울특별시 성북구청 문화체육과(문화재단),02-6925-7002,09:00~18:00,2017-10-31,37.6114565,127.0138462,2017-10-31,,300753
18127,toilet/open,노동사목빌딩 화장실,서울특별시 성북구 보문로 95,서울특별시 성북구 보문동5가 15-2,n,2,3,0,0,0,0,2,0,0,서울특별시 성북구청 청소행정과,02-924-6251,연중무휴,2017-10-31,37.583735600000004,127.01991840000001,2017-10-31,,300754
18128,toilet/open,뉴타운장례식장 화장실,서울특별시 성북구 종암로 199(하월곡동),서울특별시 성북구 하월곡동 88-384,n,8,11,1,1,0,0,11,1,0,서울특별시 성북구청 어르신사회복지과,02-2241-2533,연중무휴,2017-10-31,37.6075901,127.0303879,2017-10-31,,300755
18129,toilet/open,달빛마루도서관 화장실 화장실,서울특별시 성북구 종암로 167,서울특별시 성북구 하월곡동 230,n,2,3,0,0,0,0,5,0,0,서울특별시 성북구청 문화체육과(문화재단),02-911-0993,09:00~18:00,2017-10-31,37.6051512,127.03091609999998,2017-10-31,,300756
18130,toilet/open,돈암1동 주민센터 화장실,서울특별시 성북구 정릉로 394,서울특별시 성북구 돈암동 1-1,n,1,1,1,1,0,0,0,0,0,서울특별시 성북구청 돈암1동주민센터,02-2241-6504,09:00~18:00,2017-10-31,37.6034115,127.0263571,2017-10-31,,300757
18131,toilet/open,돈암2동 주민센터 화장실,서울특별시 성북구 흥천사길 7,서울특별시 성북구 돈암동 600-21,n,2,3,0,0,0,0,3,0,0,서울특별시 성북구청 돈암2동 주민센터,02-2241-6505,09:00~18:00,2017-10-31,37.598010200000004,127.0105959,2017-10-31,,300758
18132,toilet/open,동방고개 공영주차장 화장실,서울특별시 성북구 장위로13길 9,서울특별시 성북구 장위동 230-110,n,1,1,0,0,0,0,0,0,0,서울특별시 성북구청 도시관리공단,02-6925-0026,09:00~18:00,2017-10-31,37.6146774,127.04096609999999,2017-10-31,,300759
18133,toilet/open,동선동 주민센터 화장실,서울특별시 성북구 동소문로26길 27,서울특별시 성북구 동선동3가 130-7,n,2,4,1,1,0,0,5,0,0,서울특별시 성북구청 동선동 주민자치센터,02-924-1641,09:00~18:00,2017-10-31,37.593976299999994,127.0203947,2017-10-31,,300760
18134,toilet/open,장위3동마을마당 화장실,서울특별시 성북구 한천로 701,서울특별시 성북구 장위동 275-8,n,2,2,0,0,0,0,2,0,0,서울특별시 성북구청 청소행정과,02-2241-4422,연중무휴,2017-10-31,37.6194213,127.05406229999998,2017-10-31,,300761
18135,toilet/open,장위가스 화장실,서울특별시 성북구 화랑로 291,서울특별시 성북구 장위동 44-3,n,1,1,0,0,0,0,1,0,0,서울특별시 성북구청 환경과,02-916-3234,연중무휴,2017-10-31,37.6132641,127.0606212,2017-10-31,,300762
18136,toilet/open,장위주유소 화장실,서울특별시 성북구 화랑로 110,서울특별시 성북구 하월곡동 92-16,n,1,1,0,0,0,0,1,0,0,서울특별시 성북구청 환경과,02-912-2318,연중무휴,2017-10-31,37.6037377,127.0439761,2017-10-31,,300763
18137,toilet/open,정릉1호 화장실,서울특별시 성북구 솔샘로25가길 18,서울특별시 성북구 정릉동 976,n,2,1,0,0,0,0,2,0,0,서울특별시 성북구청 청소행정과,02-2241-4422,연중무휴,2017-10-31,37.618903100000004,127.00555020000002,2017-10-31,,300764
18138,toilet/open,정릉4동 교통광장 화장실,서울특별시 성북구 솔샘로18길 4-19,서울특별시 성북구 정릉동 92-12,n,0,2,1,1,0,0,1,1,0,서울특별시 성북구청 청소행정과,02-2241-4422,연중무휴,2017-10-31,37.6126901,127.00663610000001,2017-10-31,,300765
18139,toilet/open,정릉주유소 (주)삼표에너지 화장실,서울특별시 성북구 보국문로 35,서울특별시 성북구 정릉동 404-4,n,1,2,0,0,0,0,1,0,0,서울특별시 성북구청 환경과,02-914-6556,연중무휴,2017-10-31,37.607679100000006,127.00986270000001,2017-10-31,,300766
18140,toilet/open,제삼주유소 화장실,서울특별시 성북구 안암로 17,서울특별시 성북구 안암동4가 41-37,n,1,2,0,0,0,0,1,0,0,서울특별시 성북구청 환경과,02-926-0666,연중무휴,2017-10-31,37.5795083,127.0245313,2017-10-31,,300767
18141,toilet/open,종암2동마을마당 화장실,서울특별시 성북구 종암동,서울특별시 성북구 종암동 108-1,n,1,1,0,0,0,0,1,0,0,서울특별시 성북구청 청소행정과,02-2241-4422,연중무휴,2017-10-31,37.6015316,127.0389111,2017-10-31,,300768
18142,toilet/open,㈜진영와이엔제이 원천주유소 화장실,서울특별시 성북구 돌곶이로 142,서울특별시 성북구 장위동 75-604,n,1,1,0,0,0,0,1,0,0,서울특별시 성북구청 환경과,02-943-1051,연중무휴,2017-10-31,37.6149534,127.05274920000001,2017-10-31,,300769
18143,toilet/open,중랑천 이동식 화장실,서울특별시 성북구 한천로58길,서울특별시 성북구 석관동 375-3,n,2,2,0,0,0,0,3,0,0,서울특별시 성북구청 청소행정과,02-920-3378,연중무휴,2017-10-31,37.6132024,127.0708087,2017-10-31,,300770
18144,toilet/open,중앙알뜰주유소 화장실,서울특별시 성북구 보문로 27,서울특별시 성북구 보문동7가 138,n,1,2,0,0,0,0,1,0,0,서울특별시 성북구청 환경과,02-926-4085,연중무휴,2017-10-31,37.5779421,127.02278419999999,2017-10-31,,300771
18145,toilet/open,현대오일뱅크㈜ 직영현대셀프주유소 고대점 화장실,서울특별시 성북구 종암로 12,서울특별시 성북구 종암동 30-24,n,1,2,0,0,0,0,2,0,0,서울특별시 성북구청 환경과,02-912-5151,24시간,2017-10-31,37.5916533,127.0366064,2017-10-31,,300772
18146,toilet/open,현대주유소 화장실,서울특별시 성북구 삼양로 78,서울특별시 성북구 길음동 1132-2,n,2,1,0,0,0,0,1,0,0,서울특별시 성북구청 환경과,02-983-2081,24시간,2017-10-31,37.61029370000001,127.0227392,2017-10-31,,300773
18147,toilet/open,화랑로 화장실,서울특별시 성북구 화랑로 49,서울특별시 성북구 하월곡동 96-83,n,2,3,0,0,0,0,3,0,0,서울특별시 성북구청 청소행정과,02-2241-4422,24시간,2017-10-31,37.602964799999995,127.0376475,2017-10-31,,300774
18148,toilet/open,화랑주유소 화장실,서울특별시 성북구 화랑로 185,서울특별시 성북구 상월곡동 23-95,n,1,1,0,0,0,0,1,0,0,서울특별시 성북구청 환경과,02-942-5152,24시간,2017-10-31,37.6078619,127.0507216,2017-10-31,,300775
18149,toilet/open,효성주유소 화장실,서울특별시 성북구 오패산로1가길 29,서울특별시 성북구 하월곡동 67-141,n,1,2,0,0,0,0,1,0,0,서울특별시 성북구청 환경과,02-2005-1611,24시간,2017-10-31,37.6033305,127.0354101,2017-10-31,,300776
18150,toilet/open,롯데리아 성신여대점 화장실,서울특별시 성북구 동소문로 117,서울특별시 성북구 동선동4가 105,n,1,1,0,0,0,0,1,0,0,서울특별시 성북구청 청소행정과,02-2241-2240,연중무휴,2017-10-31,37.593691299999996,127.01770959999999,2017-10-31,,300777
18151,toilet/open,미리내도서관화장실 화장실,서울특별시 성북구 한천로66길 203,서울특별시 성북구 석관동 134-2,n,2,2,0,0,0,0,4,0,0,서울특별시 문화체육과(문화재단),02-960-5067,09:00~18:00,2017-10-31,37.6134445,127.0656074,2017-10-31,,300778
18152,toilet/open,보문동주민센터 화장실,서울특별시 성북구 안암로3길 35,서울특별시 성북구 보문동7가 108-1,n,3,4,0,0,0,0,5,0,0,서울특별시 성북구청 보문동 주민센터,02-2241-6507,09:00~18:00,2017-10-31,37.580368299999996,127.02278740000001,2017-10-31,,300779
18153,toilet/open,북악골프 화장실,서울특별시 성북구 북악산로 537-14,서울특별시 성북구 정릉동,n,3,5,0,0,0,0,4,0,0,서울특별시 성북구청 도시관리공단,02-919-4040,09:00~18:00,2017-10-31,37.6025791,126.99802079999999,2017-10-31,,300780
18154,toilet/open,삼선동 주민센터 화장실,서울특별시 성북구 보문로 190,서울특별시 성북구 삼선동4가 349-1,n,1,1,1,1,0,0,1,1,0,서울특별시 성북구청 삼선동 주민센터,02-2241-6502,09:00~18:00,2017-10-31,37.5908399,127.0146256,2017-10-31,,300781
18155,toilet/open,삼성동 맥도날드 화장실,서울특별시 성북구 동소문로 13,서울특별시 성북구 동소문동1가 32-3,n,1,1,0,0,0,0,1,0,0,서울특별시 성북구청 청소행정과,02-2241-2240,연중무휴,2017-10-31,37.589400299999994,127.0075162,2017-10-31,,300782
18156,toilet/open,상월곡실버복지센터 화장실,서울특별시 성북구 화랑로18길 6,서울특별시 성북구 상월곡동 97-34,n,2,2,0,0,0,0,2,0,0,서울특별시 성북구청 어르신사회복지과,02-2241-2527,09:00~18:00,2017-10-31,37.6058467,127.0482662,2017-10-31,,300783
18157,toilet/open,서광빌딩 화장실,서울특별시 성북구 보문로 35,서울특별시 성북구 보문동7가 118,n,2,4,0,0,0,0,2,0,0,서울특별시 성북구청 청소행정과,02-2241-4420,연중무휴,2017-10-31,37.578683500000004,127.0226131,2017-10-31,,300784
18158,toilet/open,석관동 우체국 화장실,서울특별시 성북구 화랑로 203,서울특별시 성북구 장위동 65-176,n,1,1,0,0,0,0,1,0,0,서울특별시 성북구청 청소행정과,02-915-6800,연중무휴,2017-10-31,37.608760499999995,127.0524081,2017-10-31,,300785
18159,toilet/open,석관동 주민센터 화장실,서울특별시 성북구 화랑로 296,서울특별시 성북구 석관동 384-3,n,4,7,0,0,0,0,4,0,0,서울특별시 성북구청 석관동 주민센터,02-957-4011,연중무휴,2017-10-31,37.6129659,127.0614051,2017-10-31,,300786
18160,toilet/open,석관실버복지센터화장실 화장실,서울특별시 성북구 화랑로32길 88,서울특별시 성북구 석관동 261-394,n,3,3,0,0,0,0,6,0,0,서울특별시 성북구청 어르신사회복지과,02-2241-2527,연중무휴,2017-10-31,37.6067055,127.05822830000001,2017-10-31,,300787
18161,toilet/open,석탑빌딩 화장실,서울특별시 성북구 안암로 53,서울특별시 성북구 안암동5가 133-6,n,1,2,0,0,0,0,2,0,0,서울특별시 성북구청 청소행정과,02-3290-7891,연중무휴,2017-10-31,37.58173729999999,127.02767220000001,2017-10-31,,300788
18162,toilet/open,성가복지병원 화장실,서울특별시 성북구 종암로 191,서울특별시 성북구 하월곡동 88-526,n,2,3,0,0,0,0,3,0,0,서울특별시 성북구청 청소행정과,02-940-1500,연중무휴,2017-10-31,37.60692120000001,127.03066470000002,2017-10-31,,300789
18163,toilet/open,성북구 보건소 보건지소 화장실,서울특별시 성북구 아리랑로 3길 8,서울특별시 성북구 동소문동6가 146,n,3,6,2,2,0,0,4,2,0,서울특별시 성북구청 보건소,02-920-2810,09:00~18:00,2017-10-31,37.5936034,127.0157368,2017-10-31,,300790
18164,toilet/open,성북구립미술관 화장실 화장실,서울특별시 성북구 성북로 134,서울특별시 성북구 성북동 246,n,1,1,0,0,0,0,2,0,0,서울특별시 성북구청 문화체육과(문화재단),02-6925-5011,09:00~18:00,2017-10-31,37.5948311,126.99487140000002,2017-10-31,,300791
18165,toilet/open,성북구민정보화센터 화장실,서울특별시 성북구 삼선교로4길 47-1,서울특별시 성북구 삼산동1가 216-6,n,2,4,0,0,0,0,4,0,0,서울특별시 성북구청 디지털정보과,02-920-1750,09:00~18:00,2017-10-31,37.5856452,127.00744040000001,2017-10-31,,300792
18166,toilet/open,성북구민체육관 화장실 화장실,서울특별시 성북구 하월곡동 산2-1,서울특별시 성북구 하월곡동 산 2-1,n,4,8,0,0,0,0,8,0,0,서울특별시 성북구청 도시관리공단,02-909-3497,09:00~18:00,2017-10-31,37.6099679,127.04194840000002,2017-10-31,,300793
18167,toilet/open,성북구청 화장실,서울특별시 성북구 보문로 168,서울특별시 성북구 삼선동5가 411,n,24,36,0,0,0,0,90,0,0,서울특별시 성북구청 행정지원과,02-2241-4300,연중무휴,2017-10-31,37.5894505,127.0168346,2017-10-31,,300794
18168,toilet/open,성북노인종합복지관 화장실,서울특별시 성북구 종암로15길 10(종암동),서울특별시 성북구 종암동 66-14,n,10,10,2,2,0,0,10,2,0,서울특별시 성북구청 어르신사회복지과,02-2241-2527,09:00~18:00,2017-10-31,37.5977829,127.03439209999999,2017-10-31,,300795
18169,toilet/open,성북동 주민센터 화장실,서울특별시 성북구 성북로 37,서울특별시 성북구 성북동 188-18,n,5,5,0,0,0,0,7,0,0,서울특별시 성북구청 성북동  주민센터,02-2241-6501,09:00~18:00,2017-10-31,37.59104620000001,127.00323290000001,2017-10-31,,300796
18170,toilet/open,성북예술창작터 화장실 화장실,서울특별시 성북구 성북로 23,서울특별시 성북구 성북동1가 74-1,n,1,1,0,0,0,0,2,0,0,서울특별시 성북구청 문화체육과(문화재단),02-2038-9989,09:00~18:00,2017-10-31,37.5900467,127.00410759999998,2017-10-31,,300797
18171,toilet/open,성북장애인복지관 화장실,서울특별시 성북구 화랑로 130,서울특별시 성북구 하월곡동 11-19,n,4,12,6,6,0,0,4,6,0,서울특별시 성북구청 어르신사회복지과,02-915-9200,09:00~18:00,2017-10-31,37.6046133,127.04575430000001,2017-10-31,,300798
18172,toilet/open,성북정보도서관화장실 화장실,서울특별시 성북구 상월곡동 24번지 348,서울특별시 성북구 상월곡동 24-348,n,12,23,0,0,0,0,20,0,0,서울특별시 성북구청 문화체육과(문화재단),02-962-1081,09:00~18:00,2017-10-31,37.6049953,127.0507256,2017-10-31,,300799
18173,toilet/open,성북종합레포츠타운 화장실,서울특별시 성북구 한천로 58길 307,서울특별시 성북구 석관동 382,n,9,10,0,0,0,0,11,0,4,서울특별시 성북구청 도시관리공단,02-6917-1100,09:00~18:00,2017-10-31,37.6102064,127.06998020000002,2017-10-31,,300800
18174,toilet/open,성북중앙병원신관동 화장실,서울특별시 성북구 종암로 72,서울특별시 성북구 종암동 10-27,n,1,2,0,0,0,0,2,0,0,서울특별시 성북구청 청소행정과,02-919-1866,연중무휴,2017-10-31,37.5971101,127.03567759999999,2017-10-31,,300801
18175,toilet/open,성심빌딩 화장실,서울특별시 성북구 북안산로 918,서울특별시 성북구 돈암동 30-11,n,1,2,0,0,0,0,2,0,0,서울특별시 성북구청 청소행정과,02-924-5101,연중무휴,2017-10-31,37.6002789,127.02159909999999,2017-10-31,,300802
18176,toilet/open,시네마빌딩화장실 화장실,서울특별시 성북구 아리랑로12길 4,서울특별시 성북구 돈암동 538-59,n,4,4,0,0,0,0,4,0,0,서울특별시 성북구청 문화체육과(문화재단),02-2038-4901,연중무휴,2017-10-31,37.599116200000005,127.0145912,2017-10-31,,300803
18177,toilet/open,아리랑도서관화장실 화장실,서울특별시 성북구 아리랑로 82,서울특별시 성북구 돈암동 538-101,n,6,6,0,0,0,0,8,0,1,서울특별시 성북구청 문화체육과(문화재단),02-3291-4990,09:00~18:00,2017-10-31,37.6000539,127.0139127,2017-10-31,,300804
18178,toilet/open,아리랑시네센터화장실 화장실,서울특별시 성북구 아리랑로 82,서울특별시 성북구 돈암동 538-101,n,10,11,1,1,0,0,18,1,0,서울특별시 성북구청 문화체육과(문화재단),02-3291-5540,09:00~18:00,2017-10-31,37.6003222,127.01387509999999,2017-10-31,,300805
18179,toilet/open,아이조아팀 화장실,서울특별시 성북구 오패산로10길 19,서울특별시 성북구 하월곡동 222-6,n,0,0,0,0,0,0,0,0,0,서울특별시 성북구청 도시관리공단,02-918-8080,09:00~18:00,2017-10-31,37.605672600000005,127.0379341,2017-10-31,,300806
18180,toilet/open,안암동주민센터 화장실,서울특별시 성북구 보문로22길 49 지하1층,서울특별시 성북구 안암동3가 133-46,n,2,4,1,1,0,0,2,1,0,서울특별시 성북구청 안암동 주민센터,02-2241-6506,09:00~18:00,2017-10-31,37.5844206,127.0230499,2017-10-31,,300807
18181,toilet/open,온누리병원 화장실,서울특별시 성북구 화랑로 271,서울특별시 성북구 장위동 50-50,n,3,3,1,1,0,0,2,1,0,서울특별시 성북구청 청소행정과,02-191-2700,연중무휴,2017-10-31,37.6122062,127.05871440000001,2017-10-31,,300808
18182,toilet/open,우신향병원 구관동 화장실,서울특별시 성북구 안암로 99,서울특별시 성북구 안암동5가 86-121,n,2,2,0,0,0,0,2,0,0,서울특별시 성북구청 청소행정과,02-926-7505,연중무휴,2017-10-31,37.5849739,127.0310592,2017-10-31,,300809
18183,toilet/open,월곡1동 주민센터 화장실,서울특별시 성북구 오패산로 96,서울특별시 성북구 하월곡동 225-7,n,5,7,1,1,0,0,6,1,0,서울특별시 성북구청 월곡1동 주민센터,02-2241-6515,09:00~18:00,2017-10-31,37.610530100000005,127.03574409999999,2017-10-31,,300810
18184,toilet/open,월곡2동 주민센터 화장실,서울특별시 성북구 화랑로 152,서울특별시 성북구 상월곡동 97-22,n,2,6,1,1,0,0,5,0,0,서울특별시 성북구청 월곡2동 주민센터,02-2241-6516,09:00~18:00,2017-10-31,37.6057725,127.04785349999999,2017-10-31,,300811
18185,toilet/open,월곡두산위브 센츠로 상가 화장실,서울특별시 성북구 오패산로 46,서울특별시 성북구 하월곡동 222-6,n,3,2,0,0,0,0,3,0,0,서울특별시 성북구청 청소행정과,02-2241-4420,연중무휴,2017-10-31,37.607027200000005,127.0383416,2017-10-31,,300812
18186,toilet/open,의릉관리사무소 화장실,서울특별시 성북구 화랑로32길 146-37,서울특별시 성북구 석관동,n,3,2,1,1,0,0,3,1,0,서울특별시 성북구청 청소행정과,02-964-0579,연중무휴,2017-10-31,37.6054844,127.05769709999998,2017-10-31,,300813
18187,toilet/open,장위1동 주민센터 화장실,서울특별시 성북구 장위로 61,서울특별시 성북구 장위동 225-100,n,6,8,0,0,0,0,8,0,0,서울특별시 성북구청 장위1동 주민센터,02-2241-6517,09:00~18:00,2017-10-31,37.614062200000006,127.0436497,2017-10-31,,300814
18188,toilet/open,장위2동 주민센터 화장실,서울특별시 성북구 돌곶이로27길 12,서울특별시 성북구 장위동 69-54,n,0,0,0,0,0,0,0,0,0,서울특별시 성북구청 장위2동 주민센터,02-2241-6518,09:00~18:00,2017-10-31,37.6123831,127.05447959999998,2017-10-31,,300815
18189,toilet/open,장위3동 주민센터 화장실,서울특별시 성북구 한천로 657,서울특별시 성북구 장위동 117-5,n,1,1,0,0,0,0,2,0,0,서울특별시 성북구청 장위3동주민센터,02-2241-6519,09:00~18:00,2017-10-31,37.6165543,127.05659779999999,2017-10-31,,300816
18190,toilet/open,장위실버복지센터 화장실,서울특별시 성북구 장위로46길 57,서울특별시 성북구 장위동 63-1,n,0,2,0,0,0,0,0,0,0,서울특별시 성북구청 어르신사회복지과,02-2241-2527,09:00~18:00,2017-10-31,37.6128385,127.05600659999999,2017-10-31,,300817
18191,toilet/open,정릉1동 주민센터 화장실,서울특별시 성북구 정릉로38마길 33,서울특별시 성북구 정릉동,n,3,3,0,0,0,0,3,0,0,서울특별시 성북구청 정릉1동 주민센터,02-916-8893,09:00~18:00,2017-10-31,37.6014316,127.01662830000001,2017-10-31,,300818
18192,toilet/open,정릉2동 주민센터 화장실,서울특별시 성북구 정릉로26길 1,서울특별시 성북구 정릉동 966-125,n,1,2,1,1,0,0,3,1,0,서울특별시 성북구청 정릉2동 주민세터,02-2241-6509,09:00~18:00,2017-10-31,37.6044598,127.0111212,2017-10-31,,300819
18193,toilet/open,정릉3동 주민센터 화장실,서울특별시 성북구 솔샘로1길 6-3,서울특별시 성북구 정릉동 673-3,n,1,4,0,0,0,0,2,0,0,서울특별시 성북구청 정릉3동 주민센터,02-2241-6510,09:00~18:00,2017-10-31,37.6089493,127.0041598,2017-10-31,,300820
18194,toilet/open,정릉4동 주민센터 화장실,서울특별시 성북구 보국문로 106-1,서울특별시 성북구 정릉동 293-6,n,2,3,1,1,0,0,4,1,0,서울특별시 성북구청 정릉4동 주민센터,02-2241-6511,09:00~18:00,2017-10-31,37.6133712,127.00698590000002,2017-10-31,,300821
18195,toilet/open,정릉도서관화장실 화장실,서울특별시 성북구 정릉로26길 6,서울특별시 성북구 정릉동 966-174,n,2,2,0,0,0,0,3,0,0,서울특별시 성북구청 문화체육과(문화재단),02-2038-9928,09:00~18:00,2017-10-31,37.6046434,127.01085259999998,2017-10-31,,300822
18196,toilet/open,정릉빌딩 화장실,서울특별시 성북구 정릉로 250,서울특별시 성북구 정릉동 465-1,n,2,3,0,0,0,0,3,0,0,서울특별시 성북구청 청소행정과,02-914-2045,연중무휴,2017-10-31,37.604263399999994,127.0113523,2017-10-31,,300823
18197,toilet/open,정릉실버복지센터 화장실,서울특별시 성북구 솔샘로 8(정릉동),서울특별시 성북구 정릉동 674-4,n,2,2,0,0,0,0,4,0,0,서울특별시 성북구청 어르신사회복지과,02-2241-2527,09:00~18:00,2017-10-31,37.608236600000005,127.00464040000001,2017-10-31,,300824
18198,toilet/open,정평빌딩 화장실,서울특별시 성북구 화랑로 103,서울특별시 성북구 하월곡동 17-1,n,2,1,0,0,0,0,2,0,0,서울특별시 성북구청 청소행정과,02-915-6800,연중무휴,2017-10-31,37.6037175,127.0430439,2017-10-31,,300825
18199,toilet/open,제일빌딩 화장실,서울특별시 성북구 오패산로 49,서울특별시 성북구 하월곡동 70-202,n,2,2,0,0,0,0,2,0,0,서울특별시 성북구청 청소행정과,02-943-0047,연중무휴,2017-10-31,37.6063894,127.03641809999999,2017-10-31,,300826
18200,toilet/open,종암동 주민센터 화장실,서울특별시 성북구 종암로 98-8,서울특별시 성북구 종암동 16-25,n,5,0,1,1,0,0,10,1,0,서울특별시 성북구청 종암동 주민센터,02-2241-6514,09:00~18:00,2017-10-31,37.5990276,127.0352053,2017-10-31,,300827
18201,toilet/open,종암동새날도서관 화장실 화장실,서울특별시 성북구 종암동,서울특별시 성북구 종암동 16-8,n,2,2,0,0,0,0,4,0,0,서울특별시 성북구청 문화체육과(문화재단),02-6925-6920,09:00~18:00,2017-10-31,37.5989907,127.03509209999999,2017-10-31,,300828
18202,toilet/open,청수도서관 화장실 화장실,서울특별시 성북구 보국문로16가길 20,서울특별시 성북구 정릉동 266-121,n,3,2,0,0,0,0,3,0,0,서울특별시 성북구청 문화체육과(문화재단),02-2038-4423,09:00~18:00,2017-10-31,37.61174260000001,127.0107524,2017-10-31,,300829
18203,toilet/open,청수프라자 화장실,서울특별시 성북구 보국문로 50,서울특별시 성북구 정릉동 401-46,n,1,1,1,1,0,0,1,1,0,서울특별시 성북구청 청소행정과,,연중무휴,2017-10-31,37.6088594,127.01006809999998,2017-10-31,,300830
18204,toilet/open,커뮤니티센터 화장실,서울특별시 성북구 정릉로38가길 6,서울특별시 성북구 정릉동 16-182,n,1,1,0,0,0,0,1,0,0,서울특별시 성북구청 정릉1동커뮤니티센터,02-909-5295,연중무휴,2017-10-31,37.6019991,127.01835829999999,2017-10-31,,300831
18205,toilet/open,한천로 공영주차장 화장실,서울특별시 성북구 한천로 719,서울특별시 성북구 장위동 158-1,n,0,0,0,0,0,0,0,0,0,서울특별시 성북구청 도시관리공단,02-6925-0025,연중무휴,2017-10-31,37.6207617,127.0525915,2017-10-31,,300832
18206,toilet/open,해오름도서관화장실 화장실,서울특별시 성북구 성북로4길 52,서울특별시 성북구 돈암동,n,1,1,0,0,0,0,2,0,1,서울특별시 성북구청 문화체육과(문화재단),02-6925-0300,연중무휴,2017-10-31,37.5929441,127.0086314,2017-10-31,,300833
18207,toilet/open,(주)중앙에너비스 종암지점 화장실,서울특별시 성북구 종암로 58,서울특별시 성북구 종암동 10-15,n,1,1,0,0,0,0,2,0,0,서울특별시 성북구청 환경과,02-912-6531,연중무휴,2017-10-31,37.5957709,127.0359956,2017-10-31,,300834
18208,toilet/open,SK네트웍스(주) 광덕주유소 화장실,서울특별시 성북구 보문로 89,서울특별시 성북구 보문동5가 146-1,n,1,1,0,0,0,0,1,0,0,서울특별시 성북구청 환경과,02-923-5545,연중무휴,2017-10-31,37.5831742,127.0201909,2017-10-31,,300835
18833,toilet/open,중화동 공중화장실 화장실,서울특별시 중랑구 중화동 280-16,서울특별시 중랑구 중화동 382,N,3,3,1,0,0,0,6,1,0,중랑구청 청소행정과,02-2094-1984,24시간,2005-00,37.6002049,127.07320130000001,2017-10-11,,300836
18834,toilet/open,면목동 공중화장실 화장실,서울특별시 중랑구 사가정로49길 56,서울특별시 중랑구 면목동 168-1,N,2,3,1,0,0,0,5,1,0,중랑구청 청소행정과,02-2094-1984,24시간,,37.5812836,127.08012,2017-10-11,,300837
18835,toilet/open,망우동 공중화장실 화장실,서울특별시 중랑구 망우로76길 50-13,서울특별시 중랑구 망우본동 산57-3,N,2,3,1,0,0,0,6,1,0,중랑구청 청소행정과,02-2094-1984,24시간,,37.5941269,127.10962520000001,2017-10-11,,300838
18836,toilet/open,신내동 공중화장실 화장실,서울특별시 중랑구 신내로 지하 232,서울특별시 중랑구 신내동 351-2,N,2,2,0,0,0,0,2,0,0,중랑구청 청소행정과,02-2094-1984,24시간,1980-00,37.6145471,127.1009378,2017-10-11,,300839
18837,toilet/open,묵동 공중화장실 화장실,,서울특별시 중랑구 묵동 335,N,2,4,1,0,0,0,7,1,0,중랑구청 청소행정과,02-2094-1984,24시간,2001-00,37.6161311,127.0736929,2017-10-11,,300840
20135,toilet/open,문래동 화장실,서울특별시 영등포구 문래로10길 18-7 (문래동6가),서울특별시 영등포구 문래동6가 22-3,N,1,1,0,0,0,0,1,0,0,서울특별시 영등포구청,02-2670-3504,연중무휴,2011,37.518519500000004,126.88652820000001,2017-05-30,,300841
20136,toilet/open,쪽방촌 화장실,서울특별시 영등포구 경인로96길 10-1,서울특별시 영등포구 영등포동618-5,N,2,2,1,0,0,0,4,0,0,서울특별시 영등포구청,02-2670-3504,연중무휴,2009,37.5145502,126.90422190000001,2017-05-30,,300842
20137,toilet/open,강마을공원 화장실,서울특별시 영등포구 당산로54길 11 (당산동),서울특별시 영등포구 당산동6가 354,N,2,3,1,0,0,0,3,1,0,서울특별시 영등포구청,02-2670-3504,연중무휴,2003,37.533159399999995,126.9064683,2017-05-30,,300843
20138,toilet/open,당산4가 화장실,서울특별시 영등포구 당산로37길 4-3 (당산동4가),서울특별시 영등포구 당산동4가 74-3,N,2,1,0,0,0,0,2,0,0,서울특별시 영등포구청,02-2670-3504,연중무휴,1981,37.5296691,126.8978686,2017-05-30,,300844
20139,toilet/open,조광시장 화장실,서울특별시 영등포구 당산동1가 186-23,서울특별시 영등포구 당산동1가 186-23,N,2,1,0,0,0,0,3,0,0,서울특별시 영등포구청,02-2670-3504,연중무휴,1981,37.5224717,126.90108670000001,2017-05-30,,300845
20140,toilet/open,전화국 뒤-2 화장실,서울특별시 영등포구 영신로216-1,서울특별시 영등포구 영둥포동8가 33-7,N,1,0,0,0,0,0,2,0,0,서울특별시 영등포구청,02-2670-3504,연중무휴,1998,37.5260437,126.9053439,2017-05-30,,300846
20141,toilet/open,전화국 뒤-1 화장실,서울특별시 영등포구 영신로216-1,서울특별시 영등포구 영둥포동8가 33-7,N,1,2,1,0,0,0,1,0,0,서울특별시 영등포구청,02-2670-3504,연중무휴,1998,37.526730799999996,126.90339660000001,2017-05-30,,300847
20142,toilet/open,대방역 화장실,서울특별시 영등포구 노량진로 7 (신길동),서울특별시 영등포구 신길동 1373,N,3,3,1,0,0,0,10,1,0,서울특별시 영등포구청,02-2670-3504,연중무휴,2001,37.5128177,126.9260295,2017-05-30,,300848
20143,toilet/open,영등포여고앞 화장실,서울특별시 영등포구 영등포로62라길 2 (신길동),서울특별시 영등포구 신길동 39-3,N,2,2,0,0,0,0,1,1,0,서울특별시 영등포구청,02-2670-3504,연중무휴,1999,37.5161681,126.91540490000001,2017-05-30,,300849
20144,toilet/open,광야교회 화장실,서울특별시 영등포구 영등포동 618-510,서울특별시 영등포구 영등포동 618-510,N,3,4,1,0,0,0,3,0,0,서울특별시 영등포구청,02-2670-3504,연중무휴,1999,37.5149506,126.90571709999999,2017-05-30,,300850
20267,toilet/open,철제상가 화장실,서울특별시 영등포구 문래동3가 4-38,서울특별시 영등포구 문래동3가 4-38,N,3,2,1,0,0,0,2,0,0,서울특별시 영등포구청,02-2670-3504,연중무휴,1999,37.514939399999996,126.9018973,2017-05-30,,300851
20268,toilet/open,철공소공단 화장실,서울특별시 영등포구 도림로125길 10,서울특별시 영등포구 문래동2가 14-85,N,1,1,0,0,0,0,1,0,0,서울특별시 영등포구청,02-2670-3504,연중무휴,2002,37.5139372,126.8859597,2017-05-30,,300852
20269,toilet/open,양평동2가-3 화장실,서울특별시 영등포구 영등포로5길 26-4 (양평동2가),서울특별시 영등포구 양평동2가 31-17,Y,1,1,0,0,0,0,1,0,0,서울특별시 영등포구청,02-2670-3504,연중무휴,2006,37.5242862,126.8847172,2017-05-30,,300853
20270,toilet/open,양평동2가-2 화장실,서울특별시 영등포구 영등포로5길 22,서울특별시 영등포구 양평동2가 31-46,N,1,0,0,0,0,0,0,0,0,서울특별시 영등포구청,02-2670-3504,연중무휴,2003,37.5240917,126.8846364,2017-05-30,,300854
20271,toilet/open,양평동2가-1 화장실,서울특별시 영등포구 선유서로25길 9-2,서울특별시 영등포구 양평동2가 31-13,N,1,1,0,0,0,0,1,0,0,서울특별시 영등포구청,02-2670-3504,연중무휴,2003,37.5243747,126.88483240000001,2017-05-30,,300855
20272,toilet/open,양평동1가 화장실,서울특별시 영등포구 선유서로24길 3-15,서울특별시 영등포구 양평동1가250-44,N,2,1,0,0,0,0,2,0,0,서울특별시 영등포구청,02-2670-3504,연중무휴,2000,37.5239746,126.88645729999999,2017-05-30,,300856
22253,toilet/open,도봉산입구 공중화장실 화장실,서울특별시 도봉구 도봉1동 282-26,서울특별시 도봉구 도봉1동 282-26,N,4,6,0,0,0,0,6,0,0,서울특별시 도봉구청,02-2091-3253,연중무휴,2004-04-20,37.6872548,127.0406199,2017-04-30,,300857
22254,toilet/open,창동역 공중화장실 화장실,서울특별시 도봉구 마들로11길 77,서울특별시 도봉구 창4동 20,N,3,5,0,0,0,0,8,0,0,서울특별시 도봉구청,02-2091-3253,연중무휴,1997-12-16,37.6531856,127.04811389999999,2017-04-30,,300858
22255,toilet/open,방학사거리 공중화장실 화장실,서울특별시 도봉구 방학1동 679,서울특별시 도봉구 방학1동 679,N,2,3,0,0,0,0,5,0,0,서울특별시 도봉구청,02-2091-3253,연중무휴,1985-12-20,37.6629896,127.04188049999999,2017-04-30,,300859
22256,toilet/open,방학천 공중화장실 화장실,서울특별시 도봉구 방학1동 265-4,서울특별시 도봉구 방학1동 265-4,N,1,2,0,0,0,0,3,0,0,서울특별시 도봉구청,02-2091-3253,연중무휴,2013-01-21,37.661372899999996,127.0370857,2017-04-30,,300860
22257,toilet/open,초안산근린공원-유아숲체험장 공중화장실 화장실,서울특별시 도봉구 창동 산24,서울특별시 도봉구 창동 산24,N,1,2,0,0,0,0,3,0,0,서울특별시 도봉구청,02-2091-3753,09:00~18:00,2014-03-01,37.650374400000004,127.040998,2017-04-30,,300861
22258,toilet/open,초안산근린공원-창골축구장 공중화장실 화장실,서울특별시 도봉구 창동 산48-4,서울특별시 도봉구 창동 산48-4,N,2,3,1,0,0,0,5,0,1,서울특별시 도봉구청,02-2091-3753,09:00~18:00,2007-03-01,37.6474261,127.0414291,2017-04-30,,300862
22259,toilet/open,초안산근린공원-세대공감공원 공중화장실 화장실,서울특별시 도봉구 창동 산184-5,서울특별시 도봉구 창동 산184-5,N,1,2,1,0,0,0,2,0,0,서울특별시 도봉구청,02-2091-3753,09:00~18:00,2013-03-01,37.644029499999995,127.046241,2017-04-30,,300863
22260,toilet/open,초안산근린공원-붕붕도서관 공중화장실 화장실,서울특별시 도봉구 창동 428,서울특별시 도봉구 창동 428,N,2,3,1,0,0,0,5,2,0,서울특별시 도봉구청,02-2091-3753,09:00~18:00,2007-03-01,37.6447081,127.04915359999998,2017-04-30,,300864
22261,toilet/open,쌍문근린공원-세심천 공중화장실 화장실,서울특별시 도봉구 산90-7,서울특별시 도봉구 산90-7,N,2,3,1,0,0,1,5,3,1,서울특별시 도봉구청,02-2091-3754,09:00~18:00,2010-03-01,37.675074200000005,127.0278943,2017-04-30,,300865
22262,toilet/open,방학사거리 공중화장실 화장실,서울특별시 도봉구 방학1동 679,서울특별시 도봉구 방학1동 649,N,2,3,0,0,0,0,3,0,0,서울특별시 도봉구청,02-2091-3254,연중무휴,,37.6632648,127.04181709999999,2017-04-30,,300866
22264,toilet/open,월천근린공원 공중화장실 화장실,서울특별시 도봉구 창동 756-78,서울특별시 도봉구 창동 756-78,N,2,3,1,0,0,0,4,1,0,서울특별시 도봉구청,02-2091-3754,09:00~18:00,1989-03-01,37.648965000000004,127.04336459999999,2017-04-30,,300867
22265,toilet/open,밤골어린이공원 공중화장실 화장실,서울특별시 도봉구 창동 368,서울특별시 도봉구 창동 368,N,2,2,0,0,0,0,2,0,0,서울특별시 도봉구청,02-2091-3756,09:00~18:00,2012-03-01,37.6487425,127.0455405,2017-04-30,,300868
22266,toilet/open,뱃골어린이공원 공중화장실 화장실,서울특별시 도봉구 창동 367,서울특별시 도봉구 창동 367,N,1,3,0,0,0,0,3,0,0,서울특별시 도봉구청,02-2091-3756,09:00~18:00,2016-12-09,37.6465143,127.04498319999999,2017-04-30,,300869
22267,toilet/open,대창어린이공원 공중화장실 화장실,서울특별시 도봉구 창동 38-4,서울특별시 도봉구 창동 38-4,N,1,1,0,0,0,0,2,0,0,서울특별시 도봉구청,02-2091-3756,09:00~18:00,1989-03-01,37.644329299999995,127.05224390000001,2017-04-30,,300870
22268,toilet/open,도봉산입구 공중화장실 화장실,서울특별시 도봉구 도봉1동 282-26,서울특별시 도봉구 도봉1동 282-26,N,4,7,0,0,0,0,7,0,0,서울특별시 도봉구청,02-2091-3254,연중무휴,,37.6875981,127.04062659999998,2017-04-30,,300871
22363,toilet/open,일자산자연공원(둔촌약수터입구) 화장실,서울특별시 동남로49길 67,서울특별시 둔촌동 산6,N,2,3,2,1,0,0,4,1,1,청소행정과,02-3425-5864,24시간,Sep-09,37.5328679721,127.145497011,2017-05-16,,300872
22364,toilet/open,일자산자연공원(허브천무공원) 화장실,서울특별시 둔촌동 산94,서울특별시 둔촌동 산94,N,2,2,1,0,1,0,0,1,0,청소행정과,02-3425-5864,24시간,Nov-15,37.5376248782,127.154309036,2017-05-16,,300873
22366,toilet/open,일자산자연공원(잔디광장옆) 화장실,서울특별시 강동구 동남로660,서울특별시 강동구 둔촌동 140,N,1,1,0,0,0,0,0,1,0,청소행정과,02-3425-5864,24시간,Jun-15,37.533019182,127.15135792299999,2017-05-16,,300874
22367,toilet/open,명일근린공원(중앙하이츠뒷산) 화장실,서울특별시 강동구 상일동산54,서울특별시 강동구 상일동산54,N,1,2,0,0,0,0,2,0,0,청소행정과,02-3425-5864,24시간,Aug-09,37.5521457771,127.159427014,2017-05-16,,300875
22368,toilet/open,명일근린공원(상일동산) 화장실,서울특별시 강동구 상일동 산26-6,서울특별시 강동구 상일동 산26-6,N,2,1,0,0,0,0,0,2,0,청소행정과,02-3425-5864,24시간,Aug-16,37.5490501185,127.16455804700001,2017-05-16,,300876
22392,toilet/open,서경빌딩 화장실,서울특별시 강동구 성내로19,서울특별시 강동구 성내동539-3,N,3,3,0,0,0,0,3,0,0,청소행정과,02-3425-5864,24시간,Apr-95,37.53036011,127.122828864,2017-05-16,,300877
22417,toilet/open,샛마을 근린공원 화장실,서울특별시 강동구 양재대로1666,서울특별시 강동구 고덕동287,N,2,3,2,2,2,0,4,2,1,청소행정과,02-3425-5864,24시간,Feb-12,37.5542406285,127.144710137,2017-05-16,,300878
22418,toilet/open,샘터근린공원(게이트볼장) 화장실,서울특별시 강동구 고덕동287,서울특별시 강동구 고덕동287,N,1,2,0,0,0,0,2,0,0,청소행정과,02-3425-5864,24시간,May-95,37.5618410456,127.159022104,2017-05-16,,300879
22421,toilet/open,두레근린공원 화장실,서울특별시 강동구 고덕동229,서울특별시 강동구 고덕동229,N,1,1,0,0,0,0,1,0,0,청소행정과,02-3425-5864,24시간,Apr-07,37.5614689326,127.164933959,2017-05-16,,300880
22423,toilet/open,동명근린공원 (베드민턴장) 화장실,서울특별시 강동구 고덕로83길 55,서울특별시 강동구 고덕동 315,N,1,2,0,0,0,0,1,0,0,청소행정과,02-3425-5864,24시간,Oct-05,37.5597414548,127.16831648799999,2017-05-16,,300881
22424,toilet/open,성내하니 근린공원(경로당내) 화장실,서울특별시 강동구 성내로3가길 71,서울특별시 강동구 성내동 533,N,2,2,0,1,0,0,2,1,0,청소행정과,02-3425-5864,24시간,Feb-06,37.529451588899995,127.126538169,2017-05-16,,300882
22425,toilet/open,게네수변공원(관리소내) 화장실,서울특별시 강동구 강일동 446-2,서울특별시 강동구 강일동 446-2,N,1,4,1,1,0,0,4,1,0,청소행정과,02-3425-5864,24시간,May-12,37.562288622,127.178703416,2017-05-16,,300883
22426,toilet/open,새장터어린이공원 화장실,서울특별시 강동구 암사1가길 16,서울특별시 강동구 암사동 468-2,N,1,1,0,0,0,0,1,0,0,청소행정과,02-3425-5864,24시간,Oct-05,37.552127145,127.130578126,2017-05-16,,300884
22427,toilet/open,광나루어린이공원 화장실,서울특별시 강동구 상암로 12-19,서울특별시 강동구 암사동 515,N,2,3,1,0,0,0,3,1,0,청소행정과,02-3425-5864,24시간,Jul-97,37.5500206647,127.125545395,2017-05-16,,300885
22428,toilet/open,고덕찬 물놀이장(분수광장) 화장실,서울특별시 강동구 상일로 74-1,서울특별시 강동구 상일동 480,N,1,2,0,0,0,0,1,0,0,청소행정과,02-3425-5864,24시간,Jun-12,37.5547065753,127.173375274,2017-05-16,,300886
22429,toilet/open,고덕야구장 (고덕빗물펌프장) 화장실,서울특별시 강동구 아리수로87길 192,서울특별시 강동구 고덕동108,N,1,2,0,1,0,0,0,0,0,청소행정과,02-3425-5864,24시간,May-14,37.5675020544,127.16489292799999,2017-05-16,,300887
22431,toilet/open,명일2지구대 뒤 화장실,서울특별시 강동구 상일로12길 77,서울특별시 강동구 명일동 737,N,2,2,0,0,0,0,2,0,0,청소행정과,02-3425-5864,24시간,May-12,37.5557385056,127.172562814,2017-05-16,,300888
22433,toilet/open,상일공원 화장실,서울특별시 강동구 상암로79갈길  3,서울특별시 강동구 상일동188,Y,1,0,0,0,0,0,0,0,0,청소행정과,02-3425-5864,24시간,May-94,37.5483666648,127.131943096,2017-05-16,,300889
22434,toilet/open,별장진잎로왼쪽 화장실,서울특별시 강동구 고덕동산98-1,서울특별시 강동구 고덕동산98-1,N,1,0,0,0,0,0,1,0,0,청소행정과,02-3425-5864,24시간,Nov-02,37.5627434547,127.14680011799999,2017-05-16,,300890
22435,toilet/open,별장앞 화장실,서울특별시 강동구 아리수로61길 30-99,서울특별시 강동구 고덕동 산93-1,Y,1,0,0,0,0,0,0,0,0,청소행정과,02-3425-5864,24시간,Jun-99,37.5657016898,127.150169894,2017-05-16,,300891
22437,toilet/open,민속의 집 화장실,서울특별시 강동구 고덕로 83-55,서울특별시 강동구 고덕동 215,Y,1,1,0,0,0,0,0,0,0,청소행정과,02-3425-5864,24시간,May-95,37.5598110635,127.167519859,2017-05-16,,300892
22438,toilet/open,방죽공원 화장실,서울특별시 강동구 동남로82길 94-58,서울특별시 강동구 고덕동 296,Y,1,0,0,0,0,0,0,0,0,청소행정과,02-3425-5864,24시간,Jun-07,37.5591585951,127.159826763,2017-05-16,,300893
22439,toilet/open,산등성이목조식 화장실,서울특별시 강동구 암사동 산40-3,서울특별시 강동구 암사동 산274,N,1,1,0,0,0,0,0,0,0,청소행정과,02-3425-5864,24시간,May-01,37.5612526321,127.14581024600001,2017-05-16,,300894
22441,toilet/open,브라운스톤 천호 화장실,서울특별시 천호대로1006,서울특별시 강동구 성내동 64-13,N,2,3,1,0,0,0,0,0,0,청소행정과,02-3425-5864,24시간,Oct-08,37.5380500481,127.123787385,2017-05-16,,300895
22442,toilet/open,홍익빌딩 화장실,서울특별시 천호대로1124,서울특별시 강동구 성내3동 244-3,N,2,1,0,0,0,0,2,0,0,청소행정과,02-3425-5864,24시간,Aug-91,37.5343350876,127.13619059,2017-05-16,,300896
22443,toilet/open,둔촌역재례시장 화장실,서울특별시 양재대로91길 16,서울특별시 강동구 둔촌동 416-16,N,1,2,0,0,0,0,2,0,0,청소행정과,02-3425-5864,24시간,May-82,37.5279894662,127.135296625,2017-05-16,,300897
22444,toilet/open,파크프라장상가 화장실,서울특별시 강동구 양재대로89길16,서울특별시 강동구 성내3동 428-2,N,2,2,0,0,0,0,2,0,0,청소행정과,02-3425-5864,24시간,May-02,37.5268837217,127.134697301,2017-05-16,,300898
22445,toilet/open,선린빌딩 화장실,서울특별시 강동구 양재대로1448,서울특별시 강동구 길동 440,N,2,2,0,0,0,0,2,0,0,청소행정과,02-3425-5864,24시간,Jun-84,37.5350702422,127.13933276200001,2017-05-16,,300899
22446,toilet/open,동우빌딩 화장실,서울특별시 강동구 양재대로1443,서울특별시 강동구 길동 458-5,N,2,2,0,0,0,0,2,0,0,청소행정과,02-3425-5864,24시간,Aug-92,37.534930623600005,127.138535981,2017-05-16,,300900
22447,toilet/open,중부빌딩 화장실,서울특별시 강동구 천호대로1135,서울특별시 강동구 길동454-1,N,2,2,0,0,0,0,3,0,0,청소행정과,02-3425-5864,24시간,Oct-05,37.5346287619,127.13778868600001,2017-05-16,,300901
22448,toilet/open,일성오피스텔 화장실,서울특별시 강동구 천호대로1121,서울특별시 강동구 천호3동 449-49,N,3,3,0,0,0,0,3,0,0,청소행정과,02-3425-5864,24시간,Aug-97,37.5352142686,127.13635964,2017-05-16,,300902
22449,toilet/open,힐탑오피스텔 화장실,서울특별시 강동구 천호대로1073,서울특별시 강동구 천호동 451-20,N,1,2,1,0,0,0,1,0,0,청소행정과,02-3425-5864,24시간,Jul-97,37.5365858455,127.131365665,2017-05-16,,300903
22450,toilet/open,트레벨오피스텔 화장실,서울특별시 강동구 천호대로1057,서울특별시 강동구  천호동 451-20,N,2,3,0,0,0,0,3,0,0,청소행정과,02-3425-5864,24시간,Oct-87,37.5372546436,127.129502195,2017-05-16,,300904
22451,toilet/open,강동빌딩 화장실,서울특별시 강동구 천호대로1033,서울특별시 강동구 천호동 453-15,N,1,1,0,0,0,0,2,0,0,청소행정과,02-3425-5864,24시간,Oct-87,37.5378953122,127.12695976399999,2017-05-16,,300905
22452,toilet/open,일동빌딩 화장실,서울특별시 강동구 천호대로1027,서울특별시 강동구 천호2동 454-15,N,2,2,0,0,0,0,2,0,0,청소행정과,02-3425-5864,24시간,Mar-07,37.5381085546,127.12639439,2017-05-16,,300906
22453,toilet/open,대우한강베네시티 화장실,서울특별시 강동구 올림픽로664,서울특별시 강동구 천호동 425-5,N,2,2,0,0,0,0,3,0,0,청소행정고,02-3425-5864,24시간,Mar-07,37.5405535735,127.124977344,2017-05-16,,300907
22454,toilet/open,동서울 시장 화장실,서울특별시 강동구 올림픽로50길 58,서울특별시 강동구 천호동 422-1,N,2,2,0,0,0,0,2,0,0,청소행정과,02-3425-5864,24시간,Dec-70,37.5421682517,127.128256956,2017-05-16,,300908
22455,toilet/open,천호시장 화장실,서울특별시 강동구 구천면로 205,서울특별시 강동구 천호동 425-5,N,2,2,0,0,0,0,2,0,0,청소행정과,02-3425-5864,24시간,Mar-66,37.5406554529,127.127444204,2017-05-16,,300909
22457,toilet/open,동양텍스빌 화장실,서울특별시 강동구 상암로501-4,서울특별시 강동구 암사동 501-4,N,2,2,0,0,0,0,2,0,0,청소행정과,02-3425-5864,24시간,May-99,37.550169167199996,127.128211819,2017-05-16,,300910
22458,toilet/open,501타워 화장실,서울특별시 강동구 올림픽로782,서울특별시 강동구 암사동 501-1,N,2,2,0,0,0,0,2,0,0,청소행정과,02-3425-5864,24시간,Jan-84,37.5508648295,127.12812700399999,2017-05-16,,300911
22459,toilet/open,암사종합시장(1) 화장실,서울특별시 강동구 상암로11길 24,서울특별시 강동구 암사동 501-28,N,1,2,0,0,0,0,2,0,0,청소행정과,02-3425-5864,24시간,May-83,37.550651154200004,127.129081759,2017-05-16,,300912
22460,toilet/open,암사종합시장(2) 화장실,서울특별시 강동구 고덕로10길 64,서울특별시 강동구 암사동501-14,N,1,2,0,0,0,0,2,0,0,청소행정과,02-3425-5864,24시간,Aug-87,37.5509147686,127.12860238799999,2017-05-16,,300913
22461,toilet/open,암사영향센타 화장실,서울특별시 강동구 올림픽로795,서울특별시 강동구 암사동 503-21,N,1,2,0,0,0,0,2,0,0,청소행정과,02-3425-5867,24시간,Dec-91,37.5522057324,127.127925596,2017-05-16,,300914
22462,toilet/open,태성프라자 화장실,서울특별시 강동구 올림픽로787,서울특별시 강동구 암사2동 503-23,N,1,1,0,0,0,0,2,0,0,청소행정과,02-3425-5864,24시간,Feb-78,37.551546419,127.127725295,2017-05-16,,300915
22463,toilet/open,삼정빌딩 화장실,서울특별시 강동구 올림픽로 769,서울특별시 강동구 암사2동 512-17,N,1,1,0,0,0,0,1,0,0,청소행정과,02-3425-5864,24시간,Jan-81,37.549964856100004,127.127179404,2017-05-16,,300916
22464,toilet/open,신라빌딩 화장실,서울특별시 강동구 천호대로 997,서울특별시 강동구 천호2동 456-17,N,2,2,0,0,0,0,2,0,0,청소행정과,02-3425-5864,24시간,Oct-84,37.5385798825,127.12374300200001,2017-05-16,,300917
22465,toilet/open,롯데리아명일드라이브점 화장실,서울특별시 강동구 양재대로1651,서울특별시 강동구 명일1동 306-2,N,1,2,0,0,0,0,2,0,0,청소행정과,02-3425-5864,24시간,Oct-97,37.5529551137,127.143802296,2017-05-16,,300918
22466,toilet/open,웽빙메디칼빌딩 화장실,서울특별시 강동구 천호대로1128,서울특별시 강동구 성내동 378,N,1,2,1,1,0,0,3,0,0,청소행정과,02-3425-5864,24시간,Nov-04,37.5341617144,127.13652064700001,2017-05-16,,300919
22467,toilet/open,남해빌딩 화장실,서울특별시 강동구 양재대로1517,서울특별시 강동구 천호3동 51-7,N,2,1,0,0,0,0,2,0,0,청소행정과,02-3425-5864,24시간,Sep-94,37.5412636868,127.140874099,2017-05-16,,300920
22468,toilet/open,시온캐슬 화장실,서울특별시 강동구 양재대로1661,서울특별시 강동구 명일동 306-1,N,1,2,0,0,0,0,1,0,0,청소행정과,02-3425-5864,24시간,Nov-91,37.5538559378,127.143944358,2017-05-16,,300921
22469,toilet/open,휴다임타워 화장실,서울특별시 강동구 천호대로1139,서울특별시 강동구 길동459-3,N,1,2,2,0,0,0,4,0,0,청소행정과,02-3425-5864,24시간,Jul-10,37.534595945300005,127.13811447399999,2017-05-16,,300922
22470,toilet/open,강동헤르셔 화장실,서울특별시 강동구 천호대로1089,서울특별시 강동구 천호동 447-17,N,4,4,1,0,0,0,8,1,0,청소행정과,02-3425-5864,24시간,Jul-15,37.5366055081,127.133117181,2017-05-16,,300923
22471,toilet/open,소망빌딩 화장실,서울특별시 강동구 성안로71,서울특별시 강동구 성내동 420-42,N,1,1,0,0,0,0,1,0,0,청소행정과,02-3425-5864,24시간,Aug-04,37.5300155366,127.131557784,2017-05-16,,300924
22472,toilet/open,강일임폐리얼 화장실,서울특별시 강동구 아리수로93길 19,서울특별시 강일동 675-3,N,2,2,0,0,0,0,2,0,0,청소행정과,02-3425-5864,24시간,Mar-17,37.5653804786,127.174119886,2017-05-16,,300925
22473,toilet/open,강일타워 화장실,서울특별시 강동구 아리수로93길 27,서울특별시 강일동 675-7,N,2,1,0,0,0,0,2,0,0,청소행정과,02-3425-5864,24시간,Jan-17,37.5656223914,127.173817104,2017-05-16,,300926
22893,toilet/open,목동공중화장실 화장실,서울특별시 양천구 목동중앙로13길 22,서울특별시 양천구 목동 131-3,Y,2,2,0,0,0,0,2,0,0,서울특별시 양천구청 청소행정과,02-2620-3430,24시간,1988-01,37.545279,126.881914,2017-04-20,,300927
22894,toilet/open,오금교 입구 화장실,,서울특별시 양천구 신정동 871-17,Y,1,2,0,0,0,0,3,0,0,서울특별시 양천구청 공원녹지과,02-2620-3592,24시간,2017-01,37.509943,126.873129,2017-04-20,,300928
22895,toilet/open,오금인라인장 화장실,,서울특별시 양천구 신정동 871-6,Y,2,2,0,0,0,0,3,1,0,서울특별시 양천구청 공원녹지과,02-2620-3592,24시간,2017-01,37.513011,126.875832,2017-04-20,,300929
22896,toilet/open,신정교 별마루축구장 화장실,,서울특별시 양천구 신정동 871-37,Y,2,2,0,0,0,0,3,1,0,서울특별시 양천구청 공원녹지과,02-2620-3592,24시간,2017-01,37.515985,126.877334,2017-04-20,,300930
22897,toilet/open,신정교 해마루축구장 화장실,,서울특별시 양천구 신정동 871-37,Y,2,2,0,0,0,0,3,1,0,서울특별시 양천구청 공원녹지과,02-2620-3592,24시간,2017-01,37.518322,126.877559,2017-04-20,,300931
22898,toilet/open,오목교 출구 화장실,,서울특별시 양천구 목동 409-402,Y,1,2,0,0,0,0,3,0,0,서울특별시 양천구청 공원녹지과,02-2620-3592,24시간,2017-01,37.525118,126.87809299999999,2017-04-20,,300932
22899,toilet/open,영학정 화장실,,서울특별시 양천구 목동 409-386,Y,1,2,0,0,0,0,3,0,0,서울특별시 양천구청 공원녹지과,02-2620-3592,24시간,2017-01,37.528531,126.880599,2017-04-20,,300933
23054,toilet/open,목동인라인장 화장실,,서울특별시 양천구 목동 409-383,Y,1,2,0,0,0,0,3,0,0,서울특별시 양천구청 공원녹지과,02-2620-3592,24시간,2017-01,37.533291,126.887739,2017-04-20,,300934
23055,toilet/open,양평교 화장실,,서울특별시 양천구 목동 900-10,Y,1,2,0,0,0,0,3,0,0,서울특별시 양천구청 공원녹지과,02-2620-3592,24시간,2017-01,37.538869,126.886048,2017-04-20,,300935
23056,toilet/open,양화교 화장실,,서울특별시 양천구 목동 900-10,Y,1,2,0,0,0,0,3,0,0,서울특별시 양천구청 공원녹지과,02-2620-3592,24시간,2017-01,37.542933000000005,126.884032,2017-04-20,,300936
23057,toilet/open,용왕산근린공원(A) 화장실,,서울특별시 양천구 목2동 산12-3,N,2,3,0,0,0,0,3,0,0,서울특별시 양천구청 공원녹지과,02-2620-3574,24시간,1989-12,37.323993,126.52400700000001,2017-04-20,,300937
23058,toilet/open,용왕산근린공원(B) 화장실,,서울특별시 양천구 목2동 산23-5,N,2,3,0,0,0,0,3,0,0,서울특별시 양천구청 공원녹지과,02-2620-3574,24시간,2017-07,37.323026,126.52263400000001,2017-04-20,,300938
23059,toilet/open,용왕산근린공원(C) 화장실,,서울특별시 양천구 목2동 산12-3,N,1,2,0,0,0,0,2,0,0,서울특별시 양천구청 공원녹지과,02-2620-3574,24시간,2017-11,37.323904,126.524106,2017-04-20,,300939
23060,toilet/open,계남근린공원(A) 화장실,,서울특별시 양천구 신정3동 521,N,2,3,1,1,1,0,5,1,1,서울특별시 양천구청 공원녹지과,02-2620-3575,24시간,1996-07,37.304896,126.504382,2017-04-20,,300940
23061,toilet/open,계남근린공원(B) 화장실,,서울특별시 양천구 신정3동 621,N,1,1,0,0,0,0,2,0,0,서울특별시 양천구청 공원녹지과,02-2620-3575,24시간,2017-12,37.303789,126.51256299999999,2017-04-20,,300941
23062,toilet/open,계남근린공원(C) 화장실,,서울특별시 양천구 신정3동 621,N,3,4,1,0,1,0,7,1,1,서울특별시 양천구청 공원녹지과,02-2620-3575,24시간,2017-12,37.303419,126.512227,2017-04-20,,300942
23063,toilet/open,계남근린공원(D) 화장실,,서울특별시 양천구 신정3동 521,Y,1,1,1,1,1,0,2,1,1,서울특별시 양천구청 공원녹지과,02-2620-3576,25시간,2017-12,37.515331,126.850569,2017-04-20,,300943
23064,toilet/open,갈산근린공원(A) 화장실,,서울특별시 양천구 신정7동 산73-4,N,1,1,0,0,0,0,1,0,0,서울특별시 양천구청 공원녹지과,02-2620-3574,24시간,2017-11,37.303494,126.52130700000001,2017-04-20,,300944
23065,toilet/open,갈산근린공원(B) 화장실,,서울특별시 양천구 신정7동 171-58,N,1,1,0,0,0,0,2,0,0,서울특별시 양천구청 공원녹지과,02-2620-3574,24시간,2017-07,37.303075,126.520905,2017-04-20,,300945
23066,toilet/open,목마근린공원 화장실,,서울특별시 양천구 목5동 910,N,2,2,0,0,0,0,1,1,1,서울특별시 양천구청 공원녹지과,02-2620-3576,24시간,2017-06,37.321681,126.530694,2017-04-20,,300946
23067,toilet/open,파리근린공원 화장실,,서울특별시 양천구 목5동 906,N,3,3,0,1,0,0,7,1,1,서울특별시 양천구청 공원녹지과,02-2620-3576,24시간,2017-06,37.320421,126.52379199999999,2017-04-20,,300947
23068,toilet/open,오목근린공원 화장실,,서울특별시 양천구 목1동 921,N,3,2,0,0,0,0,3,1,0,서울특별시 양천구청 공원녹지과,02-2620-3576,24시간,1989-11,37.313928999999995,126.52245500000001,2017-04-20,,300948
23069,toilet/open,양천근린공원 화장실,,서울특별시 양천구 신정6동 320,N,4,4,1,0,1,0,8,1,1,서울특별시 양천구청 공원녹지과,02-2620-3576,24시간,2017-10,37.310412,126.52032700000001,2017-04-20,,300949
23070,toilet/open,신트리근린공원 화장실,,서울특별시 양천구 신정1동 310-7,N,4,4,1,0,1,0,7,1,2,서울특별시 양천구청 공원녹지과,02-2620-3576,24시간,2017-05,37.305085,126.512169,2017-04-20,,300950
23071,toilet/open,독서근린공원 화장실,,서울특별시 양천구 신월7동 987,N,4,4,1,0,1,0,6,1,2,서울특별시 양천구청 공원녹지과,02-2620-3576,24시간,2017-02,37.311401000000004,126.50307099999999,2017-04-20,,300951
23072,toilet/open,오솔길근린공원 화장실,,서울특별시 양천구 신월7동 977,N,2,3,1,0,1,0,5,1,1,서울특별시 양천구청 공원녹지과,02-2620-3576,24시간,2017-01,37.311278,126.500974,2017-04-20,,300952
23073,toilet/open,한울근린공원 화장실,,서울특별시 양천구 신월7동 956,N,3,2,1,0,0,0,1,1,0,서울특별시 양천구청 공원녹지과,02-2620-3576,24시간,1992-10,37.311091,126.495654,2017-04-20,,300953
23074,toilet/open,양지근린공원 화장실,,서울특별시 양천구 신월7동 936,N,3,3,0,0,0,0,2,0,0,서울특별시 양천구청 공원녹지과,02-2620-3576,24시간,1992-10,37.312106,126.49514099999999,2017-04-20,,300954
23075,toilet/open,목동근린공원 화장실,,서울특별시 양천구 목2동 517-12,N,2,3,0,0,0,0,4,0,0,서울특별시 양천구청 공원녹지과,02-2620-3576,24시간,1985-12,37.324705,126.524671,2017-04-20,,300955
23076,toilet/open,연의근린공원 화장실,,서울특별시 양천구 신정3동 1320-9,N,3,3,0,0,0,0,7,1,1,서울특별시 양천구청 공원녹지과,02-2620-3570,24시간,2017-10,37.304218,126.500297,2017-04-20,,300956
23077,toilet/open,장수공원 화장실,,서울특별시 양천구 신월2동 894,N,1,2,0,0,0,0,2,0,1,서울특별시 양천구청 공원녹지과,02-2620-3582,24시간,2017-05,37.312126,126.50588300000001,2017-04-20,,300957
23078,toilet/open,신정3호 화장실,,서울특별시 양천구 신정3동 1032-14,N,2,3,1,0,0,0,3,1,0,서울특별시 양천구청 공원녹지과,02-2620-3586,24시간,2017-05,37.310743,126.511362,2017-04-20,,300958
23079,toilet/open,신월근린공원 화장실,,서울특별시 양천구 신월7동 987-2,N,4,2,1,0,1,0,6,1,1,서울특별시 양천구청 공원녹지과,02-2620-3576,24시간,2017-10,37.310387,126.500009,2017-04-20,,300959
24373,toilet/open,서울(1) 화장실,서울특별시 중구 세종대로 지하 2,서울특별시 중구 봉래동2가 122,N,4,4,1,1,0,0,4,1,0,서울메트로,02-6110-1331,05:00~01:00,2000,37.5568778,126.9725778,2015-08-17,,300960
24374,toilet/open,시청(1) 화장실,서울특별시 중구 세종대로 지하 101,서울특별시 중구 태평로1가 31,N,7,4,2,1,2,1,16,2,2,서울메트로,02-6110-1321,05:00~01:00,2013,37.565682,126.97684879999998,2015-08-17,,300961
24375,toilet/open,종각 화장실,서울특별시 종로구 종로 지하 55,서울특별시 종로구 종로1가 44,N,5,5,2,1,0,1,16,2,1,서울메트로,02-6110-1311,05:00~01:00,2008,37.5701747,126.9832262,2015-08-17,,300962
24376,toilet/open,종로3가(1)(종각역측) 화장실,서울특별시 종로구 종로 지하129,서울특별시 종로구 종로3가 61-68,N,6,5,2,1,2,1,13,2,2,서울메트로,02-6110-1301,05:00~01:00,2010,37.5703842,126.9920077,2015-08-17,,300963
24378,toilet/open,종로5가 화장실,서울특별시 종로구 종로 지하216,서울특별시 종로구 종로5가 124-8,N,4,3,2,1,1,0,9,2,1,서울메트로,02-6110-1291,05:00~01:00,2014,37.5708657,127.0019064,2015-08-17,,300964
24379,toilet/open,동대문(1) 화장실,서울특별시 종로구 종로 지하 302,서울특별시 종로구 창신1동 552,N,3,5,1,1,0,0,4,1,0,서울메트로,02-6110-1281,05:00~01:00,2001,37.571742900000004,127.01116940000001,2015-08-17,,300965
24394,toilet/open,신설동(1) 화장실,서울특별시 동대문구 왕산로 지하1,서울특별시 동대문구 신설동 97-75,N,6,3,2,1,1,1,11,2,1,서울메트로,02-6110-1261,05:00~01:00,2014,37.5760874,127.0245602,2015-08-17,,300966
24395,toilet/open,동묘앞(1층) 화장실,서울특별시 종로구 종로359,서울특별시 종로구 숭인동 117번지,N,2,1,0,1,1,0,3,0,0,서울메트로,02-6110-1271,05:00~01:00,2005,37.5732808,127.0166486,2015-08-17,,300967
24399,toilet/open,제기동 화장실,서울특별시 동대문구 왕산로 지하 93,서울특별시 동대문구 제기동 51,N,7,5,2,1,2,1,13,2,2,서울메트로,02-6110-1251,05:00~01:00,2010,37.578162799999994,127.0346872,2015-08-17,,300968
24400,toilet/open,청량리 화장실,서울특별시 동대문구 왕산로 지하 205,서울특별시 동대문구 전농2동 620-69,N,2,2,0,1,0,0,2,0,0,서울메트로,02-6110-1241,05:00~01:00,2010,37.5799838,127.0455472,2015-08-17,,300969
24401,toilet/open,시청(2)(지하1층) 화장실,서울특별시 중구 서소문로 127,서울특별시 중구 서소문동 27,N,3,3,2,1,0,1,8,2,0,서울메트로,02-6110-2011,05:00~01:00,2008,37.5612786,126.9693213,2015-08-17,,300970
24403,toilet/open,을지로입구 화장실,서울특별시 중구 을지로 지하 42,서울특별시 중구 을지로1가 89-1,N,4,5,2,1,0,0,10,2,0,서울메트로,02-6110-2021,05:00~01:00,2009,37.5660664,126.9820222,2015-08-17,,300971
24404,toilet/open,을지로3가(2) 화장실,서울특별시 중구 을지로 지하 106,서울특별시 중구 을지로3가 70-1,N,5,7,2,1,1,1,14,2,1,서울메트로,02-6110-2031,05:00~01:00,2009,37.566171000000004,126.9902025,2015-08-17,,300972
24405,toilet/open,을지로4가(2) 화장실,서울특별시 중구 을지로 지하 178,서울특별시 중구 을지로4가 261,N,7,3,2,1,2,1,12,2,2,서울메트로,02-6110-2041,05:00~01:00,2012,37.566488799999995,126.996528,2015-08-17,,300973
24406,toilet/open,동대문역사문화공원(2) 화장실,서울특별시 중구 을지로 지하 279,서울특별시 중구 을지로7가 1,N,4,8,2,1,0,0,21,2,0,서울메트로,02-6110-2051,05:00~01:00,2010,37.5657177,127.00848490000001,2015-08-17,,300974
24407,toilet/open,신당 화장실,서울특별시 중구 퇴계로 지하 431-1,서울특별시 중구 신당5동 106-1,N,4,5,2,1,0,1,13,2,1,서울메트로,02-6110-2061,05:00~01:00,2008,37.565281299999995,127.0166395,2015-08-17,,300975
24408,toilet/open,상왕십리 화장실,서울특별시 성동구 왕십리로 지하 374,서울특별시 성동구 하왕2동 946-14,N,5,6,2,1,1,1,12,2,2,서울메트로,02-6110-2071,05:00~01:00,2006,37.5639331,127.02979309999999,2015-08-17,,300976
24409,toilet/open,왕십리 화장실,서울특별시 성동구 왕십리로 지하 300,서울특별시 성동구 행당1동 246,N,4,4,2,1,0,0,9,2,0,서울메트로,02-6110-2081,05:00~01:00,2009,37.5622586,127.03722759999998,2015-08-17,,300977
24410,toilet/open,한양대 화장실,서울특별시 성동구 왕십리로 206,서울특별시 성동구 행당동 산17,N,6,8,2,1,2,1,16,2,2,서울메트로,02-6110-2091,05:00~01:00,2010,37.555259299999996,127.04365790000001,2015-08-17,,300978
24411,toilet/open,뚝섬 화장실,서울특별시 성동구 아차산로 18,서울특별시 성동구 성수1가 656-745,N,7,4,2,1,2,1,13,2,2,서울메트로,02-6110-2101,05:00~01:00,2012,37.5471773,127.04738020000002,2015-08-17,,300979
24412,toilet/open,성수 화장실,서울특별시 성동구 아차산로 100,서울특별시 성동구 성수2가 300-1,N,4,3,2,1,0,1,12,2,0,서울메트로,02-6110-2111,05:00~01:00,2008,37.5446009,127.05688470000001,2015-08-17,,300980
24413,toilet/open,용답 화장실,서울특별시 성동구 용답길 86,서울특별시 성동구 용답동 127,N,2,2,1,1,0,0,3,1,0,서울메트로,02-6110-1341,05:00~01:00,2006,37.5586888,127.05317240000002,2015-08-17,,300981
24415,toilet/open,용두(내선 대합실) 화장실,서울특별시 동대문구 천호대로 지하129,서울특별시 동대문구 용두동 47-1,N,2,2,2,1,0,1,4,2,0,서울메트로,02-6110-1361,05:00~01:00,2005,37.5738576,127.03798959999999,2015-08-17,,300982
24419,toilet/open,건대입구 화장실,서울특별시 광진구 아차산로243,서울특별시 광진구 화양동 7-3,N,8,10,2,1,1,1,21,2,1,서울메트로,02-6110-2121,05:00~01:00,2009,37.5407487,127.06900139999999,2015-08-17,,300983
24420,toilet/open,구의 화장실,서울특별시 광진구 아차산로 384-1,서울특별시 광진구 구의동 245-24,N,3,2,2,1,0,1,7,2,1,서울메트로,02-6110-2131,05:00~01:00,2008,37.5382826,127.09075530000001,2015-08-17,,300984
24421,toilet/open,강변 화장실,서울특별시 광진구 강변역로 53,서울특별시 광진구 구의3동 546-6,N,5,5,2,1,1,1,14,2,1,서울메트로,02-6110-2141,05:00~01:00,2009,37.5354211,127.09453300000001,2015-08-17,,300985
24422,toilet/open,잠실나루 화장실,서울특별시 송파구 오금로 20,서울특별시 송파구 신천동 1,N,6,3,2,1,2,1,10,2,2,서울메트로,02-6110-2151,05:00~01:00,2010,37.5186216,127.1049002,2015-08-17,,300986
24423,toilet/open,잠실 화장실,서울특별시 송파구 올림픽로 지하265,서울특별시 송파구 잠실5동 27,N,8,10,2,1,2,1,19,2,2,서울메트로,02-6110-2161,05:00~01:00,2009,37.5176605,127.0746594,2015-08-17,,300987
24424,toilet/open,신천 화장실,서울특별시 송파구 올림픽로 지하140,서울특별시 송파구 잠실본동 5,N,6,4,2,1,2,1,12,2,2,서울메트로,02-6110-2171,05:00~01:00,2010,37.511568100000005,127.0906077,2015-08-17,,300988
24427,toilet/open,삼성 화장실,서울특별시 강남구 테헤란로 지하538,서울특별시 강남구 삼성동 172-82,N,4,8,2,1,0,1,13,2,0,서울메트로,02-6110-2191,05:00~01:00,2009,37.508826299999996,127.0630673,2015-08-17,,300989
24429,toilet/open,역삼 화장실,서울특별시 강남구 테헤란로 지하156,서울특별시 강남구 역삼1동 737,N,4,4,2,1,0,0,9,2,0,서울메트로,02-6110-2211,05:00~01:00,2006,37.4981284,127.02830300000001,2015-08-17,,300990
24431,toilet/open,교대(2) 화장실,서울특별시 서초구 서초대로 지하 294,서울특별시 서초구 서초1동 1715-9,N,5,3,1,1,0,0,9,1,0,서울메트로,02-6110-2231,05:00~01:00,2004,37.4948466,127.0172856,2015-08-17,,300991
24432,toilet/open,서초 화장실,서울특별시 서초구 서초대로 지하 233,서울특별시 서초구 서초3동 1500,N,5,4,2,1,1,1,10,2,2,서울메트로,02-6110-2241,05:00~01:00,2010,37.492764799999996,127.01054140000001,2015-08-17,,300992
24433,toilet/open,방배 화장실,서울특별시 서초구 방배로 지하 80,서울특별시 서초구 방배동 225,N,4,4,2,1,0,1,8,2,0,서울메트로,02-6110-2251,05:00~01:00,2009,37.4812965,126.9973202,2015-08-17,,300993
24434,toilet/open,사당(2)(방배역측) 화장실,서울특별시 동작구 남부순환로 지하 2089,서울특별시 동작구 사당1동 1112,N,3,3,1,1,0,0,6,1,0,서울메트로,02-6110-2261,05:00~01:00,2000,37.4764838,126.9813957,2015-08-17,,300994
24436,toilet/open,낙성대 화장실,서울특별시 관악구 남부순환로 지하 1928,서울특별시 관악구 봉천6동 1693-38,N,6,4,2,1,1,1,12,2,2,서울메트로,02-6110-2271,05:00~01:00,2010,37.4770283,126.96339590000001,2015-08-17,,300995
24437,toilet/open,서울대입구 화장실,서울특별시 관악구 남부순환로 지하 1822,서울특별시 관악구 봉천6동 979-1,N,4,5,1,1,0,1,7,1,0,서울메트로,02-6110-2281,05:00~01:00,2006,37.4811133,126.95263440000001,2015-08-17,,300996
24438,toilet/open,봉천 화장실,서울특별시 관악구 남부순환로 지하 1721,서울특별시 관악구 봉천8동 930-45,N,5,4,2,1,1,1,10,2,2,서울메트로,02-6110-2291,05:00~01:00,2010,37.4825178,126.94148100000001,2015-08-17,,300997
24439,toilet/open,신림 화장실,서울특별시 관악구 남부순환로 지하 1614,서울특별시 관악구 신림본동 1640-1,N,7,6,2,1,2,1,14,2,2,서울메트로,02-6110-2301,05:00~01:00,2010,37.4841776,126.92978870000002,2015-08-17,,300998
24440,toilet/open,신대방 화장실,서울특별시 동작구 대림로 2,서울특별시 동작구 신대방1동 643-1,N,5,3,2,1,1,1,13,2,1,서울메트로,02-6110-2311,05:00~01:00,2011,37.4875104,126.91299140000001,2015-08-17,,300999
24442,toilet/open,구로디지털단지 화장실,서울특별시 구로구 도림천로 477,서울특별시 구로구 구로3동 810-3,N,3,5,2,1,0,1,9,2,0,서울메트로,02-6110-2321,05:00~01:00,2009,37.4851265,126.9015288,2015-08-17,,301000
24443,toilet/open,신도림(게이트 내) 화장실,서울특별시 구로구 새말로 117-21,서울특별시 구로구 신도림동460-26,N,4,7,2,1,1,2,14,2,1,서울메트로,02-6110-2341,05:00~01:00,2011,37.508686700000005,126.8909033,2015-08-17,,301001
24445,toilet/open,도림천 화장실,서울특별시 구로구 경인로 67길 160,서울특별시 구로구 신도림동271-62,N,2,4,2,1,0,0,2,2,0,서울메트로,02-6110-2441,05:00~01:00,2006,37.5144011,126.88268459999999,2015-08-17,,301002
24446,toilet/open,양천구청 화장실,서울특별시 양천구 목동로3길 지하 33,서울특별시 양천구 신정7동 165-1,N,5,3,2,1,1,1,10,2,1,서울메트로,02-6110-2451,05:00~01:00,2014,37.5125175,126.8657108,2015-08-17,,301003
24447,toilet/open,신정네거리 화장실,서울특별시 양천구 중앙로 지하 261,서울특별시 양천구 신정3동 1231,N,5,4,2,1,2,1,10,2,2,서울메트로,02-6110-2461,05:00~01:00,2010,37.5182935,126.8536189,2015-08-17,,301004
24448,toilet/open,문래 화장실,서울특별시 영등포구 당산로 지하 28,서울특별시 영등포구 문래동3가 54,N,5,7,2,1,1,1,15,2,2,서울메트로,02-6110-2351,05:00~01:00,2011,37.5178873,126.89475130000001,2015-08-17,,301005
24449,toilet/open,영등포구청 화장실,서울특별시 영등포구 당산로 지하 121,서울특별시 영등포구 당산동3가 385,N,6,8,2,1,1,1,14,2,1,서울메트로,02-6110-2361,05:00~01:00,2009,37.525656299999994,126.8966142,2015-08-17,,301006
24450,toilet/open,당산 화장실,서울특별시 영등포구 당산로 229,서울특별시 영등포구 당산동5가 323-1,N,4,3,2,1,0,1,10,2,1,서울메트로,02-6110-2371,05:00~01:00,2008,37.5349309,126.9027301,2015-08-17,,301007
24451,toilet/open,합정 화장실,서울특별시 마포구 양화로 지하 55,서울특별시 마포구 서교동 393,N,3,5,2,1,0,1,16,2,1,서울메트로,02-6110-2381,05:00~01:00,2008,37.5500077,126.91450390000001,2015-08-17,,301008
24452,toilet/open,홍대입구 화장실,서울특별시 마포구 양화로 지하160,서울특별시 마포구 동교동 165,N,4,5,1,1,0,1,8,1,0,서울메트로,02-6110-2391,05:00~01:00,2011,37.5567292,126.92364189999999,2015-08-17,,301009
24453,toilet/open,신촌 화장실,서울특별시 마포구 신촌로 지하 90,서울특별시 마포구 노고산동 31-11,N,4,7,2,1,0,1,12,2,1,서울메트로,02-6110-2401,05:00~01:00,2008,37.5546671,126.93749950000002,2015-08-17,,301010
24454,toilet/open,이대 화장실,서울특별시 마포구 신촌로 지하 180,서울특별시 마포구 대흥동 2,N,5,4,1,1,0,0,12,1,0,서울메트로,02-6110-2411,05:00~01:00,2001,37.5568129,126.94771180000001,2015-08-17,,301011
24455,toilet/open,아현 화장실,서울특별시 마포구 신촌로 지하 270,서울특별시 마포구 아현2동 329,N,4,2,2,1,2,1,7,2,2,서울메트로,02-6110-2421,05:00~01:00,2009,37.5558896,126.95566090000001,2015-08-17,,301012
24456,toilet/open,충정로 화장실,서울특별시 서대문구 서소문로 지하 17,서울특별시 서대문구 충정로3가 295-60,N,3,5,2,1,0,0,4,2,0,서울메트로,02-6110-2431,05:00~01:00,1998,37.559492600000006,126.9638176,2015-08-17,,301013
24457,toilet/open,구파발 화장실,서울특별시 은평구 진관2로 지하 15-25,서울특별시 은평구 진관내동 533,N,4,4,2,1,1,1,9,2,2,서울메트로,02-6110-3201,05:00~01:00,2010,37.637536700000005,126.9185875,2015-08-17,,301014
24458,toilet/open,연신내 화장실,서울특별시 은평구 통일로 지하 849,서울특별시 은평구 갈현동 439,N,3,6,0,1,0,0,4,0,0,서울메트로,02-6110-3211,05:00~01:00,2000,37.6188881,126.920832,2015-08-17,,301015
24459,toilet/open,불광 화장실,서울특별시 은평구 통일로 지하 723-1,서울특별시 은평구 불광1동 281,N,3,3,1,1,0,0,4,1,0,서울메트로,02-6110-3221,05:00~01:00,2000,37.610482899999994,126.9292884,2015-08-17,,301016
24460,toilet/open,녹번 화장실,서울특별시 은평구 통일로 지하 602-1,서울특별시 은평구 녹번동 48,N,7,10,1,1,0,0,7,1,0,서울메트로,02-6110-3231,05:00~01:00,2002,37.6007017,126.93600479999999,2015-08-17,,301017
24461,toilet/open,홍제 화장실,서울특별시 서대문구 통일로 지하 440-1,서울특별시 서대문구 홍제동 330-66,N,4,4,2,1,0,1,11,2,1,서울메트로,02-6110-3241,05:00~01:00,2008,37.588671999999995,126.94422659999998,2015-08-17,,301018
24462,toilet/open,무악재 화장실,서울특별시 서대문구 통일로 지하 361,서울특별시 서대문구 홍제4동 26-1,N,3,3,1,1,0,0,3,1,0,서울메트로,02-6110-3251,05:00~01:00,2002,37.5823607,126.9504375,2015-08-17,,301019
24463,toilet/open,독립문 화장실,서울특별시 서대문구 통일로 지하 247,서울특별시 서대문구 현저동 101,N,4,4,2,1,1,1,9,2,2,서울메트로,02-6110-3261,05:00~01:00,2012,37.5743009,126.95591780000001,2015-08-17,,301020
24464,toilet/open,경복궁 화장실,서울특별시 종로구 사직로 지하 130,서울특별시 종로구 적선동 81-1,N,6,6,1,1,0,0,6,1,0,서울메트로,02-6110-3271,05:00~01:00,2000,37.5758199,126.97305790000001,2015-08-17,,301021
24465,toilet/open,안국 화장실,서울특별시 종로구 율곡로 지하 62,서울특별시 종로구 안국동 148,N,5,4,2,1,1,1,9,2,2,서울메트로,02-6110-3281,05:00~01:00,2012,37.576696000000005,126.98580359999998,2015-08-17,,301022
24466,toilet/open,종로3가(3)(지하3층) 화장실,서울특별시 종로구 돈화문로 지하 30,서울특별시 종로구 묘동 59,N,5,5,2,1,1,1,15,2,2,서울메트로,02-6110-3291,05:00~01:00,2001,37.571195700000004,126.9919594,2015-08-17,,301023
24468,toilet/open,을지로3가(3) 화장실,서울특별시 중구 을지로 지하 129,서울특별시 중구 을지로3가 118,N,3,5,1,1,0,0,3,1,0,서울메트로,02-6110-3301,05:00~01:00,2000,37.5664121,126.9941848,2015-08-17,,301024
24469,toilet/open,동대입구 화장실,서울특별시 중구 동호로 지하 256,서울특별시 중구 장충동2가 189-2,N,5,4,2,1,1,1,10,2,2,서울메트로,02-6110-3321,05:00~01:00,2010,37.5592266,127.005275,2015-08-17,,301025
24470,toilet/open,약수 화장실,서울특별시 중구 다산로 지하 122,서울특별시 중구 신당3동 373-13,N,6,8,2,1,1,0,9,2,0,서울메트로,02-6110-3331,05:00~01:00,2007,37.554379499999996,127.01101640000002,2015-08-17,,301026
24471,toilet/open,금호 화장실,서울특별시 성동구 동호로 지하 104,서울특별시 성동구 금호4가 1470,N,6,7,2,1,0,0,5,2,0,서울메트로,02-6110-3341,05:00~01:00,2009,37.5480381,127.01588259999998,2015-08-17,,301027
24472,toilet/open,옥수(3층 환승통로측) 화장실,서울특별시 성동구 동호로 21,서울특별시 성동구 옥수동 168-1,N,3,4,1,1,0,1,7,1,0,서울메트로,02-6110-3351,05:00~01:00,2002,37.5466746,127.01624479999998,2015-08-17,,301028
24473,toilet/open,신답 화장실,서울특별시 성동구 천호대로 232,서울특별시 성동구 용답동 128,N,2,2,1,1,0,0,3,1,0,서울메트로,02-6110-1351,05:00~01:00,2003,37.569744,127.0469446,2015-08-17,,301029
24475,toilet/open,압구정 화장실,서울특별시 강남구 압구정로 지하 172,서울특별시 강남구 압구정동 668,N,4,5,2,1,1,1,10,2,1,서울메트로,02-6110-3361,05:00~01:00,2009,37.523526399999994,127.0283255,2015-08-17,,301030
24476,toilet/open,신사 화장실,서울특별시 강남구 도산대로 지하 102,서울특별시 강남구 신사동 501,N,4,4,2,1,1,1,9,2,1,서울메트로,02-6110-3371,05:00~01:00,2009,37.5163915,127.02030729999998,2015-08-17,,301031
24477,toilet/open,잠원 화장실,서울특별시 서초구 잠원로 4길 지하 46,서울특별시 서초구 잠원동 65-17,N,5,5,1,1,0,0,5,1,0,서울메트로,02-6110-3381,05:00~01:00,2003,37.513081799999995,127.0118568,2015-08-17,,301032
24479,toilet/open,남부터미널 화장실,서울특별시 서초구 서초중앙로 지하 31,서울특별시 강남구 서초3동 1446-1,N,4,5,2,1,1,1,9,2,1,서울메트로,02-6110-3411,05:00~01:00,2009,37.4866605,127.01521840000001,2015-08-17,,301033
24480,toilet/open,양재 화장실,서울특별시 서초구 남부순환로 지하 2585,서울특별시 서초구 양재1동산 27-2,N,3,4,1,1,0,0,3,1,0,서울메트로,02-6110-3421,05:00~01:00,2000,37.4847605,127.033371,2015-08-17,,301034
24481,toilet/open,매봉 화장실,서울특별시 강남구 남부순환로 지하 2744,서울특별시 강남구 도곡2동 464-1,N,4,6,1,1,0,0,6,1,0,서울메트로,02-6110-3431,05:00~01:00,2003,37.486940600000004,127.04662140000002,2015-08-17,,301035
24482,toilet/open,도곡 화장실,서울특별시 강남구 남부순환로 지하 2814,서울특별시 강남구 도곡2동 467-5,N,4,4,1,1,0,0,6,1,0,서울메트로,02-6110-3441,05:00~01:00,2004,37.4908245,127.0553064,2015-08-17,,301036
24483,toilet/open,대치 화장실,서울특별시 강남구 남부순환로 지하 2952,서울특별시 강남구 대치2동 509,N,4,5,1,1,0,0,6,1,0,서울메트로,02-6110-3451,05:00~01:00,2004,37.4945429,127.0634256,2015-08-17,,301037
24484,toilet/open,학여울 화장실,서울특별시 강남구 남부순환로 지하 3104,서울특별시 강남구 대치동 514,N,4,5,1,1,0,0,6,1,0,서울메트로,02-6110-3461,05:00~01:00,2006,37.4966789,127.0717054,2015-08-17,,301038
24485,toilet/open,대청 화장실,서울특별시 강남구 일원로 지하 2,서울특별시 강남구 개포동 18-10,N,3,3,1,1,0,0,5,1,0,서울메트로,02-6110-3471,05:00~01:00,2004,37.493686100000005,127.0794787,2015-08-17,,301039
24486,toilet/open,일원 화장실,서울특별시 강남구 일원로 지하 121,서울특별시 강남구 일원본동 214,N,4,6,1,1,0,0,5,1,0,서울메트로,02-6110-3481,05:00~01:00,2006,37.4839534,127.08441270000002,2015-08-17,,301040
24487,toilet/open,수서 화장실,서울특별시 강남구 광평로 지하 270,서울특별시 강남구 수서동 439-2,N,4,4,2,1,1,1,9,2,1,서울메트로,02-6110-3491,05:00~01:00,2009,37.4873499,127.1018416,2015-08-17,,301041
24488,toilet/open,가락시장(게이트 내) 화장실,서울특별시 송파구 송파대로 지하 257,서울특별시 송파구 가락동 298번지,N,1,1,0,1,0,1,8,0,3,서울메트로,02-6110-3501,05:00~01:00,2010,37.4928982,127.1180582,2015-08-17,,301042
24490,toilet/open,경찰병원(게이트 내) 화장실,서울특별시 송파구 중대로 지하 149,서울특별시 송파구 가락본동 58번지,N,3,2,0,1,1,1,4,0,1,서울메트로,02-6110-3511,05:00~01:00,2010,37.4983224,127.1256757,2015-08-17,,301043
24492,toilet/open,오금(게이트 내) 화장실,서울특별시 송파구 오금로 지하 321,서울특별시 송파구 오금동 44-2번지,N,3,1,0,1,1,0,3,0,1,서울메트로,02-6110-3521,05:00~01:00,2010,37.50324620000001,127.1263422,2015-08-17,,301044
24494,toilet/open,당고개(1층) 화장실,서울특별시 노원구 상계로 305,서울특별시 노원구 상계4동 111,N,3,5,2,1,0,1,3,2,0,서울메트로,02-6110-4091,05:00~01:00,2010,37.670556299999994,127.0793058,2015-08-17,,301045
24495,toilet/open,상계 화장실,서울특별시 노원구 상계로 182,서울특별시 노원구 상계5동 173,N,5,4,2,1,2,1,10,2,2,서울메트로,02-6110-4101,05:00~01:00,2010,37.6610953,127.07352560000001,2015-08-17,,301046
24496,toilet/open,노원 화장실,서울특별시 노원구 상계로 69-1,서울특별시 노원구 상계2동 335,N,8,5,2,1,2,1,17,2,2,서울메트로,02-6110-4111,05:00~01:00,2013,37.6558674,127.06199109999999,2015-08-17,,301047
24498,toilet/open,쌍문 화장실,서울특별시 도봉구 도봉로 지하 486-1,서울특별시 도봉구 창1동 659-12,N,5,7,1,1,0,0,6,1,0,서울메트로,02-6110-4131,05:00~01:00,2002,37.6488107,127.034866,2015-08-17,,301048
24499,toilet/open,수유 화장실,서울특별시 강북구 도봉로 지하 338,서울특별시 강북구 수유3동 140,N,5,5,2,1,2,1,11,2,2,서울메트로,02-6110-4141,05:00~01:00,2010,37.6397753,127.0272077,2015-08-17,,301049
24500,toilet/open,미아 화장실,서울특별시 강북구 도봉로 지하 198,서울특별시 강북구 미아3동 197-14,N,5,6,1,1,0,0,7,1,0,서울메트로,02-6110-4151,05:00~01:00,2003,37.6298777,127.02471409999998,2015-08-17,,301050
24501,toilet/open,미아사거리 화장실,서울특별시 강북구 도봉로 지하 50,서울특별시 강북구 미아4동 71-5,N,6,5,2,1,1,1,13,2,1,서울메트로,02-6110-4161,05:00~01:00,2008,37.6151041,127.03004609999999,2015-08-17,,301051
24502,toilet/open,길음 화장실,서울특별시 성북구 동소문로 지하 248,서울특별시 성북구 길음1동 877-66,N,7,4,2,1,2,1,14,2,2,서울메트로,02-6110-4171,05:00~01:00,2013,37.60322539999999,127.02496470000001,2015-08-17,,301052
24503,toilet/open,성신여대 화장실,서울특별시 성북구 동소문로 지하 102,서울특별시 성북구 동선동 4가 1,N,6,5,2,1,2,1,13,2,2,서울메트로,02-6110-4181,05:00~01:00,2011,37.5930482,127.01671359999999,2015-08-17,,301053
24504,toilet/open,대림 화장실,서울특별시 구로구 도림천로 351,서울특별시 구로구 구로6동125-66,N,8,7,2,1,2,1,16,2,2,서울메트로,02-6110-2331,05:00~01:00,2010,37.49250429999999,126.8949615,2015-08-17,,301054
24505,toilet/open,혜화 화장실,서울특별시 종로구 대학로 지하 120,서울특별시 종로구 명륜동4가 1,N,6,5,2,1,1,1,11,2,1,서울메트로,02-6110-4201,05:00~01:00,2009,37.581893,127.0019528,2015-08-17,,301055
24506,toilet/open,동대문(4) 화장실,서울특별시 종로구 율곡로 지하 308,서울특별시 종로구 종로6가 69,N,4,4,1,1,0,0,5,1,0,서울메트로,02-6110-4211,05:00~01:00,2010,37.5703848,127.009529,2015-08-17,,301056
24507,toilet/open,동대문역사문화공원(4)(지하1층) 화장실,서울특별시 중구 장충단로 지하 230,서울특별시 중구 광희동1가 194,N,3,4,2,1,1,0,13,2,1,서울메트로,02-6110-4221,05:00~01:00,2010,37.5644784,127.0071588,2015-08-17,,301057
24509,toilet/open,충무로 화장실,서울특별시 중구 퇴계로 지하 199,서울특별시 중구 충무로4가 125,N,7,4,2,1,0,1,16,2,1,서울메트로,02-6110-4231,05:00~01:00,2012,37.561159100000005,126.994398,2015-08-17,,301058
24510,toilet/open,명동 화장실,서울특별시 중구 퇴계로 지하126,서울특별시 중구 충무로1가 64,N,5,6,1,1,0,0,9,1,0,서울메트로,02-6110-4241,05:00~01:00,2001,37.560822200000004,126.9853555,2015-08-17,,301059
24511,toilet/open,회현 화장실,서울특별시 중구 퇴계로 지하 54,서울특별시 중구 남창동 46,N,5,6,2,1,1,1,12,2,2,서울메트로,02-6110-4251,05:00~01:00,2012,37.5590295,126.9772521,2015-08-17,,301060
24512,toilet/open,서울(4) 화장실,서울특별시 용산구 한강대로 지하 392,서울특별시 용산구 동자동 14,N,3,3,1,1,0,0,3,1,0,서울메트로,02-6110-4261,05:00~01:00,2000,37.535982399999995,126.9713509,2015-08-17,,301061
24513,toilet/open,숙대입구 화장실,서울특별시 용산구 한강대로 지하 306,서울특별시 용산구 갈월동 101,N,6,6,2,1,2,1,12,2,2,서울메트로,02-6110-4271,05:00~01:00,2012,37.545527500000006,126.97196969999999,2015-08-17,,301062
24514,toilet/open,삼각지 화장실,서울특별시 용산구 한강대로 지하 180,서울특별시 용산구 한강로1가 293,N,4,3,2,1,1,1,10,2,1,서울메트로,02-6110-4281,05:00~01:00,2010,37.5343935,126.9730142,2015-08-17,,301063
24515,toilet/open,신용산 화장실,서울특별시 용산구 한강대로 지하 112,서울특별시 용산구 한강로2가 181,N,4,7,1,1,0,0,7,1,0,서울메트로,02-6110-4291,05:00~01:00,2003,37.5293642,126.96829850000002,2015-08-17,,301064
24516,toilet/open,이촌 화장실,서울특별시 용산구 서빙고로 지하 83,서울특별시 용산구 용산동 5가 17,N,5,3,2,1,1,1,12,2,1,서울메트로,02-6110-4301,05:00~01:00,2009,37.5224811,126.9736707,2015-08-17,,301065
24517,toilet/open,동작 화장실,서울특별시 동작구 현충로 257,서울특별시 동작구 동작동 121-5,N,6,4,2,1,1,1,7,2,1,서울메트로,02-6110-4311,05:00~01:00,2010,37.5034647,126.97992649999999,2015-08-17,,301066
24518,toilet/open,총신대입구 화장실,서울특별시 동작구 동작대로 지하 117,서울특별시 동작구 사당2동 9-31,N,3,3,1,1,0,0,3,1,0,서울메트로,02-6110-1460,05:00~01:00,2000,37.487513799999995,126.9821618,2015-08-17,,301067
24519,toilet/open,사당(4)(지하1층 총신대역측) 화장실,서울특별시 동작구  동작대로 지하 3,서울특별시 동작구 사당1동 1112,N,4,3,2,1,1,1,7,2,1,서울메트로,02-6110-4331,05:00~01:00,2009,37.4768251,126.98158329999998,2015-08-17,,301068
24522,toilet/open,남태령 화장실,서울특별시 서초구 과천대로 지하 816,서울특별시 서초구 방배2동 2909,N,3,4,2,1,0,0,3,2,0,서울메트로,02-61104341,05:00~01:00,2006,37.4643638,126.9892695,2015-08-17,,301069
24526,toilet/open,한성대 화장실,서울특별시 성북구 삼선교로 지하 1,서울특별시 성북구 삼선동1가 14,N,5,7,1,1,0,0,5,1,0,서울메트로,02-6110-4191,05:00~01:00,2003,37.5880209,127.0057966,2015-08-17,,301070
24612,toilet/open,양재근린공원 화장실,,서울특별시 서초구 양재동 311,N,2,2,0,0,0,0,3,0,0,서울특별시 서초구청,,연중무휴,,37.4716635953,127.042356418,2017-03-30,,301071
24613,toilet/open,양재천근린공원 화장실,,서울특별시 서초구 양재동 261-22,N,3,2,1,0,0,0,3,1,0,서울특별시 서초구청,,연중무휴,,37.4761184197,127.04170774299999,2017-03-30,,301072
24726,toilet/open,생태놀이터 화장실,,서울특별시 서초구 우면동 71,N,1,1,0,0,0,0,1,0,0,서울특별시 서초구청,,연중무휴,,37.4732137508,127.029044613,2017-03-30,,301073
24727,toilet/open,섬들근린공원 화장실,,서울특별시 서초구 우면동 729,N,1,1,0,0,0,0,1,0,0,서울특별시 서초구청,,연중무휴,,37.4631052316,127.025473349,2017-03-30,,301074
24728,toilet/open,몽마르뜨공원 화장실,,서울특별시 서초구 반포동 산59-1,N,3,2,1,0,0,0,3,1,0,서울특별시 서초구청,,연중무휴,,37.4964776852,127.004043895,2017-03-30,,301075
24729,toilet/open,용허리근린공원 화장실,,서울특별시 서초구 서초동 1324-1,N,2,2,1,0,0,0,3,1,0,서울특별시 서초구청,,연중무휴,,37.494255446,127.022941865,2017-03-30,,301076
24730,toilet/open,송동근린공원 화장실,,서울특별시 서초구 우면동 777,N,2,3,1,0,0,0,5,1,0,서울특별시 서초구청,,연중무휴,,37.4587886437,127.01994709899999,2017-03-30,,301077
24732,toilet/open,청계산 공영주차장 화장실 화장실,,서울특별시 서초구 원지동 362-1,N,4,5,1,0,0,0,9,1,0,서울특별시 서초구청,,연중무휴,,37.4454271408,127.05705518799999,2017-03-30,,301078
24733,toilet/open,청계산 천개사 앞 화장실 화장실,,서울특별시 서초구 원지동 420-2,N,2,2,0,0,0,0,3,0,0,서울특별시 서초구청,,연중무휴,,37.4422097221,127.05493281700001,2017-03-30,,301079
24734,toilet/open,청계산 어둔골 화장실 화장실,,서울특별시 서초구 원지동 산23-1,N,2,2,0,0,0,0,4,0,0,서울특별시 서초구청,,연중무휴,,37.4410075603,127.051388234,2017-03-30,,301080
24735,toilet/open,청계산 원터쉼터 화장실 화장실,,서울특별시 서초구 원지동 산4-13,N,3,2,0,0,0,0,4,0,0,서울특별시 서초구청,,연중무휴,,37.4367393715,127.044949157,2017-03-30,,301081
24736,toilet/open,청계산 청계골입구 화장실 화장실,,서울특별시 서초구 원지동 산5,N,2,2,0,0,0,0,3,0,0,서울특별시 서초구청,,연중무휴,,37.434713322600004,127.062113585,2017-03-30,,301082
24738,toilet/open,청계산 개나리골입구화장실 화장실,,서울특별시 서초구 원지동 산72,N,1,0,0,0,0,0,1,0,0,서울특별시 서초구청,,연중무휴,,37.4510053035,127.042046405,2017-03-30,,301083
24739,toilet/open,구룡산 입구 화장실 화장실,,서울특별시 서초구 염곡동 산38,N,1,0,0,0,0,0,1,0,0,서울특별시 서초구청,,연중무휴,,37.4633673051,127.058701034,2017-03-30,,301084
24740,toilet/open,말죽거리공원 화장실 화장실,,서울특별시 서초구 서초동 258-2,N,1,1,0,0,0,0,1,0,0,서울특별시 서초구청,,연중무휴,,37.482719932399995,127.033819575,2017-03-30,,301085
24741,toilet/open,우면산(서초약수터) 화장실,,서울특별시 서초구 서초동 431-6,N,1,1,0,0,0,0,1,0,0,서울특별시 서초구청,,연중무휴,,37.482297673699996,127.02075383200001,2017-03-30,,301086
24743,toilet/open,우면산(예술바위 주변) 화장실,,서울특별시 서초구 우면동 산8-1,Y,1,1,0,0,0,0,0,0,0,서울특별시 서초구청,,연중무휴,,37.4760159064,127.020354147,2017-03-30,,301087
24744,toilet/open,우면산(신동아아파트 앞) 화장실,,서울특별시 서초구 방배동 산92-1,N,1,1,0,0,0,0,2,0,0,서울특별시 서초구청,,연중무휴,,37.4707485433,127.001424374,2017-03-30,,301088
24746,toilet/open,우면산(남태령 정각사) 화장실,,서울특별시 서초구 방배동 산190-2,N,2,2,1,0,0,0,3,0,0,서울특별시 서초구청,,연중무휴,,37.4623721833,126.988411864,2017-03-30,,301089
24747,toilet/open,우면산(소망탑 깔딱고개) 화장실,,서울특별시 서초구 서초동 산150-15,N,1,0,0,0,0,0,1,0,0,서울특별시 서초구청,,연중무휴,,37.4745142947,127.010653946,2017-03-30,,301090
24749,toilet/open,도구머리공원 화장실,,서울특별시 서초구 방배동 산75-4,N,2,2,0,0,0,0,3,0,0,서울특별시 서초구청,,연중무휴,,37.479596039,126.989915149,2017-03-30,,301091
24750,toilet/open,간이화장실 화장실,,서울특별시 서초구 반포동 115-4,N,1,1,0,0,0,0,2,0,0,서울특별시 서초구청,,연중무휴,,37.5081943527,126.995634263,2017-03-30,,301092
24752,toilet/open,방배배수지 체육공원 화장실,,서울특별시 서초구 방배동 599,N,1,2,0,0,0,0,2,0,0,서울특별시 서초구청,,연중무휴,,37.4727269304,126.992461925,2017-03-30,,301093
24762,toilet/open,양재천수영장 화장실,,서울특별시 서초구 양재동 126-1,N,2,3,1,1,0,0,4,1,0,서울특별시 서초구청,,연중무휴,,37.473464195,127.035750814,2017-03-30,,301094
24764,toilet/open,양재천(영동2교둑마루) 화장실,,서울특별시 서초구 양재동 261-23,N,1,3,1,0,0,0,5,1,0,서울특별시 서초구청,,연중무휴,,37.4766230551,127.041509047,2017-03-30,,301095
24765,toilet/open,양재천무인자동화장실(교총삼거리둑마루) 화장실,,서울특별시 서초구 우면동 143-6,Y,1,0,0,0,0,0,0,0,0,서울특별시 서초구청,,연중무휴,,37.468269086,127.02871261799999,2017-03-30,,301096
24907,toilet/open,살곶이 진입 화장실,서울특별시 성동구 사근동 102-28,서울특별시 성동구 사근동 102-28,N,1,1,1,0,0,0,2,0,0,서울특별시성동구도시관리공단,02-2204-7943,연중무휴,2016-01-01,37.54954,127.03496899999999,2017-02-14,,301097
24908,toilet/open,살곶이 진출 화장실,서울특별시 성동구 사근동 102-28,서울특별시 성동구 사근동 102-28,N,1,1,0,0,0,0,2,0,0,서울특별시성동구도시관리공단,02-2204-7943,연중무휴,2016-09-01,37.553132,127.028349,2017-02-14,,301098
24910,toilet/open,궁터장 화장실,서울특별시 성동구 행당동 81-4,서울특별시 성동구 행당동 81-4,N,1,2,0,0,0,0,2,0,0,서울특별시성동구도시관리공단,02-2204-7943,연중무휴,2016-11-01,37.5461,127.010581,2017-02-14,,301099
24912,toilet/open,송정농구장 화장실,서울특별시 성동구 송정동 73-24,서울특별시 성동구 송정동 73-24,N,1,1,0,0,0,0,2,0,0,서울특별시성동구도시관리공단,02-2204-7943,연중무휴,2016-01-01,37.567202,127.041067,2017-02-14,,301100
24913,toilet/open,송정제방 화장실,서울특별시 성동구 송정동 75-20,서울특별시 성동구 송정동 75-20,N,1,1,1,0,0,0,2,0,0,서울특별시성동구도시관리공단,02-2204-7943,연중무휴,2016-05-01,37.569826,127.04410800000001,2017-02-14,,301101
24914,toilet/open,상원 앞 화장실,서울특별시 성동구 성수동1가 2-20,서울특별시 성동구 성수동1가 2-20,N,0,2,1,0,0,0,2,1,0,서울특별시성동구도시관리공단,02-2204-7943,연중무휴,2016-09-01,37.549915999999996,127.028741,2017-02-14,,301102
24916,toilet/open,자전거체험장 화장실,서울특별시 성동구 마장동 811,서울특별시 성동구 마장동 811,N,1,1,0,0,0,0,2,0,0,서울특별시성동구도시관리공단,02-2204-7943,연중무휴,2016-06-01,37.553973,127.04632600000001,2017-02-14,,301103
24919,toilet/open,응봉산 팔각정 화장실,서울특별시 성동구 금호4가 1539,서울특별시 성동구 금호4가 1539,N,2,3,1,0,0,0,5,1,0,서울특별시성동구도시관리공단,02-2204-7943,연중무휴,2016-10-01,37.548457,127.03193,2017-02-14,,301104
24922,toilet/open,응봉자전거대여소 화장실,서울특별시 성동구 응봉동 3-11,서울특별시 성동구 응봉동 3-11,N,1,1,0,0,0,0,1,0,0,서울특별시성동구도시관리공단,02-2204-7943,연중무휴,2016-05-01,37.548505,127.03086699999999,2017-02-14,,301105
24926,toilet/open,매봉산지하수 옆 화장실,서울특별시 성동구 옥수동 산5-164,서울특별시 성동구 옥수동 산5-164,N,2,2,1,1,0,0,4,0,0,서울특별시성동구도시관리공단,02-2204-7943,연중무휴,2016-05-01,37.544808,127.05240500000001,2017-02-14,,301106
24929,toilet/open,응봉교 아래 화장실,서울특별시 성동구 응봉동 244-2,서울특별시 성동구 응봉동 244-2,N,1,1,0,0,0,0,2,0,0,서울특별시성동구도시관리공단,02-2204-7943,연중무휴,2016-01-01,37.55127,127.037219,2017-02-14,,301107
24930,toilet/open,응봉체육공원 화장실,서울특별시 성동구 응봉동 9-4,서울특별시 성동구 응봉동 9-4,N,1,1,0,0,0,0,2,0,0,서울특별시성동구도시관리공단,02-2204-7943,연중무휴,2016-01-01,37.557596999999994,127.037251,2017-02-14,,301108
24931,toilet/open,무학봉 화장실,서울특별시 성동구 하왕십리동 890-334,서울특별시 성동구 하왕십리동 890-334,N,1,1,0,0,0,0,1,0,0,서울특별시성동구도시관리공단,02-2204-7943,연중무휴,2016-12-01,37.544849,127.02061100000002,2017-02-14,,301109
24932,toilet/open,중랑물재생센터 화장실,서울특별시 성동구 송정동 73-37,서울특별시 성동구 송정동 73-37,N,1,1,0,0,0,0,2,0,0,서울특별시성동구도시관리공단,02-2204-7943,연중무휴,2016-01-01,37.567892,127.039399,2017-02-14,,301110
24933,toilet/open,성삼공원 화장실,서울특별시 성동구 성수동2가 273-11,서울특별시 성동구 성수동2가 273-11,N,2,1,1,0,0,0,5,1,1,서울특별시성동구도시관리공단,02-2204-7943,연중무휴,2016-08-01,37.561611,127.026948,2017-02-14,,301111
24934,toilet/open,성수근린공원 화장실,서울특별시 성동구 성수동2가 302-25,서울특별시 성동구 성수동2가 302-25,N,1,2,1,0,0,0,2,0,0,서울특별시성동구도시관리공단,02-2204-7943,연중무휴,1995-06-01,37.566074,127.047049,2017-02-14,,301112
24941,toilet/open,독서당공원 화장실,서울특별시 성동구 금호동1가 산37-7,서울특별시 성동구 금호동1가 산37-7,N,1,3,1,0,0,0,3,1,0,서울특별시성동구도시관리공단,02-2204-7943,연중무휴,2016-01-01,37.556445000000004,127.01951799999999,2017-02-14,,301113
24943,toilet/open,왕십리문화공원 화장실,서울특별시 성동구 도선동 35-2,서울특별시 성동구 도선동 35-2,N,2,2,1,0,0,0,5,1,1,서울특별시성동구도시관리공단,02-2204-7943,연중무휴,2016-12-01,37.553588,127.04191599999999,2017-02-14,,301114
24945,toilet/open,한양대 앞 화장실,서울특별시 성동구 행당동 157-4,서울특별시 성동구 행당동 157-4,N,1,1,1,0,0,0,2,0,0,서울특별시성동구도시관리공단,02-2204-7943,연중무휴,2016-11-01,37.566103999999996,127.04575700000001,2017-02-14,,301115
24946,toilet/open,행당어린이공원 화장실,서울특별시 성동구 행당동 128-417,서울특별시 성동구 행당동 128-417,N,3,2,0,0,0,0,3,0,0,서울특별시성동구도시관리공단,02-2204-7943,연중무휴,1989-01-01,37.56176,127.03526299999999,2017-02-14,,301116
